[
  {
    "name": "Element Metech AB",
    "website": "elementmetech.com",
    "phone": null,
    "address": "Brandskydd (134)",
    "city": "Linköping",
    "postalCode": "58254"
  },
  {
    "name": "Eliasson & Lund Industrial Partner AB",
    "website": "elilund.se",
    "phone": "031-920210",
    "address": "Arnendalsvägen 10",
    "city": "Göteborg",
    "postalCode": "41878"
  },
  {
    "name": "Entech Energiteknik AB",
    "website": "entech.se",
    "phone": "0431-44 99 80",
    "address": "Metallgatan 27",
    "city": "Ängelholm",
    "postalCode": "26221"
  },
  {
    "name": "E-Rotor AB",
    "website": "e-rotor.se",
    "phone": "0952-100 15",
    "address": "Långgatan 6",
    "city": "Sorsele",
    "postalCode": "92431"
  },
  {
    "name": "EU Robotservice AB",
    "website": "robotservice.se",
    "phone": null,
    "address": "Jakobstorp",
    "city": "Lidköping",
    "postalCode": "53155"
  },
  {
    "name": "FANUC Nordic AB",
    "website": "fanuc.eu",
    "phone": "08-505 80 700",
    "address": "Djurhagegatan 10",
    "city": "Malmö",
    "postalCode": "21376"
  },
  {
    "name": "FA-Tec i Falkenberg AB",
    "website": "fa-tec.se",
    "phone": "0346-292 00",
    "address": "Kvekatorpsvägen 29",
    "city": "Falkenberg",
    "postalCode": "31132"
  },
  {
    "name": "Fermat Sweden AB",
    "website": "fermatsweden.se",
    "phone": "+46706732881",
    "address": "Bredablicksgatan 2 A",
    "city": "Degerfors",
    "postalCode": "69335"
  },
  {
    "name": "Ferrmek Verkstad AB",
    "website": "ferrmek.se",
    "phone": "0414-21210",
    "address": "Näckebovägen",
    "city": "Simrishamn",
    "postalCode": "27200"
  },
  {
    "name": "Flintab AB",
    "website": "flintab.se",
    "phone": "036-31 42 00",
    "address": "Kabelvägen 4",
    "city": "Jönköping",
    "postalCode": "55302"
  },
  {
    "name": "Fortuna Maskinservice AB",
    "website": "fortunamaskinservice.se",
    "phone": "016-42 40 75",
    "address": "Ekbacken 5",
    "city": "Eskilstuna",
    "postalCode": "63220"
  },
  {
    "name": "Fyhrs Tryckluft-Service AB",
    "website": "fyhrs.se",
    "phone": null,
    "address": "Navestadsgatan 33",
    "city": "Norrköping",
    "postalCode": "60366"
  },
  {
    "name": "G:berg Mekaniska AB",
    "website": "gberg.nu",
    "phone": "0704-46 49 47",
    "address": "Tornväktargränd 12",
    "city": "Bromma",
    "postalCode": "16859"
  },
  {
    "name": "GESAB Garage Equipment Service AB",
    "website": "gesab-sweden.se",
    "phone": null,
    "address": "Okvistavägen 36",
    "city": "Vallentuna",
    "postalCode": "18640"
  },
  {
    "name": "GITAB Göteborgs Industri & Tryckluft AB",
    "website": "gitabtryckluft.se",
    "phone": "031-21 51 00",
    "address": "Marieholmsgatan 10",
    "city": "Göteborg",
    "postalCode": "41502"
  },
  {
    "name": "Glafsfjordens Maskin och Svets AB",
    "website": "gmsab.se",
    "phone": "0570-214 55",
    "address": "Kokerigatan 5",
    "city": "Arvika",
    "postalCode": "67160"
  },
  {
    "name": "Gnosjö Automatsvarvning AB",
    "website": "svarvning.nu",
    "phone": "0370-33 32 50",
    "address": "Lidängsvägen 1",
    "city": "Gnosjö",
    "postalCode": "33524"
  },
  {
    "name": "GOTFire AB",
    "website": "gotfire.se",
    "phone": "0498-20 17 50",
    "address": "Vänge Gandarve 510",
    "city": "Romakloster",
    "postalCode": "62236"
  },
  {
    "name": "Grindtech AB",
    "website": "grindtech.se",
    "phone": "070-5768161",
    "address": "Linnebäck 408",
    "city": "Karlskoga",
    "postalCode": "69193"
  },
  {
    "name": "Hagfors Vägstål AB",
    "website": "vagstal.com",
    "phone": "0563-41015",
    "address": "Hästfallsvägen 21",
    "city": "Ekshärad",
    "postalCode": "68360"
  },
  {
    "name": "Hako Sweden AB",
    "website": "hako.se",
    "phone": null,
    "address": "Skallebackavägen 10",
    "city": "Halmstad",
    "postalCode": "30241"
  },
  {
    "name": "Hestra Teknik AB",
    "website": "hestrateknik.se",
    "phone": "0370-66 98 00",
    "address": "Äspåsvägen 14",
    "city": "Hestra",
    "postalCode": "33571"
  },
  {
    "name": "Hestra Truck & Maskin AB",
    "website": "hestratruck.se",
    "phone": "0370-33 59 20",
    "address": "Lilla Hestra",
    "city": "Hestra",
    "postalCode": "33572"
  },
  {
    "name": "Hydraulik och industriservice i Kävlinge AB",
    "website": "kavlingehydraulik.net",
    "phone": "046-73 22 50",
    "address": "Götgatan 2",
    "city": "Kävlinge",
    "postalCode": "24432"
  },
  {
    "name": "Hydraulpartner i Sverige AB",
    "website": "hydraulpartner.se",
    "phone": "0702-92 78 72",
    "address": "Mallanköpingevägen 9",
    "city": "Trelleborg",
    "postalCode": "23134"
  },
  {
    "name": "Härnösands Plastindustri AB",
    "website": "hpi.nu",
    "phone": "0611-26520",
    "address": "Verkstadsvägen 17",
    "city": "Härnösand",
    "postalCode": "87154"
  },
  {
    "name": "Härryda Mekaniska Verkstad AB",
    "website": "harrydamekaniska.se",
    "phone": "031-881988",
    "address": "Metallvägen 16",
    "city": "Mölnlycke",
    "postalCode": "43533"
  },
  {
    "name": "IBEROBOT Svenska AB",
    "website": "iberobot.se",
    "phone": "060-57 33 10",
    "address": "Terminalvägen 15",
    "city": "Timrå",
    "postalCode": "86136"
  },
  {
    "name": "IMH Machinery AB",
    "website": "imhmachinery.se",
    "phone": "0580-886 60",
    "address": "Kaveltorpsgatan 2",
    "city": "Kopparberg",
    "postalCode": "71433"
  },
  {
    "name": "Industriunderhåll i Kungsäter AB",
    "website": "iuh.se",
    "phone": "0340-333 44",
    "address": "Karl Gustav 143",
    "city": "Karl Gustav",
    "postalCode": "43269"
  },
  {
    "name": "Ingersoll-Rand AB",
    "website": "ingersollrand.com",
    "phone": "040-16 20 60",
    "address": "Lindberghs gata 9",
    "city": "Arlandastad",
    "postalCode": "19561"
  },
  {
    "name": "Inkit AB",
    "website": "inkit.se",
    "phone": "031-96 66 88",
    "address": "Smidesgatan 5",
    "city": "Göteborg",
    "postalCode": "41707"
  },
  {
    "name": "J. Persson Montage AB",
    "website": "jpmontage.se",
    "phone": "0457-200 56",
    "address": "Bredåkravägen 41",
    "city": "Kallinge",
    "postalCode": "37292"
  },
  {
    "name": "Jape Laserservice AB",
    "website": "japeab.se",
    "phone": "0703-819560",
    "address": "Fidegatan 5",
    "city": "Visby",
    "postalCode": "62143"
  },
  {
    "name": "Järbo Svets & Press AB",
    "website": "svetsochpress.se",
    "phone": "0290-710 23",
    "address": "Järbovägen 993",
    "city": "Järbo",
    "postalCode": "81171"
  },
  {
    "name": "Karlskoga Automatsvarvning AB",
    "website": "autosvarv.com",
    "phone": "0586-376 00",
    "address": "Maskinvägen 14",
    "city": "Karlskoga",
    "postalCode": "69137"
  },
  {
    "name": "Karlskoga Härd & Slip AB",
    "website": "hardoslip.se",
    "phone": "0586-240980",
    "address": "Smidesvägen 2",
    "city": "Karlskoga",
    "postalCode": "69150"
  },
  {
    "name": "KIP Service AB",
    "website": "sv-se.facebook.com",
    "phone": "0411-427 97",
    "address": "Södra Industrigatan 4",
    "city": "Skurup",
    "postalCode": "27430"
  },
  {
    "name": "KJK Lagerprodukter AB",
    "website": "kjk.se",
    "phone": "08-543 531 55",
    "address": "Norra Ågatan 9",
    "city": "Arboga",
    "postalCode": "73231"
  },
  {
    "name": "Laholms Mekaniska AB",
    "website": "laholmsmekaniskaab.se",
    "phone": "0430-105 73",
    "address": "Kullsgårdsvägen 19",
    "city": "Laholm",
    "postalCode": "31232"
  },
  {
    "name": "LBY TECH AB",
    "website": "lbytech.se",
    "phone": "0372-828 38",
    "address": "Kungsgatan 48",
    "city": "Ljungby",
    "postalCode": "34131"
  },
  {
    "name": "Linde Metallteknik AB",
    "website": "lindemetall.se",
    "phone": "042-37 38 39",
    "address": "Rågångsgatan 4",
    "city": "Helsingborg",
    "postalCode": "25227"
  },
  {
    "name": "Linköpings IndustriMekano AB",
    "website": "l-im.se",
    "phone": "0702-66 99 24",
    "address": "Barhällgatan 13",
    "city": "Linköping",
    "postalCode": "58239"
  },
  {
    "name": "Linto AB",
    "website": "linto.se",
    "phone": "0393-224 50",
    "address": "Vaggerydsvägen 4",
    "city": "Hok",
    "postalCode": "56013"
  },
  {
    "name": "Länna Svets & mekaniska verkstads AB",
    "website": "lannasvets.se",
    "phone": "0152-510 37",
    "address": "Länna Grankulla 2",
    "city": "Strängnäs",
    "postalCode": "64591"
  },
  {
    "name": "Marks Industriservice AB",
    "website": "marksindustri.se",
    "phone": "0320-155 15",
    "address": "Gnejsvägen 2",
    "city": "Kinna",
    "postalCode": "51154"
  },
  {
    "name": "Maskincentrum i Örnsköldsvik AB",
    "website": "maskincentrum.com",
    "phone": "0660-26 65 70",
    "address": "Tegelbruksvägen 10",
    "city": "Arnäsvall",
    "postalCode": "89155"
  },
  {
    "name": "MD Allteknik AB",
    "website": "mdallteknik.se",
    "phone": "08-410 409 78",
    "address": "Stora Näshagenvägen 2",
    "city": "Bro",
    "postalCode": "19792"
  },
  {
    "name": "Meiszners Mekaniska AB",
    "website": "meisznersmek.se",
    "phone": "0155-372 73",
    "address": "Baravägen 1",
    "city": "Oxelösund",
    "postalCode": "61323"
  },
  {
    "name": "MekHub AB",
    "website": "mekhub.se",
    "phone": "0705690500",
    "address": "Strandgatan 42B",
    "city": "Ulricehamn",
    "postalCode": "52331"
  },
  {
    "name": "Melament AB",
    "website": "melament.se",
    "phone": "0476-10360",
    "address": "Stallgatan 2",
    "city": "Älmhult",
    "postalCode": "34321"
  },
  {
    "name": "Milenko Mekaniska AB",
    "website": "milenko.se",
    "phone": "031-54 10 10",
    "address": "Kärrlyckegatan 5",
    "city": "Göteborg",
    "postalCode": "41878"
  },
  {
    "name": "NC JOUR AB",
    "website": "ncjour.se",
    "phone": "060-17 46 60",
    "address": "Kompaniv 4, LV 5 Företagsby, Södra Berget",
    "city": "Sundsvall",
    "postalCode": "85238"
  },
  {
    "name": "Industritorget Sweden AB +46 35 260 32 00 support@industritorget.se",
    "website": "industritorget.se",
    "phone": "+46 35 260 32 00",
    "address": "Jobba på industritorget",
    "city": null,
    "postalCode": null
  },
  {
    "name": "Nordic Flanges AB",
    "website": "nordtrafo.com",
    "phone": null,
    "address": "Brandskydd (134)",
    "city": "Bergsjö",
    "postalCode": "82070"
  },
  {
    "name": "Nordic Service Centrum AB",
    "website": null,
    "phone": null,
    "address": "MODISTVÄGEN 23B",
    "city": "Stenungsund",
    "postalCode": "44452"
  },
  {
    "name": "Nordifa AB",
    "website": null,
    "phone": null,
    "address": "Kristinebergsvägen 19",
    "city": "Halmstad",
    "postalCode": "30241"
  },
  {
    "name": "Nordisk Hiss AB",
    "website": null,
    "phone": "013-31 47 00",
    "address": "Norra Oskarsgatan 33",
    "city": "Linköping",
    "postalCode": "58118"
  },
  {
    "name": "Nordströms Elektriska Byrå, AB",
    "website": null,
    "phone": null,
    "address": "Förrådsvägen 6",
    "city": "Umeå",
    "postalCode": "90132"
  },
  {
    "name": "Nordtrafo AB",
    "website": "nordtrafo.com",
    "phone": "0612-522 10",
    "address": "Fågelvägen 8",
    "city": "Nyland",
    "postalCode": "87371"
  },
  {
    "name": "Noremech Production AB",
    "website": null,
    "phone": "0505-201 40",
    "address": "Klockarstigen 40",
    "city": "Undenäs",
    "postalCode": "54694"
  },
  {
    "name": "Norrahammars Plåtslageri AB",
    "website": null,
    "phone": null,
    "address": "Västra Källängsvägen 14",
    "city": "Norrahammar",
    "postalCode": "56221"
  },
  {
    "name": "Norrbo Svets AB",
    "website": "norrbosvets.se",
    "phone": "0653-230 31",
    "address": "FREDRIKSFORS 23",
    "city": "DELSBO",
    "postalCode": "82472"
  },
  {
    "name": "Noxtech AB",
    "website": null,
    "phone": "0708-44 26 85",
    "address": "Andvägen 5",
    "city": "HÖNÖ",
    "postalCode": "47540"
  },
  {
    "name": "NYKAB I SÄTILA KB",
    "website": null,
    "phone": "0301-426 44",
    "address": "Fjäråsvägen 12",
    "city": "Göteborg",
    "postalCode": "41720"
  },
  {
    "name": "Nymans Svets & Montage AB",
    "website": null,
    "phone": null,
    "address": "Utmarksvägen 5",
    "city": "Gävle",
    "postalCode": "80291"
  },
  {
    "name": "OFAB i Kiruna AB",
    "website": null,
    "phone": "073-088 33 51",
    "address": "MASKINVÄGEN 18",
    "city": "Kiruna",
    "postalCode": "98138"
  },
  {
    "name": "OH Elektronik AB",
    "website": null,
    "phone": "0491-14545",
    "address": "Hyvelgatan 3",
    "city": "Oskarshamn",
    "postalCode": "57236"
  },
  {
    "name": "Oilmek AB",
    "website": null,
    "phone": "0522-64 54 50",
    "address": "Skalbanksvägen 4",
    "city": "Uddevalla",
    "postalCode": "45155"
  },
  {
    "name": "Oles Svets i Gnosjö AB",
    "website": null,
    "phone": "0370-99299",
    "address": "Hemvärnsvägen 1",
    "city": "Gnosjö",
    "postalCode": "33530"
  },
  {
    "name": "Olles Svets i Enköping AB",
    "website": null,
    "phone": "0171-47 72 80",
    "address": "Stenvretsgatan 1",
    "city": "Enköping",
    "postalCode": "74563"
  },
  {
    "name": "Olssons Maskinservice i Falköping AB",
    "website": null,
    "phone": "0515-13075",
    "address": "Sikagårdsgatan 6",
    "city": "Falköping",
    "postalCode": "52134"
  },
  {
    "name": "Olssons Mekaniska i Halmstad AB",
    "website": null,
    "phone": "0709-84 01 08",
    "address": "Skallebackavägen 12 C",
    "city": "Strömsnäsbruk",
    "postalCode": "28791"
  },
  {
    "name": "ONE Automation AB",
    "website": null,
    "phone": "073-980 89 88",
    "address": "Tokarp Fryebovägen 13",
    "city": "Anderstorp",
    "postalCode": "33491"
  },
  {
    "name": "Opening Mälardalen AB",
    "website": null,
    "phone": "0150-20 00 00",
    "address": "Ljungvägen 4",
    "city": "Katrineholm",
    "postalCode": "64139"
  },
  {
    "name": "Oresund Steel Construction AB",
    "website": null,
    "phone": "0418-56580",
    "address": "Sverige",
    "city": null,
    "postalCode": null
  },
  {
    "name": "Orwak AB",
    "website": null,
    "phone": "0382-157 00",
    "address": "Svetsaregatan",
    "city": "Sävsjö",
    "postalCode": "57622"
  },
  {
    "name": "Osby Svetsverkstad AB",
    "website": null,
    "phone": "0479-106 11",
    "address": "Sverige",
    "city": null,
    "postalCode": null
  },
  {
    "name": "Ottossons Allservice AB",
    "website": null,
    "phone": "0471-13044",
    "address": "Södra Vägen 35",
    "city": "Emmaboda",
    "postalCode": "36131"
  },
  {
    "name": "P Noords Mekaniska AB",
    "website": null,
    "phone": "0522-371 25",
    "address": "Skalbanksvägen 6 F",
    "city": "Uddevalla",
    "postalCode": "45155"
  },
  {
    "name": "P. Maskinservice AB",
    "website": null,
    "phone": "0705-24 88 53",
    "address": "Padderyd",
    "city": "Tving",
    "postalCode": "37033"
  },
  {
    "name": "PA Marin och Industri AB",
    "website": null,
    "phone": "0705-814 815",
    "address": "Hangarvägen 18, Torslanda",
    "city": "Kode",
    "postalCode": "44260"
  },
  {
    "name": "Pamil Modulsystem AB",
    "website": null,
    "phone": "042-29 30 55",
    "address": "Stenbrovägen 52",
    "city": "Helsingborg",
    "postalCode": "25368"
  },
  {
    "name": "PartnerTech Karlskoga AB",
    "website": null,
    "phone": "0586-24 60 00",
    "address": "Bofors industriområde / Rosendalsporten",
    "city": "Karlskoga",
    "postalCode": "69180"
  },
  {
    "name": "Perfekta Industrier AB",
    "website": null,
    "phone": "0570-38840",
    "address": "Jössefors Industriområde",
    "city": "Arvika",
    "postalCode": "67129"
  },
  {
    "name": "Pernands Svets & Konstsmide AB",
    "website": null,
    "phone": "021-13 51 35",
    "address": "Hylsvägen 20, Butiken på Hylsvägen 6",
    "city": "Västerås",
    "postalCode": "72130"
  },
  {
    "name": "Perssons Industriservice i Iggesund AB",
    "website": null,
    "phone": "0650-22820",
    "address": "Sågmyrav 3",
    "city": "Iggesund",
    "postalCode": "82531"
  },
  {
    "name": "Perstorps Verktygs AB",
    "website": null,
    "phone": "0435-315 34",
    "address": "Blåbärsstigen 9",
    "city": "Perstorp",
    "postalCode": "28432"
  },
  {
    "name": "Petterssons Verkstad i Komstad AB",
    "website": null,
    "phone": "0382-12565",
    "address": "Komstad Enhult",
    "city": "Sävsjö",
    "postalCode": "57691"
  },
  {
    "name": "Piteå Industrimek. AB",
    "website": null,
    "phone": "0911-600 80",
    "address": "Garagevägen 4",
    "city": "Öjebyn",
    "postalCode": "94331"
  },
  {
    "name": "PK Neon AB",
    "website": null,
    "phone": null,
    "address": "Eddagatan 5",
    "city": "Gävle",
    "postalCode": "80254"
  },
  {
    "name": "Plamako i Anderstorp AB",
    "website": null,
    "phone": "0371-58 82 80",
    "address": "Ågatan 13",
    "city": "Anderstorp",
    "postalCode": "33421"
  },
  {
    "name": "Plåt & Maskinmontage i Brattfors AB",
    "website": null,
    "phone": "0590-14060",
    "address": "Förrådsgatan 7",
    "city": "Filipstad",
    "postalCode": "68233"
  },
  {
    "name": "Plåtslagarn I Närke AB",
    "website": null,
    "phone": "0584-132 82",
    "address": "Klockartorp",
    "city": "Laxå",
    "postalCode": "69532"
  },
  {
    "name": "PMK Marin & Industri AB",
    "website": null,
    "phone": "0418-10737",
    "address": "Dockgatan 2 varvsuden Landskrona",
    "city": "Helsingborg",
    "postalCode": "25361"
  },
  {
    "name": "Pon Power AB",
    "website": null,
    "phone": "031-69 65 00",
    "address": "Hvitfeldtsgatan 15",
    "city": "Göteborg",
    "postalCode": "41120"
  },
  {
    "name": "Powerit Solutions AB",
    "website": null,
    "phone": "040 631 60 00",
    "address": "Stenyxegatan 21 M",
    "city": "Malmö",
    "postalCode": "21376"
  },
  {
    "name": "Premier Manufacturing Support Services AB",
    "website": null,
    "phone": "0520-470050",
    "address": "Magasinsgatan 3",
    "city": "Trollhättan",
    "postalCode": "46121"
  },
  {
    "name": "ProCell i Linköping AB",
    "website": null,
    "phone": "013-230570",
    "address": "Björklundsgatan 7",
    "city": "Linköping",
    "postalCode": "58422"
  },
  {
    "name": "Processcomponent AB",
    "website": null,
    "phone": "0524-40750",
    "address": "Strömstadsvägen 9",
    "city": "Dingle",
    "postalCode": "45052"
  },
  {
    "name": "Processtec J Johansson AB",
    "website": null,
    "phone": "072-243 59 56",
    "address": "Åsenvägen 29",
    "city": "Edsbyn",
    "postalCode": "82834"
  },
  {
    "name": "Proco Services AB",
    "website": null,
    "phone": "08-734 05 80",
    "address": "Västberga Allé 26",
    "city": "Hägersten",
    "postalCode": "12630"
  },
  {
    "name": "ProdOpti AB",
    "website": null,
    "phone": "08-410 772 77",
    "address": "Lagervägen 5a",
    "city": "Jordbro",
    "postalCode": "13650"
  },
  {
    "name": "Profilplåt i Järbo AB",
    "website": null,
    "phone": "0290-702 60",
    "address": "Yllefabriken 34",
    "city": "Järbo",
    "postalCode": "81171"
  },
  {
    "name": "PROROB Teknik AB",
    "website": null,
    "phone": "+46 472-266 000",
    "address": "Moshult 6",
    "city": "Vislanda",
    "postalCode": "34252"
  },
  {
    "name": "Proseal AB",
    "website": "proseal.se",
    "phone": "054-85 69 10",
    "address": "Regnvindsgatan 17",
    "city": "Karlstad",
    "postalCode": "65221"
  },
  {
    "name": "Protech Nordic AB",
    "website": null,
    "phone": "08-594 708 00",
    "address": "Girovägen 13",
    "city": "Järfälla",
    "postalCode": "17562"
  },
  {
    "name": "Protector Ytbehandling AB",
    "website": null,
    "phone": "0300-72855",
    "address": "Magasinsgatan 4",
    "city": "Kungsbacka",
    "postalCode": "43437"
  },
  {
    "name": "Proway AB",
    "website": "proway.se",
    "phone": "0345-408 00",
    "address": "Verkstadsgatan",
    "city": "Hyltebruk",
    "postalCode": "31422"
  },
  {
    "name": "ProVictum AB",
    "website": null,
    "phone": "021-12 16 00",
    "address": "ARNBOMSGATAN 10",
    "city": "VÄSTERÅS",
    "postalCode": "72132"
  },
  {
    "name": "Puls - Planerad Underhållsservice AB",
    "website": "rolfindustri.se",
    "phone": null,
    "address": "Brandskydd (134)",
    "city": "Staffanstorp",
    "postalCode": "24534"
  },
  {
    "name": "Pumpservice i Gästrikland AB",
    "website": null,
    "phone": null,
    "address": "Beckasinvägen 4",
    "city": "Gävle",
    "postalCode": "80309"
  },
  {
    "name": "R.I.M Rolf Industri & Marine AB",
    "website": "rolfindustri.se",
    "phone": "0700440787",
    "address": "Tjärtången 34",
    "city": "Hjälteby",
    "postalCode": "47172"
  },
  {
    "name": "Ragnar Eks Mekaniska Verkstad AB",
    "website": null,
    "phone": "0371-20250",
    "address": "Gislavedsvägen",
    "city": "Reftele",
    "postalCode": "33021"
  },
  {
    "name": "Ralex CNC Teknik & Svets AB",
    "website": null,
    "phone": "0382-100 16",
    "address": "Hantverkaregatan 2",
    "city": "Nässjö",
    "postalCode": "57134"
  },
  {
    "name": "Ralutek AB",
    "website": null,
    "phone": "0911-207 045",
    "address": "Formvägen 2",
    "city": "Rosvik",
    "postalCode": "94533"
  },
  {
    "name": "Ramén Valves AB",
    "website": "ramenvalves.com",
    "phone": "08-594 779 70",
    "address": "Fredsforsstigen 22A",
    "city": "Bromma",
    "postalCode": "16867"
  },
  {
    "name": "Ramlösabrunns Mekaniska Verkstad AB",
    "website": null,
    "phone": "042-453 14 00",
    "address": "Torbornavägen 1",
    "city": "Helsingborg",
    "postalCode": "25368"
  },
  {
    "name": "Rantzows Mekaniska AB",
    "website": null,
    "phone": "0418-504 24",
    "address": "Östra Kajgatan 1",
    "city": "Landskrona",
    "postalCode": "26135"
  },
  {
    "name": "Recotech AB",
    "website": null,
    "phone": "0589-370 500",
    "address": "Kungsörsvägen 60",
    "city": "Arboga",
    "postalCode": "73248"
  },
  {
    "name": "Research Electronics Leksand AB",
    "website": null,
    "phone": "0247-233 50",
    "address": "Företagshuset",
    "city": "Siljansnäs",
    "postalCode": "79360"
  },
  {
    "name": "RFR Solutions AB",
    "website": null,
    "phone": "0418-48 55 00",
    "address": "Förrådsgatan 3",
    "city": "Landskrona",
    "postalCode": "26135"
  },
  {
    "name": "Rimaster Electrosystem AB",
    "website": null,
    "phone": "0494-79500",
    "address": "Industrivägen 14",
    "city": "Rimforsa",
    "postalCode": "59044"
  },
  {
    "name": "Rixmekanik AB",
    "website": null,
    "phone": "0705456630",
    "address": "Gärdesgatan 4",
    "city": "Kil",
    "postalCode": "66522"
  },
  {
    "name": "R-Kås AB",
    "website": null,
    "phone": "0370-918 00",
    "address": "Ågatan 23",
    "city": "Gnosjö",
    "postalCode": "33525"
  },
  {
    "name": "Robotteknik Automation Vetlanda AB",
    "website": null,
    "phone": "0383-146 95",
    "address": "Dikesvägen 6",
    "city": "Vetlanda",
    "postalCode": "57435"
  },
  {
    "name": "Rof Teknik AB",
    "website": null,
    "phone": "08-591 44 195",
    "address": "Kimsta gård",
    "city": "Rosersberg",
    "postalCode": "19596"
  },
  {
    "name": "Roneco Mekaniska AB",
    "website": null,
    "phone": "031-543700",
    "address": "Ruskvädersgatan 3 A",
    "city": "Göteborg",
    "postalCode": "41834"
  },
  {
    "name": "Roslagens Industriteknik AB",
    "website": null,
    "phone": "0173-21790",
    "address": "Truckvägen 2",
    "city": "Östhammar",
    "postalCode": "74234"
  },
  {
    "name": "R-Tech Solution AB",
    "website": null,
    "phone": "042-261009",
    "address": "Frejagatan 4",
    "city": "Helsingborg",
    "postalCode": "25232"
  },
  {
    "name": "Runby Elektroservice AB",
    "website": null,
    "phone": "08-59030018",
    "address": "Finvids Väg 12",
    "city": "Upplands Väsby",
    "postalCode": "19404"
  },
  {
    "name": "Rydin Industrisvets AB",
    "website": null,
    "phone": "031-760 09 95",
    "address": "Rydin Industrisvets AB",
    "city": "Gbg",
    "postalCode": "41507"
  },
  {
    "name": "Rytterne Mekan AB",
    "website": null,
    "phone": "021-17 04 70",
    "address": "Munkbovägen 6",
    "city": "Västerås",
    "postalCode": "72132"
  },
  {
    "name": "Råbe Tooling AB",
    "website": null,
    "phone": "021-83 87 00",
    "address": "Utvecklingsgränd 9",
    "city": "Västerås",
    "postalCode": "72226"
  },
  {
    "name": "Råå Konstruktionsplast AB",
    "website": null,
    "phone": "042-26 08 48",
    "address": "Frejagatan 12",
    "city": "Helsingborg",
    "postalCode": "25232"
  },
  {
    "name": "Rör & Processinstallation i Nyköping AB",
    "website": null,
    "phone": "0155-21 63 02",
    "address": "Industrigatan 12",
    "city": "Nyköping",
    "postalCode": "61138"
  },
  {
    "name": "Rör & Smide i Vittensten AB",
    "website": null,
    "phone": "0571-312 00",
    "address": "Vittenstensvägen 42",
    "city": "Åmotfors",
    "postalCode": "67040"
  },
  {
    "name": "S Tech AB",
    "website": null,
    "phone": "0303-77 37 10",
    "address": "Kraftverksvägen",
    "city": "Stenungsund",
    "postalCode": "44432"
  },
  {
    "name": "Saltängens Mekaniska Verkstad AB",
    "website": null,
    "phone": null,
    "address": "Järngatan 25",
    "city": "Norrköping",
    "postalCode": "60223"
  },
  {
    "name": "Samuelsson Mekaniska AB",
    "website": null,
    "phone": null,
    "address": "Ekeby",
    "city": "Norrtälje",
    "postalCode": "76174"
  },
  {
    "name": "Sandbergs Smide & Mekaniska AB",
    "website": null,
    "phone": "0456-271 90",
    "address": "Industrigatan 27",
    "city": "Bromölla",
    "postalCode": "29539"
  },
  {
    "name": "Sandflo Mekanik AB",
    "website": null,
    "phone": "0520-812 19",
    "address": "kardanvägen 43",
    "city": "Trollhättan",
    "postalCode": "46137"
  },
  {
    "name": "Seba Dynatronic Sverige AB",
    "website": null,
    "phone": "08-747 24 30",
    "address": "Svarvarvägen 1",
    "city": "Saltsjö-boo",
    "postalCode": "13225"
  },
  {
    "name": "SEBRO Maskin AB",
    "website": null,
    "phone": "0410-270 36",
    "address": "Verkstadsgatan",
    "city": "Trelleborg",
    "postalCode": "23166"
  },
  {
    "name": "Semi Industri El AB",
    "website": null,
    "phone": null,
    "address": "Oxelgrensvägen 28",
    "city": "Södertälje",
    "postalCode": "15242"
  },
  {
    "name": "SGK Installations AB",
    "website": null,
    "phone": "0346-161 79",
    "address": "Betongvägen 1",
    "city": "Falkenberg",
    "postalCode": "31132"
  },
  {
    "name": "Shamrock Truck AB",
    "website": "shamrockgroup.se",
    "phone": "070-328 01 10",
    "address": "Svarvarvägen 20",
    "city": "Saltsjö-Boo",
    "postalCode": "13226"
  },
  {
    "name": "SICAB i Varberg AB",
    "website": null,
    "phone": "0340-876 20",
    "address": "Härdgatan 32",
    "city": "Varberg",
    "postalCode": "43215"
  },
  {
    "name": "Simonsson Rör AB",
    "website": null,
    "phone": "0280-312 31",
    "address": "Skålmo 18",
    "city": "Lima",
    "postalCode": "78064"
  },
  {
    "name": "SITT Tryckluftsteknik AB",
    "website": null,
    "phone": "070-5551250",
    "address": "Hamra, Vendel",
    "city": "Örbyhus",
    "postalCode": "74060"
  },
  {
    "name": "Sjurs Mekaniska Verkstad AB",
    "website": null,
    "phone": "0321-53 33 72",
    "address": "Hillaredsvägen 6",
    "city": "Ulricehamn",
    "postalCode": "52330"
  },
  {
    "name": "Skaraborgs Brandkonsult AB",
    "website": null,
    "phone": "0500-42 41 30",
    "address": "Kåsatorpsvägen 5",
    "city": "Skövde",
    "postalCode": "54134"
  },
  {
    "name": "SkyEl AB",
    "website": null,
    "phone": "0702-12 01 18",
    "address": "Spraggarboda 1757",
    "city": "Norrtälje",
    "postalCode": "76192"
  },
  {
    "name": "Skyltgruppen Scandinavia AB",
    "website": null,
    "phone": null,
    "address": "Nybohovsbacken 23",
    "city": "Stockholm",
    "postalCode": "11763"
  },
  {
    "name": "SMEAB Växjö AB",
    "website": null,
    "phone": "0470-711 775",
    "address": "Illervägen 1",
    "city": "Ryssby",
    "postalCode": "34176"
  },
  {
    "name": "Smedjebackens Byggplåt AB",
    "website": null,
    "phone": "0240-756 86",
    "address": "Kuskgatan 2",
    "city": "Smedjebacken",
    "postalCode": "77750"
  },
  {
    "name": "Smålands Maskintjänst AB",
    "website": "smalandsmaskintjanst.se",
    "phone": "0730-85 03 08",
    "address": "Björkuddvägen 5",
    "city": "Hultsfred",
    "postalCode": "57750"
  },
  {
    "name": "Smålands Specialstansning AB",
    "website": null,
    "phone": "0471-334 74",
    "address": "Industrigatan 6",
    "city": "Emmaboda",
    "postalCode": "36131"
  },
  {
    "name": "Smålands Stålgjuteri i Eksjö AB",
    "website": null,
    "phone": "0381-66 32 50",
    "address": "Förrådsgatan 7",
    "city": "Eksjö",
    "postalCode": "57536"
  },
  {
    "name": "S-O Olofsson Mekan AB",
    "website": null,
    "phone": "063-129931",
    "address": "Odenskogsvägen 38",
    "city": "Krokom",
    "postalCode": "83592"
  },
  {
    "name": "SOCHT AB",
    "website": null,
    "phone": "019-458117",
    "address": "Hjälmarvägen 75",
    "city": "Odensbacken",
    "postalCode": "71593"
  },
  {
    "name": "Solhagens Mekaniska Nya AB",
    "website": null,
    "phone": "0522-36275",
    "address": "Skalbanksvägen 6 C",
    "city": "Uddevalla",
    "postalCode": "45155"
  },
  {
    "name": "Solotec AB",
    "website": null,
    "phone": null,
    "address": "Bronsgatan 3",
    "city": "Åstorp",
    "postalCode": "26539"
  },
  {
    "name": "Solsta Metall AB",
    "website": null,
    "phone": "0705-82 88 29",
    "address": "Dye 504",
    "city": "Karlstad",
    "postalCode": "65469"
  },
  {
    "name": "Solö Mechanical Solutions AB",
    "website": "sbm.se",
    "phone": null,
    "address": "Brandskydd (134)",
    "city": "Eskilstuna",
    "postalCode": "63229"
  },
  {
    "name": "Specialprodukter i Halmstad AB",
    "website": null,
    "phone": null,
    "address": "Krontorpsvägen 23",
    "city": "Halmstad",
    "postalCode": "30010"
  },
  {
    "name": "SpecialTeknik i Sverige AB",
    "website": null,
    "phone": "040-642 49 00",
    "address": "Olof Asklunds gata 18",
    "city": "Västra Frölunda",
    "postalCode": "42130"
  },
  {
    "name": "Speedpac AB",
    "website": null,
    "phone": "0322-933 00",
    "address": "Industrigatan 9",
    "city": "Alingsås",
    "postalCode": "44138"
  },
  {
    "name": "SPV Spintec AB",
    "website": null,
    "phone": "016-15 30 30",
    "address": "Fabriksgatan 13",
    "city": "Eskilstuna",
    "postalCode": "63346"
  },
  {
    "name": "SST Slitskyddsteknik AB",
    "website": null,
    "phone": "0553-30025",
    "address": "Norra Viken 405",
    "city": "Molkom",
    "postalCode": "66060"
  },
  {
    "name": "Stackenäs Mekaniska AB",
    "website": null,
    "phone": "0705-13 14 20",
    "address": "NYHEMSVÄGEN 1",
    "city": "Veddige",
    "postalCode": "43268"
  },
  {
    "name": "Starke ARVID AB",
    "website": null,
    "phone": "0522-220 00",
    "address": "Lyckåsvägen 3",
    "city": "Ljungskile",
    "postalCode": "45922"
  },
  {
    "name": "SteamTeam Nordic AB",
    "website": null,
    "phone": null,
    "address": "Fräsarvägen 32",
    "city": "Huddinge",
    "postalCode": "14105"
  },
  {
    "name": "SteelWorx Sweden AB",
    "website": null,
    "phone": "070-612 55 51",
    "address": "Smedjegatan 5",
    "city": "Luleå",
    "postalCode": "97233"
  },
  {
    "name": "Stensele Rep. & Svets AB",
    "website": null,
    "phone": "070-6039491",
    "address": "Risvägen 2",
    "city": "Stensele",
    "postalCode": "92341"
  },
  {
    "name": "Stewes Servicefirma i Dångebo AB",
    "website": null,
    "phone": "0477-54980",
    "address": "Postvägen 10",
    "city": "Konga",
    "postalCode": "36240"
  },
  {
    "name": "Stigens Maskinteknik AB",
    "website": null,
    "phone": "0528-303 00",
    "address": "Fabriksv. 8",
    "city": "Stigen",
    "postalCode": "45803"
  },
  {
    "name": "Stito AB",
    "website": null,
    "phone": "0431-12325",
    "address": "Metallgatan 19 A",
    "city": "Ängelholm",
    "postalCode": "26272"
  },
  {
    "name": "Stockholms Tryckluft Specialist AB",
    "website": null,
    "phone": null,
    "address": "Västbergavägen 25",
    "city": "Stockholm",
    "postalCode": "12612"
  },
  {
    "name": "Stockholms Vattenskärning AB",
    "website": null,
    "phone": "08-583 525 50",
    "address": "Kraftvägen 20",
    "city": "Kungsängen",
    "postalCode": "19637"
  },
  {
    "name": "Ströms Svetskonsult AB",
    "website": null,
    "phone": "0911-602 11",
    "address": "Hammarvägen 31",
    "city": "Öjebyn",
    "postalCode": "94336"
  },
  {
    "name": "Stureby Maskiner AB",
    "website": null,
    "phone": null,
    "address": "Tussmötevägen 239",
    "city": "Enskede",
    "postalCode": "12264"
  },
  {
    "name": "Ståhls Plåt AB",
    "website": null,
    "phone": "0278-651550",
    "address": "Sibo Sandersberg 3453",
    "city": "Kilafors",
    "postalCode": "82391"
  },
  {
    "name": "Stål & Maskin Teknik AB",
    "website": null,
    "phone": "0582-164 77",
    "address": "Esplanaden 41",
    "city": "Hallsberg",
    "postalCode": "69424"
  },
  {
    "name": "STÅLAB i Trollhättan AB",
    "website": null,
    "phone": "0520-474100",
    "address": "Grafitens Industricentrum 8",
    "city": "Trollhättan",
    "postalCode": "46137"
  },
  {
    "name": "Stålsmide i Luleå AB",
    "website": null,
    "phone": "0920-25 11 80",
    "address": "Hantverksvägen 18",
    "city": "Gammelstad",
    "postalCode": "95433"
  },
  {
    "name": "Ståltek i Oskarshamn AB",
    "website": null,
    "phone": "0491-17044",
    "address": "Formaregatan 1",
    "city": "Oskarshamn",
    "postalCode": "57236"
  },
  {
    "name": "Sun Maskin & Service AB",
    "website": null,
    "phone": null,
    "address": "Lovartsgatan. 8",
    "city": "Karlstad",
    "postalCode": "65221"
  },
  {
    "name": "Surftech Engineering AB",
    "website": null,
    "phone": "031-742 09 80",
    "address": "Importgatan 19-21",
    "city": "Hisings Backa",
    "postalCode": "42246"
  },
  {
    "name": "SweDendro AB",
    "website": null,
    "phone": "0470-262 70",
    "address": "Arabygatan 72",
    "city": "Växjö",
    "postalCode": "35262"
  },
  {
    "name": "Swedish Electro Static AB",
    "website": null,
    "phone": "08-6640590",
    "address": "Artemisgatan 24-26",
    "city": "Stockholm",
    "postalCode": "11542"
  },
  {
    "name": "SwedMotor AB",
    "website": null,
    "phone": "08-500 121 40",
    "address": "Dåntorpsvägen 33 C",
    "city": "Haninge",
    "postalCode": "13650"
  },
  {
    "name": "Svensk Blästring och Maskinteknik AB",
    "website": "sbm.se",
    "phone": "0430-16560",
    "address": "Repslagaregatan 17",
    "city": "Laholm",
    "postalCode": "31232"
  },
  {
    "name": "Svensk Hytt-Comfort AB",
    "website": null,
    "phone": "0430-732 30",
    "address": "Kullsgårdsvägen 21",
    "city": "Laholm",
    "postalCode": "31234"
  },
  {
    "name": "Svensk Kylindustri AB",
    "website": null,
    "phone": "0142-200 35",
    "address": "Magasinsvägen 44",
    "city": "Mantorp",
    "postalCode": "59020"
  },
  {
    "name": "Svenska Elektrod AB",
    "website": null,
    "phone": "087340075",
    "address": "Kemistvägen 26",
    "city": "Täby",
    "postalCode": "18379"
  },
  {
    "name": "Sverigemontage AB",
    "website": null,
    "phone": "070-39 99 215",
    "address": "Box 91",
    "city": "Ljungby",
    "postalCode": "34122"
  },
  {
    "name": "Swerob Service AB",
    "website": null,
    "phone": null,
    "address": "Rosenfors",
    "city": "Skogstorp",
    "postalCode": "63369"
  },
  {
    "name": "Sverull ElektroDynamo AB",
    "website": "sverull.se",
    "phone": "0770-22 14 00",
    "address": "Huvudkontor Fridhemsvägen 17",
    "city": "Jönköping",
    "postalCode": "55302"
  },
  {
    "name": "Svets- & Industriservice i Skaraborg AB",
    "website": null,
    "phone": "0511-60399",
    "address": "Ljungstorp Kleven",
    "city": "Varnhem",
    "postalCode": "53273"
  },
  {
    "name": "Svets & Maskinservice Emmaboda AB",
    "website": null,
    "phone": "0471-122 50",
    "address": "Verktygsvägen 4",
    "city": "Lindås",
    "postalCode": "36142"
  },
  {
    "name": "Svets & Montage Industripartner SMIP AB",
    "website": "svetsomontage.se",
    "phone": "0456-505 72",
    "address": "Kvarnvägen 5",
    "city": "Sölvesborg",
    "postalCode": "29400"
  },
  {
    "name": "Svets och Materialteknik i Askersund AB",
    "website": null,
    "phone": "0583-142 90",
    "address": "Åkervägen 4",
    "city": "Askersund",
    "postalCode": "69632"
  },
  {
    "name": "SVETSAB / POLPOWER AB",
    "website": null,
    "phone": "042-162790",
    "address": "Box 242",
    "city": "Höganäs",
    "postalCode": "26322"
  },
  {
    "name": "Svetsbo AB",
    "website": null,
    "phone": "0456-51207",
    "address": "Markasträtet 198",
    "city": "Sölvesborg",
    "postalCode": "29494"
  },
  {
    "name": "Svetsreparatörerna i Piteå AB",
    "website": null,
    "phone": "0911-21 14 45",
    "address": "Fläktgatan 26",
    "city": "Piteå",
    "postalCode": "94147"
  },
  {
    "name": "Svetsservice AB",
    "website": null,
    "phone": "016-13 12 10",
    "address": "Såggatan 13",
    "city": "Eskilstuna",
    "postalCode": "63102"
  },
  {
    "name": "SWEWAY Office AB",
    "website": null,
    "phone": "018-36 31 16",
    "address": "Funbo Trångbo",
    "city": "Uppsala",
    "postalCode": "75597"
  },
  {
    "name": "Switchgear AB",
    "website": null,
    "phone": null,
    "address": "Nedre Åkargatan 71",
    "city": "Gävle",
    "postalCode": "80251"
  },
  {
    "name": "SVIZZA AB",
    "website": null,
    "phone": "+46 55 413 060",
    "address": "SVIZZA AB",
    "city": "Kil",
    "postalCode": "66532"
  },
  {
    "name": "Sågcenter i Smålandsstenar AB",
    "website": null,
    "phone": "0371-335 80",
    "address": "Dalsg 18",
    "city": "Smålandsstenar",
    "postalCode": "33330"
  },
  {
    "name": "Södertälje Finmekaniska AB",
    "website": null,
    "phone": "08-550 860 50",
    "address": "Oxelgränsvägen 26",
    "city": "Södertälje",
    "postalCode": "15242"
  },
  {
    "name": "Tankstationsbyggarna Processkontroll GT AB",
    "website": null,
    "phone": "0303-79 81 00",
    "address": "Vallenvägen 5",
    "city": "Storahöga",
    "postalCode": "44402"
  },
  {
    "name": "Tappers Allservice AB",
    "website": null,
    "phone": "0270-67510",
    "address": "Kättingvägen 9",
    "city": "Ljusne",
    "postalCode": "82020"
  },
  {
    "name": "TBO-Haglinds AB",
    "website": null,
    "phone": "0589-866 00",
    "address": "Jädersvägen 10",
    "city": "Arboga",
    "postalCode": "73224"
  },
  {
    "name": "Team Industriservice Overgaard AB",
    "website": "teamindustriservice.se",
    "phone": null,
    "address": "Brandskydd (134)",
    "city": "Vargön",
    "postalCode": "46830"
  },
  {
    "name": "TechMea AB",
    "website": null,
    "phone": "073-312 52 69",
    "address": "Gästgivaregatan 7",
    "city": "Östra Ljungby",
    "postalCode": "26471"
  },
  {
    "name": "Tecnovap Scandinavia AB",
    "website": null,
    "phone": "08-590 860 90",
    "address": "Spjutvägen 5G",
    "city": "Järfälla",
    "postalCode": "17561"
  },
  {
    "name": "Teddington AB",
    "website": null,
    "phone": "08-505 207 60",
    "address": "Speditionsvägen 17",
    "city": "Skogås",
    "postalCode": "14250"
  },
  {
    "name": "Teknik & Mekanik AB",
    "website": null,
    "phone": "08-716 45 30",
    "address": "Snickarvägen 11",
    "city": "Saltsjö-Boo",
    "postalCode": "13238"
  },
  {
    "name": "Teknisk Fastighetsservice i Norrland AB",
    "website": null,
    "phone": "060-14 04 00",
    "address": "Norra Vägen 34",
    "city": "Sundsvall",
    "postalCode": "85650"
  },
  {
    "name": "Teknisk Klimatservice Norr AB",
    "website": "tk-service.se",
    "phone": "063-15 05 80",
    "address": "Kabelvägen 3",
    "city": "Östersund",
    "postalCode": "83152"
  },
  {
    "name": "Teknoservice AB",
    "website": null,
    "phone": "08-748 00 01",
    "address": "Skogsövägen 22",
    "city": "Saltsjöbaden",
    "postalCode": "13333"
  },
  {
    "name": "Test-Service i Göteborg AB",
    "website": null,
    "phone": "031-54 03 45",
    "address": "Backa Bergögata 13",
    "city": "Hisings Backa",
    "postalCode": "42246"
  },
  {
    "name": "Texor AB",
    "website": null,
    "phone": "0950-27540",
    "address": "Alfavägen 1",
    "city": "Lycksele",
    "postalCode": "92124"
  },
  {
    "name": "TFL Licenssvets & Montage AB",
    "website": null,
    "phone": "0490-234 40",
    "address": "Verkebäck",
    "city": "Västervik",
    "postalCode": "59396"
  },
  {
    "name": "TG Ventilation AB",
    "website": null,
    "phone": "031-43 03 90",
    "address": "Gamlestadsvägen 301",
    "city": "Göteborg",
    "postalCode": "41525"
  },
  {
    "name": "Thores Svets & Smide AB",
    "website": null,
    "phone": "0511-51584",
    "address": "Järnvägsgatan 30",
    "city": "Götene",
    "postalCode": "53330"
  },
  {
    "name": "Tibro Maskinreparationer AB",
    "website": null,
    "phone": "0504-109 87",
    "address": "Kyrkefalla Brovik",
    "city": "Tibro",
    "postalCode": "54393"
  },
  {
    "name": "Timars Svets och Smide AB",
    "website": null,
    "phone": "0346-715900",
    "address": "Industrivägen 12",
    "city": "Falkenberg",
    "postalCode": "31133"
  },
  {
    "name": "Tingsryds Smide AB",
    "website": null,
    "phone": "070-3199296",
    "address": "Tingsryds Smide AB",
    "city": "Tingsryd",
    "postalCode": "36294"
  },
  {
    "name": "Tjust Maskinteknik AB",
    "website": null,
    "phone": "0493-303 80",
    "address": "Bruksgatan 8",
    "city": "Överum",
    "postalCode": "59096"
  },
  {
    "name": "TMA Service i Anderstorp AB",
    "website": null,
    "phone": "0371-57 52 00",
    "address": "Götgatan 10",
    "city": "Anderstorp",
    "postalCode": "33423"
  },
  {
    "name": "TMC Partner AB",
    "website": null,
    "phone": null,
    "address": "Amilonsvägen 9",
    "city": "Malmö",
    "postalCode": "20039"
  },
  {
    "name": "TNC-Akuten AB",
    "website": null,
    "phone": "0703-19 33 60",
    "address": "Alsängen Bellevy",
    "city": "Strängnäs",
    "postalCode": "64594"
  },
  {
    "name": "Tolax AB",
    "website": null,
    "phone": "054-85 07 10",
    "address": "Gjuterigatan 25",
    "city": "Karlstad",
    "postalCode": "65221"
  },
  {
    "name": "Toni Fuchs Verktyg AB",
    "website": null,
    "phone": "0371-135 35",
    "address": "Skruvgatan 4",
    "city": "Smålandsstenar",
    "postalCode": "33333"
  },
  {
    "name": "Tranemo Elektromekaniska Verkstad AB",
    "website": null,
    "phone": "0325-187 20",
    "address": "Moavägen 6",
    "city": "Tranemo",
    "postalCode": "51432"
  },
  {
    "name": "Tranfoten AB",
    "website": null,
    "phone": "0122-403 09",
    "address": "Slottsvägen 1",
    "city": "Finspång",
    "postalCode": "61231"
  },
  {
    "name": "Transmissionsservice JT AB",
    "website": null,
    "phone": "036-38 90 06",
    "address": "Viktoriagatan 1",
    "city": "Taberg",
    "postalCode": "56241"
  },
  {
    "name": "Tranås Byggsvets AB",
    "website": null,
    "phone": "0140-13505",
    "address": "Verkstadsgatan 14",
    "city": "Tranås",
    "postalCode": "57341"
  },
  {
    "name": "TRELCO AB",
    "website": null,
    "phone": "0225-308 30",
    "address": "Mats Jansvägen 7",
    "city": "Vikmanshyttan",
    "postalCode": "77670"
  },
  {
    "name": "Trelleborgs Industri & Byggnadsservice AB",
    "website": null,
    "phone": "0410-160 00",
    "address": "Omvägen 7",
    "city": "Trelleborg",
    "postalCode": "23162"
  },
  {
    "name": "Triator Larm Tele Data AB",
    "website": null,
    "phone": "0480-492890",
    "address": "Dagövägen 9",
    "city": "Kalmar",
    "postalCode": "39354"
  },
  {
    "name": "Triton Valsteknik AB",
    "website": null,
    "phone": "054-54 84 80",
    "address": "Lilla Nyängsgatan 5",
    "city": "Grums",
    "postalCode": "66434"
  },
  {
    "name": "TRP Teknik AB",
    "website": null,
    "phone": "08-556 413 50",
    "address": "Ellipsvägen 5",
    "city": "Kungens Kurva",
    "postalCode": "14175"
  },
  {
    "name": "Tryckluftsteknik i Westervik AB",
    "website": null,
    "phone": "0490-371 60",
    "address": "Kolonivägen 5",
    "city": "Västervik",
    "postalCode": "59361"
  },
  {
    "name": "Tryckta i Markaryd AB",
    "website": null,
    "phone": "0433-79980",
    "address": "Svarvarevägen 5",
    "city": "Markaryd",
    "postalCode": "28535"
  },
  {
    "name": "TSPlast Produktion AB",
    "website": null,
    "phone": "040-611 20 75",
    "address": "Omvägen 9-11",
    "city": "Trelleborg",
    "postalCode": "23162"
  },
  {
    "name": "Töcksfors Smide AB",
    "website": null,
    "phone": "0573-21515",
    "address": "Ståltorpets Industriområde",
    "city": "Töcksfors",
    "postalCode": "67010"
  },
  {
    "name": "UCB Sweden AB",
    "website": null,
    "phone": "0155-331 50",
    "address": "Baravägen 7",
    "city": "Oxelösund",
    "postalCode": "61341"
  },
  {
    "name": "Uddeholm Svenska AB",
    "website": null,
    "phone": "031-67 98 50",
    "address": "Aminogatan 25",
    "city": "Mölndal",
    "postalCode": "43122"
  },
  {
    "name": "Uddevalla Plåt & Svets AB",
    "website": null,
    "phone": "0522-37203",
    "address": "Skalbanksvägen 8",
    "city": "Uddevalla",
    "postalCode": "45155"
  },
  {
    "name": "Ullstens Mekaniska Verkstad AB",
    "website": "ullstensmek.se",
    "phone": "0660-22 03 47",
    "address": "Orgelvägen 13",
    "city": "Bjästa",
    "postalCode": "89330"
  },
  {
    "name": "Ulricehamns Fixturteknik AB",
    "website": null,
    "phone": "0321-28441",
    "address": "Hillaredsvägen 8",
    "city": "Ulricehamn",
    "postalCode": "52390"
  },
  {
    "name": "Ulvsby Transport AB",
    "website": null,
    "phone": "054-866420",
    "address": "Åstorp 319",
    "city": "Karlstad",
    "postalCode": "65593"
  },
  {
    "name": "Umia AB",
    "website": null,
    "phone": null,
    "address": "Umestan Företagspark 205",
    "city": "Umeå",
    "postalCode": "90304"
  },
  {
    "name": "V I-Plast AB",
    "website": null,
    "phone": "0121-305 80",
    "address": "Lilla Norrbyvägen 1",
    "city": "Ringarum",
    "postalCode": "61041"
  },
  {
    "name": "V.R.P Industriservice AB",
    "website": null,
    "phone": "0320-141 15",
    "address": "Harpebovägen 2",
    "city": "Kinnahult",
    "postalCode": "51142"
  },
  {
    "name": "Vagnhärads Maskinteknik AB",
    "website": null,
    "phone": "070-6068680",
    "address": "Albanoplan 38",
    "city": "Vagnhärad",
    "postalCode": "61972"
  },
  {
    "name": "Wahlbergs Smidesmekaniska AB",
    "website": null,
    "phone": "0372-30254",
    "address": "Åbyforsvägen 1",
    "city": "Lagan",
    "postalCode": "34150"
  },
  {
    "name": "Walléns Motorrenoveringar AB",
    "website": null,
    "phone": "031-22 22 90",
    "address": "Aröds Industriväg 39",
    "city": "Hisingsbacka",
    "postalCode": "42202"
  },
  {
    "name": "Waplans Mekaniska Sundsvall AB",
    "website": "sundmek.se",
    "phone": "060-552786",
    "address": "Fyrspannsvägen 5",
    "city": "Sundsvall",
    "postalCode": "85752"
  },
  {
    "name": "Varbergs Svetsteknik AB",
    "website": null,
    "phone": "0340-48 02 60",
    "address": "Järnvägsgatan 8",
    "city": "Tvååker",
    "postalCode": "43278"
  },
  {
    "name": "WCR Sweden AB",
    "website": null,
    "phone": null,
    "address": "Furuviksringen 18",
    "city": "Halmstad",
    "postalCode": "30244"
  },
  {
    "name": "Wedins Mekaniska AB",
    "website": null,
    "phone": "0707-86 60 26",
    "address": "Häggatorp 7",
    "city": "Stenstorp",
    "postalCode": "52162"
  },
  {
    "name": "Veef Vent AB",
    "website": null,
    "phone": "0490-144 85",
    "address": "Lysingsvägen 18",
    "city": "Västervik",
    "postalCode": "59353"
  },
  {
    "name": "Velco Teknik AB",
    "website": null,
    "phone": "031-139 760",
    "address": "Marieholmsgatan 9",
    "city": "Göteborg",
    "postalCode": "41502"
  },
  {
    "name": "Velco West AB",
    "website": null,
    "phone": "031-337 57 90",
    "address": "Marieholmsgatan 9",
    "city": "Göteborg",
    "postalCode": "41502"
  },
  {
    "name": "Weldor AB",
    "website": null,
    "phone": "0221-21010",
    "address": "Nya Hamnvägen 9",
    "city": "Köping",
    "postalCode": "73136"
  },
  {
    "name": "Wenmec AB",
    "website": null,
    "phone": "0554-68 97 50",
    "address": "Harkevålsvägen 4",
    "city": "Kil",
    "postalCode": "66523"
  },
  {
    "name": "Ventilation & Lackboxteknik i Tyresö AB",
    "website": null,
    "phone": "08-55 57 29 40",
    "address": "Radiovägen 2",
    "city": "Tyresö",
    "postalCode": "13526"
  },
  {
    "name": "Veritas Miljöteknik AB",
    "website": null,
    "phone": "0582-161 00",
    "address": "Kvarngatan 2",
    "city": "Hallsberg",
    "postalCode": "69431"
  },
  {
    "name": "Verktygsfirman Be-Må AB",
    "website": "wsip.se",
    "phone": null,
    "address": "Brandskydd (134)",
    "city": "Värnamo",
    "postalCode": "33153"
  },
  {
    "name": "Verktygssvetsarna i Gislaved AB",
    "website": null,
    "phone": "0371-80890",
    "address": "Marielundsgatan 50",
    "city": "Gislaved",
    "postalCode": "33230"
  },
  {
    "name": "Westins Mekaniska AB",
    "website": null,
    "phone": "08-560 429 88",
    "address": "Stavsborg",
    "city": "Färentuna",
    "postalCode": "17997"
  },
  {
    "name": "Westsvensk Industriproduktion AB",
    "website": "wsip.se",
    "phone": "0520-66 24 36",
    "address": "Strandvägen 8",
    "city": "Lödöse",
    "postalCode": "46371"
  },
  {
    "name": "VetlandaMekaniska AB",
    "website": null,
    "phone": "0723568551",
    "address": "Guldvägen 6",
    "city": "Holsbybrunn",
    "postalCode": "57454"
  },
  {
    "name": "WH Service AB",
    "website": null,
    "phone": "060-55 36 70",
    "address": "Lagergatan 14",
    "city": "Sundsvall",
    "postalCode": "85104"
  },
  {
    "name": "Victorsson Industrier AB",
    "website": null,
    "phone": "0340-65 75 70",
    "address": "Almedalsvägen 182",
    "city": "Frillesås",
    "postalCode": "43963"
  },
  {
    "name": "Vigab Verkstadsindustri AB",
    "website": null,
    "phone": "031-3372367",
    "address": "Rullagergatan 19",
    "city": "Nygård",
    "postalCode": "46011"
  },
  {
    "name": "Vikingstads Mekaniska Verkstads AB",
    "website": null,
    "phone": null,
    "address": "Sverige",
    "city": null,
    "postalCode": null
  },
  {
    "name": "VIMAB AB",
    "website": null,
    "phone": "0141-23 77 50",
    "address": "Björnvägen 6",
    "city": "Motala",
    "postalCode": "59123"
  },
  {
    "name": "Wimato Mekaniska AB",
    "website": "wmtmek.se",
    "phone": "0703463992",
    "address": "Handelsvägen 17",
    "city": "Luleå",
    "postalCode": "97345"
  },
  {
    "name": "Visab Engineering AB",
    "website": null,
    "phone": "0702 55 81 97",
    "address": "Bokenäs östra klev 420",
    "city": "Uddevalla",
    "postalCode": "45196"
  },
  {
    "name": "Vivex Separation AB",
    "website": null,
    "phone": "08-6072310",
    "address": "Skyttbrinksvägen 36",
    "city": "Tumba",
    "postalCode": "14739"
  },
  {
    "name": "VMB Västerås Maskinbyggarcenter AB",
    "website": "vmb.se",
    "phone": "021-120899",
    "address": "Tallmätargatan 1 C",
    "city": "Västerås",
    "postalCode": "72134"
  },
  {
    "name": "WMW AB",
    "website": null,
    "phone": null,
    "address": "Smedjegatan 3",
    "city": "Grums",
    "postalCode": "66434"
  },
  {
    "name": "Volito Automation AB",
    "website": null,
    "phone": "040-660 30 00",
    "address": "Södra Förstadsgatan 4",
    "city": "Malmö",
    "postalCode": "21143"
  },
  {
    "name": "Vrena Mekaniska Verkstad AB",
    "website": null,
    "phone": "0155-29 33 00",
    "address": "Oppundavägen 21",
    "city": "Bettna",
    "postalCode": "64033"
  },
  {
    "name": "Vretstorps Teknik o Montage AB",
    "website": null,
    "phone": "0706-06 08 03",
    "address": "Sågbacken 9",
    "city": "Vretstorp",
    "postalCode": "69450"
  },
  {
    "name": "VTT AB",
    "website": null,
    "phone": "091033180",
    "address": "VTT AB",
    "city": "Skellefteå",
    "postalCode": "93142"
  },
  {
    "name": "Vänersborgs Industritjänst AB",
    "website": null,
    "phone": "0521-255 460",
    "address": "Grunnebo 296",
    "city": "Vänersborg",
    "postalCode": "46293"
  },
  {
    "name": "Värmekällan i Göteborg AB",
    "website": null,
    "phone": "031-261516",
    "address": "Industrivägen 55",
    "city": "Sävedalen",
    "postalCode": "43361"
  },
  {
    "name": "Värmlands Maskinservice i Sunne AB",
    "website": null,
    "phone": "0565-174 70",
    "address": "Smidesvägen 4",
    "city": "Sunne",
    "postalCode": "68624"
  },
  {
    "name": "Wärnströms Industri AB",
    "website": null,
    "phone": "0492-155 35",
    "address": "Tegelbruksgatan 2",
    "city": "Vimmerby",
    "postalCode": "59840"
  },
  {
    "name": "Värsjö Lack & Mekanisk Verkstad AB",
    "website": null,
    "phone": "0433-501 20",
    "address": "Vittsjövägen 13",
    "city": "Skånes Fagerhult",
    "postalCode": "28040"
  },
  {
    "name": "Västerbotten Bandtransport & Miljöservice AB",
    "website": null,
    "phone": "0910-317 70",
    "address": "Kolbacksvgen 11",
    "city": "Ursviken",
    "postalCode": "93237"
  },
  {
    "name": "Västmanlands Industriautomation AB",
    "website": null,
    "phone": "0220-102 19",
    "address": "Industrigatan 8",
    "city": "Hallstahammar",
    "postalCode": "73430"
  },
  {
    "name": "X-Maskiner i Hudiksvall AB",
    "website": "x-maskiner.se",
    "phone": "0650-16100",
    "address": "Rönningevägen 5",
    "city": "Hudiksvall",
    "postalCode": "82434"
  },
  {
    "name": "Zanders Svets & Mekanik AB",
    "website": null,
    "phone": "08-7471385",
    "address": "Svarvarvägen 20",
    "city": "Saltsjö-Boo",
    "postalCode": "13238"
  },
  {
    "name": "Zmide i Krylbo AB",
    "website": null,
    "phone": "0226-103 30",
    "address": "Lastgatan 9",
    "city": "Krylbo",
    "postalCode": "77554"
  },
  {
    "name": "Z-Teknik AB",
    "website": null,
    "phone": "0372-10660",
    "address": "Hansatorpsvägen 8",
    "city": "Ljungby",
    "postalCode": "34132"
  },
  {
    "name": "Åke Werners Åkeri AB",
    "website": null,
    "phone": "063-511283",
    "address": "Chaufförvägen 1",
    "city": "Östersund",
    "postalCode": "83148"
  },
  {
    "name": "ÅSAB Nya Åmåls Stålkonstruktioner AB",
    "website": null,
    "phone": "0532-123 60",
    "address": "Forsbrogatan 1",
    "city": "Åmål",
    "postalCode": "66221"
  },
  {
    "name": "Åsbrink Eiker AB",
    "website": null,
    "phone": "040-485452",
    "address": "Sverige",
    "city": null,
    "postalCode": null
  },
  {
    "name": "Öjen Mekaniska AB",
    "website": null,
    "phone": "0478-12210",
    "address": "Storgatan 90",
    "city": "Lessebo",
    "postalCode": "36050"
  },
  {
    "name": "ÖPM, Ö-viks Pump & Miljö AB",
    "website": null,
    "phone": "070-375 20 90",
    "address": "Svedjevägen 15",
    "city": "Själevad",
    "postalCode": "89435"
  },
  {
    "name": "Örebro Slangservice AB",
    "website": null,
    "phone": "019-18 29 29",
    "address": "Vagngatan 5",
    "city": "Storfors",
    "postalCode": "68891"
  },
  {
    "name": "ÖSG Maskinservice AB",
    "website": null,
    "phone": "019-10 33 40",
    "address": "Brändåsen Adolfsberg 110",
    "city": "KUMLA",
    "postalCode": "69293"
  },
  {
    "name": "Österby Gjuteri AB",
    "website": null,
    "phone": "0295-24 42 00",
    "address": "Martinvägen 1",
    "city": "Österbybruk",
    "postalCode": "74801"
  },
  {
    "name": "Överlida Port & Svets AB",
    "website": null,
    "phone": "0325-136 60",
    "address": "Köpmansvägen 2",
    "city": "Överlida",
    "postalCode": "51260"
  },
  {
    "name": "AB Nora Finmekaniska",
    "website": null,
    "phone": "0587-124 03",
    "address": "Knutsbergsvägen 3",
    "city": "Nora",
    "postalCode": "71300"
  },
  {
    "name": "AB Plåtcenter i Halmstad",
    "website": null,
    "phone": null,
    "address": "Olofsdalsvägen 9",
    "city": "Halmstad",
    "postalCode": "30241"
  },
  {
    "name": "AB Smireko",
    "website": null,
    "phone": "0171-540 20",
    "address": "Herrgårdsgatan 3",
    "city": "Bålsta",
    "postalCode": "74649"
  },
  {
    "name": "AllIsSon Engineering AB",
    "website": null,
    "phone": "070-56 54 703",
    "address": "Nedre Trädgårdsgatan 28",
    "city": "Karlskoga",
    "postalCode": "69141"
  },
  {
    "name": "Anderstorps Mekaniska Verkstad AB",
    "website": null,
    "phone": "0371-52 32 60",
    "address": "Idrottsvägen 10",
    "city": "Anderstorp",
    "postalCode": "33432"
  },
  {
    "name": "Arcos Hydraulik AB",
    "website": null,
    "phone": "0243-820 75",
    "address": "Teknikergatan 5",
    "city": "Borlänge",
    "postalCode": "78150"
  },
  {
    "name": "Arentorps Legoindustri AB",
    "website": null,
    "phone": "0512-131 39",
    "address": "Kedumsvägen 41, Arentorp",
    "city": "Vara",
    "postalCode": "53494"
  },
  {
    "name": "ASK Industri AB",
    "website": null,
    "phone": "0435-54705",
    "address": "Industrigatan 19",
    "city": "Örkelljunga",
    "postalCode": "28636"
  },
  {
    "name": "ATORP Automatsvarvning AB",
    "website": null,
    "phone": "0370-501500",
    "address": "Industrivägen 7",
    "city": "Bredaryd",
    "postalCode": "33010"
  },
  {
    "name": "Auran Industries AB",
    "website": null,
    "phone": "070-576 43 40",
    "address": "Enerigvägen 4",
    "city": "Kungsängen",
    "postalCode": "19637"
  },
  {
    "name": "Automatdetaljer i Reftele AB",
    "website": null,
    "phone": "0371-21287",
    "address": "Bruksgatan 8",
    "city": "Reftele",
    "postalCode": "33021"
  },
  {
    "name": "Avans Production AB",
    "website": null,
    "phone": "0702-19 18 26",
    "address": "Hylsvägen 8",
    "city": "Västerås",
    "postalCode": "72130"
  },
  {
    "name": "Backes Transportbandservice AB",
    "website": null,
    "phone": "0470-742933",
    "address": "Bävervägen 5",
    "city": "Växjö",
    "postalCode": "35246"
  },
  {
    "name": "Bema Elautomatik AB",
    "website": null,
    "phone": "031-870705",
    "address": "Neongatan 7 C",
    "city": "Mölndal",
    "postalCode": "43153"
  },
  {
    "name": "Bergslagens Kranlyft AB",
    "website": null,
    "phone": "070-539 11 61",
    "address": "Kranvägen 6",
    "city": "Ludvika",
    "postalCode": "77141"
  },
  {
    "name": "Bosting AB",
    "website": null,
    "phone": "076-147 90 97",
    "address": "Hyringa Bostället",
    "city": "Grästorp",
    "postalCode": "46795"
  },
  {
    "name": "Brubakken AB",
    "website": null,
    "phone": "010-722 30 00",
    "address": "Victor Hasselblads gata 9",
    "city": "Västra Frölunda",
    "postalCode": "42131"
  },
  {
    "name": "Bråbo Mek. Verkstad AB",
    "website": null,
    "phone": "011-36 95 10",
    "address": "Katrineholmsvägen 12",
    "city": "Åby",
    "postalCode": "61600"
  },
  {
    "name": "Bällsta Mekaniska AB",
    "website": null,
    "phone": "08-446 17 00",
    "address": "Ritarslingan 9A",
    "city": "Täby",
    "postalCode": "18712"
  },
  {
    "name": "CA TOOL AB",
    "website": null,
    "phone": null,
    "address": "Brandskydd (134)",
    "city": "Linköping",
    "postalCode": "58941"
  },
  {
    "name": "CIS Technic AB",
    "website": null,
    "phone": "0456-153 40",
    "address": "Verkstadsgatan 4",
    "city": "Sölvesborg",
    "postalCode": "29422"
  },
  {
    "name": "Clean Machine i Falkenberg AB",
    "website": null,
    "phone": "0346-87701",
    "address": "Nydalavägen 16",
    "city": "Värnamo",
    "postalCode": "33140"
  },
  {
    "name": "Comp Serv AB",
    "website": null,
    "phone": "0705-865644",
    "address": "Backavägen 26",
    "city": "Löddeköpinge",
    "postalCode": "24631"
  },
  {
    "name": "Containerhandel CARU AB",
    "website": null,
    "phone": "031-69 05 30",
    "address": "Sven Källfelts Gata 213",
    "city": "Västra Frölunda",
    "postalCode": "42671"
  },
  {
    "name": "Cromocol Scandinavia AB",
    "website": null,
    "phone": null,
    "address": "Åsboholmsgatan 16",
    "city": "Borås",
    "postalCode": "50451"
  },
  {
    "name": "DAMA Installation AB",
    "website": null,
    "phone": "070 832 21 18",
    "address": "Travvägen 12",
    "city": "Bålsta",
    "postalCode": "74639"
  },
  {
    "name": "E. Olssons Bil- & Maskinverkstad AB",
    "website": null,
    "phone": "0414-50060",
    "address": "Pilgatan 11",
    "city": "Gärsnäs",
    "postalCode": "27261"
  },
  {
    "name": "Ekets Mekaniska AB",
    "website": null,
    "phone": "0435-570 00",
    "address": "Fabriksvägen 4",
    "city": "Eket",
    "postalCode": "28695"
  },
  {
    "name": "Eksjöverken AB",
    "website": null,
    "phone": "0381-131 30",
    "address": "Förrådsgatan 9",
    "city": "Eksjö",
    "postalCode": "57536"
  },
  {
    "name": "Elektroautomatik i Mälardalen AB",
    "website": null,
    "phone": "0227-616990",
    "address": "Kungsgatan 4",
    "city": "Kungsör",
    "postalCode": "73636"
  },
  {
    "name": "Elektroverkstaden AB",
    "website": null,
    "phone": "0732-30 57 40",
    "address": "Propellervägen 7",
    "city": "Kalmar",
    "postalCode": "39241"
  },
  {
    "name": "Elfströms Industrisvets AB",
    "website": null,
    "phone": "0140-179 10",
    "address": "STOERYDSVÄGEN 6 ( BAKSIDAN )",
    "city": "Tranås",
    "postalCode": "57342"
  },
  {
    "name": "Essell-Produkter AB",
    "website": null,
    "phone": "0370-654500",
    "address": "Järnvägsgatan 3",
    "city": "Horda",
    "postalCode": "33018"
  },
  {
    "name": "Examec Maskinmontage AB",
    "website": null,
    "phone": "0417-788 80",
    "address": "Hannelundsgatan 12",
    "city": "Tomelilla",
    "postalCode": "27335"
  },
  {
    "name": "Finspångs Finmekaniska Verkstad AB",
    "website": null,
    "phone": "0122-393 80",
    "address": "Skäggebyvägen 17",
    "city": "Finspång",
    "postalCode": "61200"
  },
  {
    "name": "FM-Mattsson Mora Group AB",
    "website": null,
    "phone": "0250-59 60 00",
    "address": "Östnorsvägen 1",
    "city": "Mora",
    "postalCode": "79227"
  },
  {
    "name": "Focus Neon AB",
    "website": null,
    "phone": "08-681 68 00",
    "address": "Instrumentvägen 11",
    "city": "Hägersten",
    "postalCode": "12609"
  },
  {
    "name": "Formec Teknik AB",
    "website": null,
    "phone": "0500-43 40 85",
    "address": "Fabriksgatan 8",
    "city": "Skövde",
    "postalCode": "54157"
  },
  {
    "name": "Galmont AB",
    "website": null,
    "phone": "08-778 00 28",
    "address": "Hangarvägen 16",
    "city": "Tullinge",
    "postalCode": "14638"
  },
  {
    "name": "Gardenor AB",
    "website": null,
    "phone": "0703202368",
    "address": "GOLFGATAN 14",
    "city": "Enköping",
    "postalCode": "74538"
  },
  {
    "name": "Genuine Swede Stål AB",
    "website": null,
    "phone": "0270-424949",
    "address": "Sunnanåvägen 62",
    "city": "Bergvik",
    "postalCode": "82023"
  },
  {
    "name": "GIGS mekaniska AB",
    "website": null,
    "phone": "031-336 07 00",
    "address": "Mediavägen 10",
    "city": "Partille",
    "postalCode": "43891"
  },
  {
    "name": "Glemminge Maskinteknik AB",
    "website": null,
    "phone": "0411-52 22 60",
    "address": "Glemmingevägen 12",
    "city": "Glemmingebro",
    "postalCode": "27021"
  },
  {
    "name": "Gullängets Mekaniska Verkstad AB",
    "website": null,
    "phone": "0660-822 40",
    "address": "Björnavägen 78",
    "city": "Örnsköldsvik",
    "postalCode": "89143"
  },
  {
    "name": "Hahnmek AB",
    "website": null,
    "phone": "0738167446",
    "address": "Lyckans väg 13",
    "city": "Dösjebro",
    "postalCode": "24495"
  },
  {
    "name": "Hallings Metallkomponent AB",
    "website": null,
    "phone": "0152-33 11 60",
    "address": "Fogdö Solö 9",
    "city": "Strängnäs",
    "postalCode": "64592"
  },
  {
    "name": "Halmstad Industri El AB",
    "website": null,
    "phone": null,
    "address": "Västervallsvägen 2",
    "city": "Halmstad",
    "postalCode": "30004"
  },
  {
    "name": "Husums Mekaniska AB",
    "website": null,
    "phone": "0663-61415",
    "address": "Dombäck 309",
    "city": "Husum",
    "postalCode": "89035"
  },
  {
    "name": "Hyva Mekanik AB",
    "website": null,
    "phone": "070-6657414",
    "address": "Upplandsvägen 4",
    "city": "Vallentuna",
    "postalCode": "18635"
  },
  {
    "name": "Höganäs Verkstads AB",
    "website": null,
    "phone": "042-33 82 00",
    "address": "Bruksgatan 40",
    "city": "Höganäs",
    "postalCode": "26339"
  },
  {
    "name": "Imagine Development & Design AB",
    "website": null,
    "phone": "08-57029445",
    "address": "Domgärdesvägen 1",
    "city": "Ingarö",
    "postalCode": "13469"
  },
  {
    "name": "INAB Mekaniska AB",
    "website": null,
    "phone": "0155-28 27 00",
    "address": "Dragonvägen 3",
    "city": "Nyköping",
    "postalCode": "61135"
  },
  {
    "name": "Industrilogik i Lanna AB",
    "website": null,
    "phone": "0370-83280",
    "address": "Kvarnbergsvägen 13",
    "city": "Bredaryd",
    "postalCode": "33010"
  },
  {
    "name": "Industripartner LW AB",
    "website": null,
    "phone": "073-4198798",
    "address": "Telegatan 4",
    "city": "Ronneby",
    "postalCode": "37231"
  },
  {
    "name": "Industrirör Väst AB",
    "website": null,
    "phone": "040 29 40 80",
    "address": "Kronogatan 9",
    "city": "Skene",
    "postalCode": "51102"
  },
  {
    "name": "Industriservice i Braås AB",
    "website": null,
    "phone": "0474-310 66",
    "address": "Kvarnagården",
    "city": "Braås",
    "postalCode": "36042"
  },
  {
    "name": "Ing.F:a Erik Dahlin AB",
    "website": null,
    "phone": "0223-222 00",
    "address": "Spännarhyttans industriområde",
    "city": "Norberg",
    "postalCode": "73892"
  },
  {
    "name": "Ingemars Mekaniska i Svenljunga AB",
    "website": null,
    "phone": null,
    "address": "Ullasjö flogen 2",
    "city": "Svenljunga",
    "postalCode": "51293"
  },
  {
    "name": "Itsab AB",
    "website": null,
    "phone": "0920-281740",
    "address": "Betongvägen 22",
    "city": "Luleå",
    "postalCode": "97345"
  },
  {
    "name": "J.U Allservice&Konsult AB",
    "website": null,
    "phone": "0737-42 21 79",
    "address": "Bergsgårdsgärdet72",
    "city": "ANGERED",
    "postalCode": "42432"
  },
  {
    "name": "JL Sweden AB",
    "website": null,
    "phone": "0511-798 700",
    "address": "Erik Järnåkersgata 13",
    "city": "Skara",
    "postalCode": "53237"
  },
  {
    "name": "Johans Städmaskiner AB",
    "website": null,
    "phone": "060-12 91 00",
    "address": "Fridhemsgatan 124",
    "city": "Sundsvall",
    "postalCode": "85462"
  },
  {
    "name": "JOMO Mekaniska AB",
    "website": null,
    "phone": "031-382 33 30",
    "address": "JOMO Mekaniska AB",
    "city": "Kungälv",
    "postalCode": "44240"
  },
  {
    "name": "Kaeser Kompressorer AB",
    "website": null,
    "phone": "08-544 443 30",
    "address": "Mätslingan 24",
    "city": "Täby",
    "postalCode": "18766"
  },
  {
    "name": "Karlstads Industri AB",
    "website": null,
    "phone": "054-85 11 60",
    "address": "Brikettgatan 1",
    "city": "Karlstad",
    "postalCode": "65221"
  },
  {
    "name": "KBM Sweden AB",
    "website": null,
    "phone": "031-92 36 90",
    "address": "Hangarvägen 4",
    "city": "Torslanda",
    "postalCode": "42337"
  },
  {
    "name": "K-G Lift & Maskinservice AB",
    "website": null,
    "phone": "070-204 98 06",
    "address": "MUNGA 413",
    "city": "TIERP",
    "postalCode": "81591"
  },
  {
    "name": "Kjellkvist Mekaniska AB",
    "website": null,
    "phone": null,
    "address": "Bruttov 8",
    "city": "Järfälla",
    "postalCode": "17543"
  },
  {
    "name": "Klöfver AB",
    "website": null,
    "phone": "0370-355 100",
    "address": "Dannäs",
    "city": "Forsheda",
    "postalCode": "33172"
  },
  {
    "name": "Kontex Konstruktion och Montage i Uppsala AB",
    "website": "miremaskin.se",
    "phone": null,
    "address": "Brandskydd (134)",
    "city": "Uppsala",
    "postalCode": "75016"
  },
  {
    "name": "Kristianstads Industriservice AB",
    "website": null,
    "phone": "044-590 11 00",
    "address": "Industrigatan 64",
    "city": "Kristianstad",
    "postalCode": "29136"
  },
  {
    "name": "Kävlinge Mekaniska Verkstad AB",
    "website": null,
    "phone": "046-732050",
    "address": "Floravägen 50",
    "city": "Kävlinge",
    "postalCode": "24439"
  },
  {
    "name": "Labotek Nordic AB",
    "website": null,
    "phone": "0411-401 55",
    "address": "Norra Industrigatan 1",
    "city": "Skurup",
    "postalCode": "27430"
  },
  {
    "name": "LaboTest AB",
    "website": null,
    "phone": "031-748 33 20",
    "address": "Datavägen 57B",
    "city": "Askim",
    "postalCode": "43632"
  },
  {
    "name": "Larssons i Bjärred Mekaniska Verkstad AB",
    "website": null,
    "phone": "046-29 50 60",
    "address": "Södra Västkustvägen 19",
    "city": "Bjärred",
    "postalCode": "23736"
  },
  {
    "name": "Laserkraft Bredaryd AB",
    "website": null,
    "phone": "0370-885 55",
    "address": "Industrivägen",
    "city": "Bredaryd",
    "postalCode": "33010"
  },
  {
    "name": "Linjedon AB",
    "website": null,
    "phone": "08-625 89 20",
    "address": "Industriv. 20",
    "city": "Sollentuna",
    "postalCode": "19121"
  },
  {
    "name": "Linköpings Tungservice AB",
    "website": null,
    "phone": "013-31 06 05",
    "address": "Ottargatan 4",
    "city": "Linköping",
    "postalCode": "58112"
  },
  {
    "name": "Ljungs Smide AB",
    "website": null,
    "phone": "042-153120",
    "address": "Florettgatan 1",
    "city": "Helsingborg",
    "postalCode": "25467"
  },
  {
    "name": "Lumek i Sandviken AB",
    "website": null,
    "phone": "026-25 04 49",
    "address": "Högbovägen 81",
    "city": "Sandviken",
    "postalCode": "81123"
  },
  {
    "name": "M. Kenneman Svetsat AB",
    "website": null,
    "phone": "076-134 17 72",
    "address": "Tallgatan 16",
    "city": "Nordmaling",
    "postalCode": "91432"
  },
  {
    "name": "M.L. Smide Verkstads AB",
    "website": null,
    "phone": "08-59411230",
    "address": "Truckvägen 4",
    "city": "Upplands Väsby",
    "postalCode": "19400"
  },
  {
    "name": "MachineTech Sweden AB",
    "website": null,
    "phone": "0454 100 10",
    "address": "Fabriksvägen 33",
    "city": "Mörrum",
    "postalCode": "37530"
  },
  {
    "name": "Masebo AB",
    "website": null,
    "phone": "070-975 02 25",
    "address": "Ed Bråten 2",
    "city": "Bor",
    "postalCode": "33015"
  },
  {
    "name": "Matfors Industriservice AB",
    "website": null,
    "phone": "060-641280",
    "address": "Rude 179 A",
    "city": "Matfors",
    "postalCode": "86491"
  },
  {
    "name": "Mekina AB",
    "website": null,
    "phone": null,
    "address": "INDUSTRIVÄGEN 12",
    "city": "Solna",
    "postalCode": "17148"
  },
  {
    "name": "Meva AB",
    "website": null,
    "phone": "0910-142 00",
    "address": "Brogatan 35",
    "city": "Skellefteå",
    "postalCode": "93162"
  },
  {
    "name": "Midroc Metalock AB",
    "website": null,
    "phone": "010-470 72 00",
    "address": "Marieholmsgatan 88",
    "city": "Göteborg",
    "postalCode": "41502"
  },
  {
    "name": "Mikromekanik i Sörmland AB",
    "website": null,
    "phone": "016-133733",
    "address": "Grönsta Industriväg 9",
    "city": "Eskilstuna",
    "postalCode": "63502"
  },
  {
    "name": "Nano Miljö AB",
    "website": null,
    "phone": null,
    "address": "Gränsbovägen 4",
    "city": "Södertälje",
    "postalCode": "15225"
  },
  {
    "name": "NC Service AB",
    "website": null,
    "phone": null,
    "address": "Lokattsbacken 70",
    "city": "Västrafrölunda",
    "postalCode": "42674"
  },
  {
    "name": "Nordlund Teknikkonsult AB",
    "website": null,
    "phone": "070-555 29 26",
    "address": "Hammarvägen 5",
    "city": "Öjebyn",
    "postalCode": "94331"
  },
  {
    "name": "Norrbottens Mek & Rep AB",
    "website": null,
    "phone": "070-630 70 72",
    "address": "Kallaxvägen 256",
    "city": "Luleå",
    "postalCode": "97254"
  },
  {
    "name": "Norrköpings Industri och Byggsmide AB",
    "website": null,
    "phone": "011-39 78 80",
    "address": "Polisvägen 19",
    "city": "Kolmården",
    "postalCode": "61821"
  },
  {
    "name": "Norrmalms Mekaniska Verkstad AB",
    "website": null,
    "phone": null,
    "address": "Johannelundsgatan 40",
    "city": "Borås",
    "postalCode": "50640"
  },
  {
    "name": "Nynäshamns CNC och Mekanik AB",
    "website": null,
    "phone": "08-52011054",
    "address": "Teknikervägen 11",
    "city": "Nynäshamn",
    "postalCode": "14945"
  },
  {
    "name": "Odensbergs Mekaniska Verkstad AB",
    "website": null,
    "phone": "0515-72 81 68",
    "address": "Sikagårdsgatan 3",
    "city": "Falköping",
    "postalCode": "52139"
  },
  {
    "name": "Okab Ingvar Olsson Verkstads AB",
    "website": null,
    "phone": "0532-71285",
    "address": "Mor Annas Väg 5",
    "city": "Åmål",
    "postalCode": "66223"
  },
  {
    "name": "Olofssons Smedja AB",
    "website": null,
    "phone": "046-25 37 07",
    "address": "Verkstadsvägen 6",
    "city": "Staffanstorp",
    "postalCode": "24534"
  },
  {
    "name": "On Maskin AB",
    "website": null,
    "phone": "0222-330 00",
    "address": "Kramstagatan 24",
    "city": "Köping",
    "postalCode": "73150"
  },
  {
    "name": "Osir AB",
    "website": null,
    "phone": "0708-49 83 90",
    "address": "Hoga 647",
    "city": "Ellös",
    "postalCode": "47493"
  },
  {
    "name": "Packovation International AB",
    "website": null,
    "phone": "0430 135 00",
    "address": "Kövlingevägen 1",
    "city": "Båstad",
    "postalCode": "26939"
  },
  {
    "name": "Pentronic AB",
    "website": null,
    "phone": "0490-25 85 00",
    "address": "Bergstigen 1",
    "city": "Gunnebo",
    "postalCode": "59093"
  },
  {
    "name": "Pexymek AB",
    "website": null,
    "phone": "0346-20530",
    "address": "Åkarevägen 37",
    "city": "Falkenberg",
    "postalCode": "31132"
  },
  {
    "name": "PF System AB",
    "website": null,
    "phone": "042158020",
    "address": "Florettgatan 1",
    "city": "Helsingborg",
    "postalCode": "25467"
  },
  {
    "name": "PK.s Maskininstallationer & Entreprenad AB",
    "website": null,
    "phone": "070-948 25 95",
    "address": "Flackstavägen 94",
    "city": "Eskilstuna",
    "postalCode": "63222"
  },
  {
    "name": "Plåtslagar’n i Närke AB",
    "website": null,
    "phone": "070-623 31 74",
    "address": "Venavägen 3",
    "city": "Laxå",
    "postalCode": "69532"
  },
  {
    "name": "Power Heat Piping AB",
    "website": null,
    "phone": "040-37 03 00",
    "address": "Emilstorpsgatan 27",
    "city": "Malmö",
    "postalCode": "21364"
  },
  {
    "name": "PP- Mekanik AB",
    "website": null,
    "phone": null,
    "address": "Borrsvängen 2",
    "city": "Södra Sandby",
    "postalCode": "24732"
  },
  {
    "name": "PR - Precisionsdetaljer Mekatronik AB",
    "website": null,
    "phone": "013-217721",
    "address": "Molijns Väg 9",
    "city": "Linköping",
    "postalCode": "58941"
  },
  {
    "name": "Preciform AB",
    "website": null,
    "phone": "016-10 80 70",
    "address": "Filargatan 14",
    "city": "Eskilstuna",
    "postalCode": "63005"
  },
  {
    "name": "ProBlast AB",
    "website": null,
    "phone": "010-150 75 75",
    "address": "Pressverksvägen 1",
    "city": "Långshyttan",
    "postalCode": "77070"
  },
  {
    "name": "Professional Technologies Sweden AB",
    "website": null,
    "phone": "0303-891 35",
    "address": "Munkerödsvägen 5",
    "city": "Stenungsund",
    "postalCode": "44432"
  },
  {
    "name": "PROTOMA AB",
    "website": null,
    "phone": "031-742 75 20",
    "address": "Ångpannegatan 6",
    "city": "Hisings Backa",
    "postalCode": "42246"
  },
  {
    "name": "Pumphuset Sverige AB",
    "website": null,
    "phone": "08-59496600",
    "address": "Åkeribacken 16",
    "city": "Sollentuna",
    "postalCode": "19149"
  },
  {
    "name": "Rehn Smide AB",
    "website": null,
    "phone": "08-7112725",
    "address": "Björkholmsvägen 9",
    "city": "Huddinge",
    "postalCode": "14125"
  },
  {
    "name": "RL Robotservice AB",
    "website": null,
    "phone": "0703-683 638",
    "address": "Porträttvägen 23",
    "city": "Västerås",
    "postalCode": "72471"
  },
  {
    "name": "Robotmäklarna i Skara AB",
    "website": null,
    "phone": "0511-100 08",
    "address": "Erik Järnåker gata 13",
    "city": "Skara",
    "postalCode": "53237"
  },
  {
    "name": "Rolling Mill Service AB",
    "website": null,
    "phone": "0240-66 30 64",
    "address": "Nya Ågatan 21",
    "city": "Smedjebacken",
    "postalCode": "77750"
  },
  {
    "name": "Ronweld AB",
    "website": null,
    "phone": "0457-272 80",
    "address": "Ställverksvägen 3",
    "city": "Kallinge",
    "postalCode": "37292"
  },
  {
    "name": "Rotage AB",
    "website": null,
    "phone": "0512-298 50",
    "address": "Föreningsgatan 7",
    "city": "Kvänum",
    "postalCode": "53530"
  },
  {
    "name": "Rybergs Plast och Finmekanik AB",
    "website": null,
    "phone": "0739414885",
    "address": "Teknikervägen 12 A",
    "city": "Nynäshamn",
    "postalCode": "14945"
  },
  {
    "name": "Råda Plåt & Svets AB",
    "website": null,
    "phone": "031-88 34 46",
    "address": "Metallvägen 18",
    "city": "Mölnlycke",
    "postalCode": "43533"
  },
  {
    "name": "Rörick El. Verkstad AB",
    "website": null,
    "phone": "072 534 75 00",
    "address": "Volvogatan 4B",
    "city": "Köping",
    "postalCode": "73136"
  },
  {
    "name": "Scanunit AB",
    "website": null,
    "phone": null,
    "address": "Brandskydd (134)",
    "city": "Helsingborg",
    "postalCode": "25228"
  },
  {
    "name": "Segelborgs Industriservice AB",
    "website": null,
    "phone": "016-51 55 64",
    "address": "Skjulstagatan 9",
    "city": "Eskilstuna",
    "postalCode": "63229"
  },
  {
    "name": "SEJFO Engineering AB",
    "website": null,
    "phone": "0703410369",
    "address": "ROSENLUNDSGATAN 13",
    "city": "Köping",
    "postalCode": "73150"
  },
  {
    "name": "Sjuntorps Produktionsteknik AB",
    "website": null,
    "phone": null,
    "address": "Torpavägen 24",
    "city": "Sjuntorp",
    "postalCode": "46178"
  },
  {
    "name": "Stans & Press i Olofström AB",
    "website": null,
    "phone": "0454-772400",
    "address": "Stans & Press i Olofström AB",
    "city": "Vilshult",
    "postalCode": "29062"
  },
  {
    "name": "Steam Boiler Service AB",
    "website": null,
    "phone": "0340-50 04 00",
    "address": "Honungsgatan 17",
    "city": "Varberg",
    "postalCode": "43295"
  },
  {
    "name": "Stilmekaniska i Skellefteå AB",
    "website": null,
    "phone": "0910-71 40 80",
    "address": "Hyvelgatan 3",
    "city": "Skellefteå",
    "postalCode": "93136"
  },
  {
    "name": "Storebro Machine Tools i Varberg AB",
    "website": null,
    "phone": "0340-162 40",
    "address": "Batterivägen 8",
    "city": "Varberg",
    "postalCode": "43232"
  },
  {
    "name": "Strömbergs Rör & Svets AB",
    "website": null,
    "phone": "031-982750",
    "address": "Kvarnvägen 3",
    "city": "Surte",
    "postalCode": "44557"
  },
  {
    "name": "Sunds Mekaniska AB",
    "website": null,
    "phone": "026-54 56 00",
    "address": "Tegelvägen 14",
    "city": "Sundsvall",
    "postalCode": "85350"
  },
  {
    "name": "Sundsvalls Industrimekaniska AB",
    "website": null,
    "phone": "070-638 38 08",
    "address": "Sunnås 157",
    "city": "Liden",
    "postalCode": "86041"
  },
  {
    "name": "Svarvmekano i Malmö AB",
    "website": null,
    "phone": "040-22 25 65",
    "address": "Öckerögatan 10",
    "city": "Malmö",
    "postalCode": "21124"
  },
  {
    "name": "Swecon Anläggningsmaskiner AB",
    "website": null,
    "phone": "010-556 08 50",
    "address": "Bolindervägen 100",
    "city": "Eskilstuna",
    "postalCode": "63510"
  },
  {
    "name": "Svedala Mekaniska AB",
    "website": null,
    "phone": "040-40 40 90",
    "address": "Företagsgatan 13",
    "city": "Svedala",
    "postalCode": "23331"
  },
  {
    "name": "Svemac AB",
    "website": null,
    "phone": "070-668 02 17",
    "address": "BÄCKABYVÄGEN 32",
    "city": "MYRESJÖ",
    "postalCode": "57471"
  },
  {
    "name": "BÄCKABYVÄGEN 32",
    "website": null,
    "phone": "070-668 02 17",
    "address": "BÄCKABYVÄGEN 32",
    "city": "MYRESJÖ",
    "postalCode": "57471"
  },
  {
    "name": "Svensk Licens Svetsning AB",
    "website": null,
    "phone": null,
    "address": "Butängsgatan 6 D",
    "city": "Norrköping",
    "postalCode": "60223"
  },
  {
    "name": "Svenska Rix Trade AB",
    "website": null,
    "phone": null,
    "address": "Tryckfärgsvägen 5",
    "city": "Bro",
    "postalCode": "19740"
  },
  {
    "name": "Svenssons Hydraulikservice AB",
    "website": null,
    "phone": "070-6535307",
    "address": "Svedjavägen 22",
    "city": "Segersta",
    "postalCode": "82393"
  },
  {
    "name": "Svets & Montage i Västervik AB",
    "website": null,
    "phone": "0490-128 78",
    "address": "Barlastgatan 7",
    "city": "Västervik",
    "postalCode": "59341"
  },
  {
    "name": "Svets & Robotteknik i Småland AB",
    "website": null,
    "phone": "0470-70 19 90",
    "address": "Minkvägen 2",
    "city": "Växjö",
    "postalCode": "35246"
  },
  {
    "name": "Svets och Materialteknik i Skaraborg AB",
    "website": null,
    "phone": "0500-414144",
    "address": "Oljevägen 3",
    "city": "Skövde",
    "postalCode": "54134"
  },
  {
    "name": "Svetstek i Smålandsstenar AB",
    "website": null,
    "phone": "+46705335000",
    "address": "KVARNARYD 10",
    "city": "Smålandsstenar",
    "postalCode": "33391"
  },
  {
    "name": "Tangra AB",
    "website": null,
    "phone": "0725-56 69 00",
    "address": "Bruksgatan 11",
    "city": "Eslöv",
    "postalCode": "24138"
  },
  {
    "name": "Tedservice AB",
    "website": null,
    "phone": "046-20 04 05",
    "address": null,
    "city": null,
    "postalCode": null
  },
  {
    "name": "Thage Anderssons Byggnads AB",
    "website": null,
    "phone": "044-31 31 18",
    "address": "Vasagatan 7",
    "city": "Tollarp",
    "postalCode": "29833"
  },
  {
    "name": "Tobbes Svets & Montage AB",
    "website": null,
    "phone": "0457-230 22",
    "address": "Industrigatan 10",
    "city": "Kallinge",
    "postalCode": "37292"
  },
  {
    "name": "Tooli Hydraulic Fixture Tools AB",
    "website": null,
    "phone": "036-13 62 70",
    "address": "Huskvarnavägen 156",
    "city": "Huskvarna",
    "postalCode": "56132"
  },
  {
    "name": "Tor Jansson Verktyg AB",
    "website": null,
    "phone": null,
    "address": "Källebäcken",
    "city": "Habo",
    "postalCode": "56692"
  },
  {
    "name": "Trio Perfekta AB",
    "website": null,
    "phone": "0479-25500",
    "address": "Östra Järnvägsgatan 18",
    "city": "Lönsboda",
    "postalCode": "28070"
  },
  {
    "name": "TRUMPF Maskin AB",
    "website": null,
    "phone": "0322-66 97 00",
    "address": "Aleforsvägen 5",
    "city": "Alingsås",
    "postalCode": "44139"
  },
  {
    "name": "Uddevalla Industritjänst AB",
    "website": null,
    "phone": "070 3111 423",
    "address": "Repslagaregatan 1",
    "city": "Uddevalla",
    "postalCode": "45153"
  },
  {
    "name": "Uhros Verktygs AB",
    "website": null,
    "phone": null,
    "address": "Turingevägen 38 B",
    "city": "Älvsjö",
    "postalCode": "12543"
  },
  {
    "name": "Upplands Tuna Mekaniska Verkstad AB",
    "website": null,
    "phone": "0174-12270",
    "address": "Marmavägen 41",
    "city": "Alunda",
    "postalCode": "74730"
  },
  {
    "name": "Vads CNC AB",
    "website": null,
    "phone": "0705-470767",
    "address": "Rättaregården",
    "city": "Tidan",
    "postalCode": "54991"
  },
  {
    "name": "Valbrants Automationsteknik AB",
    "website": null,
    "phone": "0325 744 80",
    "address": "Furuvägen 2",
    "city": "Grimsås",
    "postalCode": "51470"
  },
  {
    "name": "Wingafield Svets & Stålkontroll AB",
    "website": null,
    "phone": "0709-23 53 24",
    "address": "Lunda Trädgårdsm Bostaden",
    "city": "Vingåker",
    "postalCode": "64391"
  },
  {
    "name": "WoG Partner AB",
    "website": null,
    "phone": "0730-332838",
    "address": "WoG Partner AB",
    "city": "Motala",
    "postalCode": "59137"
  },
  {
    "name": "Vänersborgs Svets & Mekaniska Verkstad AB",
    "website": null,
    "phone": "0521-26 23 30",
    "address": "Regementsgatan 36",
    "city": "Vänersborg",
    "postalCode": "46223"
  },
  {
    "name": "Åhmans Traktorcentrum AB",
    "website": null,
    "phone": "013-36 77 00",
    "address": "Kåparp SLAKA",
    "city": "Linköping",
    "postalCode": "58335"
  },
  {
    "name": "Öbako AB",
    "website": null,
    "phone": "0611-206 55",
    "address": "Industrigatan 8",
    "city": "Härnösand",
    "postalCode": "87153"
  },
  {
    "name": "Örnsköldsviks Svets och Bearbetningscentra AB",
    "website": null,
    "phone": "0660-727 40",
    "address": "Västerselsvägen 12",
    "city": "Mellansel",
    "postalCode": "89042"
  },
  {
    "name": "Nevo Maskin AB",
    "website": "nevomaskin.com",
    "phone": null,
    "address": "Brandskydd (134)",
    "city": "Gammelstad",
    "postalCode": "95433"
  },
  {
    "name": "NOA Mekaniska AB",
    "website": "noaab.se",
    "phone": "040-21 51 00",
    "address": "Agnesfridsvägen 184",
    "city": "Malmö",
    "postalCode": "21375"
  },
  {
    "name": "Nordholms Industriinstallationer AB",
    "website": "nordholms.se",
    "phone": null,
    "address": "Industrivägen 18",
    "city": "Henån",
    "postalCode": "47331"
  },
  {
    "name": "Nordic Bellows AB",
    "website": "nordicbellows.se",
    "phone": "040-426150",
    "address": "Larsgatan 3",
    "city": "Vellinge",
    "postalCode": "23531"
  },
  {
    "name": "Norrlands Industri & Konsult AB",
    "website": "nikab.nu",
    "phone": null,
    "address": "Hammarvägen 4a",
    "city": "Öjebyn",
    "postalCode": "94336"
  },
  {
    "name": "Northbound AB",
    "website": null,
    "phone": "070-0092860",
    "address": "MUORJEVAARA 13",
    "city": "GÄLLIVARE",
    "postalCode": "98299"
  },
  {
    "name": "Nya Plåt i Halmstad AB",
    "website": "nyaplat.se",
    "phone": null,
    "address": "Larsfridsvägen 26",
    "city": "Halmstad",
    "postalCode": "30250"
  },
  {
    "name": "Pars Plåtgruppen AB",
    "website": "pars.se",
    "phone": null,
    "address": "Gillbergagatan7",
    "city": "Linköping",
    "postalCode": "58273"
  },
  {
    "name": "PB Svets AB",
    "website": "pbsvets.com",
    "phone": "0735-00 47 40",
    "address": "Gamla flygplatsvägen 32 B lgh 1001",
    "city": "Torslanda",
    "postalCode": "42337"
  },
  {
    "name": "PBH Teknik AB",
    "website": "pbhteknik.se",
    "phone": "0586-63440",
    "address": "Magasinsvägen 3",
    "city": "Karlskoga",
    "postalCode": "69142"
  },
  {
    "name": "PEPAB Produktionspartner AB",
    "website": "pepab.se",
    "phone": "0270-42 91 50",
    "address": "Björnängsvägen 6",
    "city": "Söderhamn",
    "postalCode": "82640"
  },
  {
    "name": "Perssons Bygg & Smide AB",
    "website": "pbsab.se",
    "phone": "0321-420 47",
    "address": "Svarvaregatan 20",
    "city": "Ulricehamn",
    "postalCode": "52390"
  },
  {
    "name": "Pichano Teknik AB",
    "website": "fromells.se",
    "phone": "0611-55 95 00",
    "address": "Dombäck 212",
    "city": "Husum",
    "postalCode": "89691"
  },
  {
    "name": "PM SERVICE AB",
    "website": "pmservice.se",
    "phone": "070-576 95 51",
    "address": "Anderstorpsvägen 24",
    "city": "Gislaved",
    "postalCode": "33236"
  },
  {
    "name": "PMH International AB",
    "website": "pmh.se",
    "phone": "0411-138 00",
    "address": "Ekenäsgatan 6",
    "city": "Ystad",
    "postalCode": "27139"
  },
  {
    "name": "Precisionskonstruktion Nordanstig AB",
    "website": "precisionskonstruktion.se",
    "phone": "070-394 67 39",
    "address": "Påbodavägen 6",
    "city": "STRÖMSBRUK",
    "postalCode": "82495"
  },
  {
    "name": "Pronova AB",
    "website": "pronovaab.se",
    "phone": null,
    "address": "Olofdalsvägen 26",
    "city": "Halmstad",
    "postalCode": "30241"
  },
  {
    "name": "PROREG Control AB",
    "website": "proregcontrol.se",
    "phone": "08-774 05 90",
    "address": "Kvarnbergsvägen 29",
    "city": "Huddinge",
    "postalCode": "14145"
  },
  {
    "name": "Protum AB",
    "website": "protum.se",
    "phone": "0418-66 83 20",
    "address": "TECKOMATORPSVÄGEN 7",
    "city": "SVALÖV",
    "postalCode": "26833"
  },
  {
    "name": "PV Systems AB",
    "website": "pvs.se",
    "phone": "0502-235 00",
    "address": "Skaftgatan 1",
    "city": "Tidaholm",
    "postalCode": "52221"
  },
  {
    "name": "PWR Power AB - Reservkraftsbyggarna",
    "website": "reservkraftsbyggarna.se",
    "phone": "0371-310 90",
    "address": "Östra Järnvägsgatan 2",
    "city": "Smålandsstenar",
    "postalCode": "33331"
  },
  {
    "name": "RB:s Industri AB",
    "website": "rb-industri.se",
    "phone": "0520-65 88 94",
    "address": "Näckrosvägen 5",
    "city": "Lilla Edet",
    "postalCode": "46333"
  },
  {
    "name": "Redtec AB",
    "website": "redtec.se",
    "phone": "072-200 11 80",
    "address": "Andesitgatan 14",
    "city": "Helsingborg",
    "postalCode": "25468"
  },
  {
    "name": "Reitz Industry Fans Nordic AB",
    "website": "reitzgroup.com",
    "phone": "+46 40 685 11 50",
    "address": "Norra Vallgatan 68",
    "city": "Malmö",
    "postalCode": "21122"
  },
  {
    "name": "RLM Mekaniska AB",
    "website": "rlm.se",
    "phone": "0520-47 60 70",
    "address": "Fristorp 112",
    "city": "Västra Tunhem",
    "postalCode": "46193"
  },
  {
    "name": "RobotTeknik AB",
    "website": "robotteknik.com",
    "phone": "0371-168 50",
    "address": "Ågatan 3",
    "city": "Anderstorp",
    "postalCode": "33432"
  },
  {
    "name": "Ropack Materialhantering AB",
    "website": "ropack.se",
    "phone": null,
    "address": "Maskingatan 4",
    "city": "Skurup",
    "postalCode": "27430"
  },
  {
    "name": "Rowaco AB",
    "website": "rowaco.se",
    "phone": "010-155 03 10",
    "address": "Westmansgatan 49",
    "city": "Linköping",
    "postalCode": "58216"
  },
  {
    "name": "RPF Hydraulic AB",
    "website": "rpfhydraulic.se",
    "phone": null,
    "address": "Skopgränd 2",
    "city": "Upplands Väsby",
    "postalCode": "19451"
  },
  {
    "name": "Rudskoga Svetsmekaniska AB",
    "website": "rudskogasvets.se",
    "phone": "0551-604 66",
    "address": "Södra Upplanda 2360",
    "city": "Kristinehamn",
    "postalCode": "68196"
  },
  {
    "name": "SafeReach AB",
    "website": "safereach.se",
    "phone": "070-5335291",
    "address": "Box 1846",
    "city": "Stockholm",
    "postalCode": "11674"
  },
  {
    "name": "Sarandi Verkstadsproduktion & Service AB",
    "website": "sarandi.se",
    "phone": null,
    "address": "Sköldvägen 5",
    "city": "Bålsta",
    "postalCode": "74650"
  },
  {
    "name": "SH Maskin AB",
    "website": "shmaskin.se",
    "phone": "0490-832 20",
    "address": "SH Maskin AB",
    "city": "Västervik",
    "postalCode": "59361"
  },
  {
    "name": "SIFCO Applied Surface Concepts (Sweden) AB",
    "website": "sifco.se",
    "phone": "0248-125 25",
    "address": "Furudalsvägen 9",
    "city": "Rättvik",
    "postalCode": "79532"
  },
  {
    "name": "Sipac Sverige AB",
    "website": "sipac.com",
    "phone": "031-748 03 50",
    "address": "Ekonomivägen 4",
    "city": "Askim",
    "postalCode": "43633"
  },
  {
    "name": "Skandinavisk Ytförädling AB",
    "website": "ytan.nu",
    "phone": "0413-603 04",
    "address": "Åkermansväg 19",
    "city": "Eslöv",
    "postalCode": "24139"
  },
  {
    "name": "Skanska AB",
    "website": "skanska.se",
    "phone": "010-4480000",
    "address": "Skanska AB",
    "city": "Stockholm",
    "postalCode": "11251"
  },
  {
    "name": "Skärpverktyg i Mölndal AB",
    "website": "skarpverktyg.se",
    "phone": "031-87 00 50",
    "address": "Kråketorpsgatan 10",
    "city": "Mölndal",
    "postalCode": "43160"
  },
  {
    "name": "Smidesreparationer i Svensbo AB",
    "website": "smidesreparationer.se",
    "phone": "070-357 66 86",
    "address": "Gjuterivägen 13",
    "city": "Krylbo",
    "postalCode": "77596"
  },
  {
    "name": "SMV Industrier AB",
    "website": "smv.se",
    "phone": "0371-34340",
    "address": "Parkgatan 6",
    "city": "Smålandsstenar",
    "postalCode": "33331"
  },
  {
    "name": "Software Solutions i Malmö AB",
    "website": "softwaresolutions.se",
    "phone": "040-631 82 10",
    "address": "Stallgatan 4",
    "city": "Lomma",
    "postalCode": "23435"
  },
  {
    "name": "STABE Drives AB",
    "website": "stabe.se",
    "phone": null,
    "address": "Karlsrovägen 60",
    "city": "Halmstad",
    "postalCode": "30241"
  },
  {
    "name": "Stinsnenman Sverige AB",
    "website": "se.pipeweld.ee",
    "phone": null,
    "address": "Skrakgränd 7 - 1804",
    "city": "Farsta",
    "postalCode": "12349"
  },
  {
    "name": "Storebro Industrier Nya AB",
    "website": "storebro-service.se",
    "phone": "0492-308 00",
    "address": "Nedre Bruket, Industrigatan 4",
    "city": "Storebro",
    "postalCode": "59870"
  },
  {
    "name": "Storebro Teknik AB",
    "website": null,
    "phone": "070-666 40 03",
    "address": "Uvebergsgatan 1",
    "city": "Storebro",
    "postalCode": "59870"
  },
  {
    "name": "SVABO Kaross- & Hydraul Service Aktiebolag",
    "website": "svabo.se",
    "phone": "044-208140",
    "address": "Kabelvägen 19",
    "city": "Kristianstad",
    "postalCode": "29162"
  },
  {
    "name": "Svartviks Svarvteknik AB",
    "website": "svartviks-svarvteknik.se",
    "phone": "060-56 23 20",
    "address": "Astravägen 3",
    "city": "Kvissleby",
    "postalCode": "86232"
  },
  {
    "name": "Svets och Tillbehör i Sverige AB",
    "website": "svetsochtillbehor.se",
    "phone": "0411-55 36 00",
    "address": "Koppargatan 23",
    "city": "Ystad",
    "postalCode": "27139"
  },
  {
    "name": "Svetsteknik i Kristianstad AB",
    "website": "svetsteknik-ksd.se",
    "phone": "044-28 28 00",
    "address": "Kabelvägen 8",
    "city": "Kristianstad",
    "postalCode": "29162"
  },
  {
    "name": "Systemservice i Örebro AB",
    "website": "systemservice.se",
    "phone": null,
    "address": "Hälleby 635",
    "city": "Örebro",
    "postalCode": "70592"
  },
  {
    "name": "Tamtron AB",
    "website": "tamtrongroup.com",
    "phone": "054-402 08 40",
    "address": "Nattvindsgatan 9",
    "city": "Karlstad",
    "postalCode": "65221"
  },
  {
    "name": "Tankteknik Sverige AB",
    "website": "tankteknik.se",
    "phone": null,
    "address": "Löransvägen 15",
    "city": "Njurunda",
    "postalCode": "86020"
  },
  {
    "name": "Teijo AB",
    "website": "teijo.se",
    "phone": "054-69 19 90",
    "address": "VÄSTANVINDSGATAN 24",
    "city": "KARLSTAD",
    "postalCode": "65221"
  },
  {
    "name": "Teknisk Maskinservice i Älvsbyn AB",
    "website": "tms.nu",
    "phone": "0929-55523",
    "address": "Ställverksvägen 12",
    "city": "Älvsbyn",
    "postalCode": "94236"
  },
  {
    "name": "Tibnor AB",
    "website": "tibnor.se",
    "phone": "010-484 00 00",
    "address": "Sundbybergsvägen 1",
    "city": "Solna",
    "postalCode": "17173"
  },
  {
    "name": "Tingsryds Industriteknik AB",
    "website": "titab.se",
    "phone": "0477-70 94 00",
    "address": "Lokgatan 6",
    "city": "Tingsryd",
    "postalCode": "36231"
  },
  {
    "name": "Truck & Industriservice AB",
    "website": "tiservice.se",
    "phone": "0910-125 55",
    "address": "Lagergatan 3 D",
    "city": "Skellefteå",
    "postalCode": "93163"
  },
  {
    "name": "Tryckluftcenter i Norrland AB",
    "website": "tryckluftcenter.com",
    "phone": "072-0807470",
    "address": "Tegelbruksvägen 10",
    "city": "ARNÄSVALL",
    "postalCode": "89155"
  },
  {
    "name": "Tryckluftspoolen i Stockholm AB",
    "website": "tryckluftspoolen.se",
    "phone": null,
    "address": "Brandskydd (134)",
    "city": "Tyresö",
    "postalCode": "17561"
  },
  {
    "name": "Tubbins Mekaniska AB",
    "website": "tubbins.se",
    "phone": null,
    "address": "Tubbarp 1",
    "city": "Tenhult",
    "postalCode": "56163"
  },
  {
    "name": "Tungelsta maskin & hydraulikservice AB",
    "website": "tmhs.se",
    "phone": "087451000",
    "address": "Förrådsvägen 23",
    "city": "Västerhaninge",
    "postalCode": "13737"
  },
  {
    "name": "Turn Key Automation Skandinavia AB",
    "website": "turnkeyautomation.se",
    "phone": "0220-137 80",
    "address": "Industrigatan 1D",
    "city": "Hallstahammar",
    "postalCode": "73430"
  },
  {
    "name": "Tutaryds Mekaniska Verkstad AB",
    "website": "tmvab.se",
    "phone": "0372-27 64 00",
    "address": "Tutaryd 1",
    "city": "Ljungby",
    "postalCode": "34191"
  },
  {
    "name": "Unoflow AB",
    "website": "unoflow.se",
    "phone": "0303-937 25",
    "address": "Bultgatan 30",
    "city": "Kungälv",
    "postalCode": "44240"
  },
  {
    "name": "Vbema AB",
    "website": "vbema.se",
    "phone": "0240-108 08",
    "address": "Gonäsvägen 16",
    "city": "Ludvika",
    "postalCode": "77141"
  },
  {
    "name": "Verktyg & Press i Anderstorp AB",
    "website": "verktygopress.se",
    "phone": "0371-177 20",
    "address": "Maskingatan 8",
    "city": "Anderstorp",
    "postalCode": "33433"
  },
  {
    "name": "Vindo, Leif Claesson & Co AB",
    "website": "vindo.se",
    "phone": "0370-37 33 20",
    "address": "Fabriksgatan 6",
    "city": "Hillerstorp",
    "postalCode": "33573"
  },
  {
    "name": "Vislanda Mekaniska AB",
    "website": "vislandamekaniska.se",
    "phone": "0472-351 50",
    "address": "Hästhagen",
    "city": "Vislanda",
    "postalCode": "34252"
  },
  {
    "name": "Vixus AB",
    "website": "vixuslicenssvets.se",
    "phone": "0702116913",
    "address": "Dansbergsvägen 1",
    "city": "Skene",
    "postalCode": "51191"
  },
  {
    "name": "WM Press AB",
    "website": "wmpress.se",
    "phone": "042-32 58 30",
    "address": "Samma som postadressen",
    "city": "Ramlösa/Helsingborg",
    "postalCode": "25657"
  },
  {
    "name": "VP SalesTech AB",
    "website": "vpsalestech.se",
    "phone": "08-7475250",
    "address": "Flygfältsgatan 28",
    "city": "Torslanda",
    "postalCode": "42337"
  },
  {
    "name": "Vrigstad Svets & Mekaniska AB",
    "website": "vrigstadsvets.se",
    "phone": "0382-300 80",
    "address": "Stockarydsvägen 16",
    "city": "Vrigstad",
    "postalCode": "57696"
  },
  {
    "name": "Väse Svets & Mekaniska AB",
    "website": "kdsm.se",
    "phone": "070-358 68 93",
    "address": "Ve 217 a",
    "city": "Väse",
    "postalCode": "65596"
  },
  {
    "name": "Västra Karaby Plast AB",
    "website": "vkplast.se",
    "phone": "046-771108",
    "address": "Domänvägen 9",
    "city": "Dösjebro",
    "postalCode": "24471"
  },
  {
    "name": "Ytteknik i Örebro AB",
    "website": "yttec.com",
    "phone": null,
    "address": "Kemivägen 6 A",
    "city": "Glanshammar",
    "postalCode": "70597"
  },
  {
    "name": "Åkerstedts Verkstads AB",
    "website": "akerstedts.com",
    "phone": "0512-325 60",
    "address": "Broholm",
    "city": "Kvänum",
    "postalCode": "53591"
  },
  {
    "name": "Åvalls Metallindustri AB",
    "website": "avalls.se",
    "phone": "036-372830",
    "address": "Fabriksvägen 1",
    "city": "Bankeryd",
    "postalCode": "56435"
  },
  {
    "name": "3A Byggdelen AB",
    "website": null,
    "phone": "08-798 98 97",
    "address": "Solkraftsvägen 16 B",
    "city": "Stockholm",
    "postalCode": "13570"
  },
  {
    "name": "3L Glas & Bygg AB",
    "website": null,
    "phone": "0660-12362",
    "address": "Bromsvägen 12",
    "city": "Örnsköldsvik",
    "postalCode": "89160"
  },
  {
    "name": "A Lundgren Smide AB",
    "website": null,
    "phone": null,
    "address": "Löfströmsvägen 1",
    "city": "Sundbyberg",
    "postalCode": "17227"
  },
  {
    "name": "A Petterssons Smide AB",
    "website": null,
    "phone": "0651-12330",
    "address": "Hybovägen 8",
    "city": "Ljusdal",
    "postalCode": "82735"
  },
  {
    "name": "AB Bengt Öhlunds Plåt",
    "website": null,
    "phone": "0914-10158",
    "address": "Sundbrogatan 32",
    "city": "Burträsk",
    "postalCode": "93731"
  },
  {
    "name": "AB BR-Montageservice",
    "website": null,
    "phone": null,
    "address": "Stjärnarpsvägen 6",
    "city": "Halmstad",
    "postalCode": "30010"
  },
  {
    "name": "AB Cedo",
    "website": "cedo.nu",
    "phone": "0340-67 10 00",
    "address": "Trålvägen 7",
    "city": "Träslövsläge",
    "postalCode": "43274"
  },
  {
    "name": "AB Dala-Elektrolindningar.",
    "website": null,
    "phone": "0240-71307",
    "address": "Bäverstigen 4",
    "city": "Smedjebacken",
    "postalCode": "77734"
  },
  {
    "name": "AB Fabriksrenovering i Malmö",
    "website": null,
    "phone": null,
    "address": "Amilonsvägen 10",
    "city": "Malmö",
    "postalCode": "20039"
  },
  {
    "name": "AB Forshedaverken",
    "website": null,
    "phone": "0370-37 47 50",
    "address": "Forsheda Kvarnagård 3",
    "city": "Forsheda",
    "postalCode": "33172"
  },
  {
    "name": "AB Geréns Mekaniska Verkstad",
    "website": null,
    "phone": "0224-10754",
    "address": "Fridhemsgatan 13",
    "city": "Sala",
    "postalCode": "73339"
  },
  {
    "name": "AB Harrys Mekaniska Verkstad",
    "website": null,
    "phone": "0370-927 00",
    "address": "Rudö 50A",
    "city": "Gnosjö",
    "postalCode": "33591"
  },
  {
    "name": "AB Holsbyverken",
    "website": null,
    "phone": "0383-76 36 80",
    "address": "Box 33",
    "city": "Vetlanda",
    "postalCode": "57421"
  },
  {
    "name": "AB HuluHammars Bruk",
    "website": null,
    "phone": null,
    "address": "Bruksvägen 6",
    "city": "Taberg",
    "postalCode": "56202"
  },
  {
    "name": "AB KJ:s Maskiner",
    "website": null,
    "phone": "018-35 11 83",
    "address": "Fyrisvallsgatan 13",
    "city": "Uppsala",
    "postalCode": "75228"
  },
  {
    "name": "AB Lillåns Bleck & Plåt",
    "website": null,
    "phone": null,
    "address": "Skjutbanevägen 12",
    "city": "Örebro",
    "postalCode": "70369"
  },
  {
    "name": "AB Malmfältens Svets & Smide Mek Verkstad",
    "website": null,
    "phone": "0970-14045",
    "address": "Exportvägen 4",
    "city": "Gällivare",
    "postalCode": "98238"
  },
  {
    "name": "AB Megamet",
    "website": null,
    "phone": "0431-44 94 80",
    "address": "Framtidsgatan 4",
    "city": "Ängelholm",
    "postalCode": "26273"
  },
  {
    "name": "AB Nyanders Elektromekaniska",
    "website": "nyanders.se",
    "phone": "036-100207",
    "address": "Kindgrensgatan 8",
    "city": "Jönköping",
    "postalCode": "55474"
  },
  {
    "name": "AB Piteå Svets & Maskin (PSM)",
    "website": null,
    "phone": "0911-230330",
    "address": "Prylvägen 2",
    "city": "Öjebyn",
    "postalCode": "94336"
  },
  {
    "name": "AB Skänninge Mekaniska",
    "website": "mekaniska.se",
    "phone": "0142-418 47",
    "address": "Verkstadsvägen 10",
    "city": "Skänninge",
    "postalCode": "59634"
  },
  {
    "name": "AB Wallåkra Mekaniska",
    "website": "wallakramekaniska.se",
    "phone": null,
    "address": "Östra Fjärestadsvägen 85",
    "city": "Vallåkra",
    "postalCode": "25342"
  },
  {
    "name": "AB Västerviks Industriverktyg",
    "website": null,
    "phone": "0490-10449",
    "address": "Baumansgatan 5",
    "city": "Västervik",
    "postalCode": "59323"
  },
  {
    "name": "ABAS Protect AB",
    "website": null,
    "phone": "0325-61 80 30",
    "address": "Gislavedsvägen 3",
    "city": "Ambjörnarp",
    "postalCode": "51493"
  },
  {
    "name": "ABC Ståldesign KB",
    "website": null,
    "phone": null,
    "address": "Elsa Brändströmsgata 62",
    "city": "Solna",
    "postalCode": "16903"
  },
  {
    "name": "ABECE AB",
    "website": null,
    "phone": "0155-292300",
    "address": "Blommenhovsvägen 26",
    "city": "Nyköping",
    "postalCode": "61129"
  },
  {
    "name": "ABP Induction AB",
    "website": null,
    "phone": "0223-231 35",
    "address": "Spännarhyttan",
    "city": "Norberg",
    "postalCode": "73892"
  },
  {
    "name": "ABW Maskinmontage AB",
    "website": null,
    "phone": null,
    "address": "Sportvägen 3",
    "city": "Örnsköldsvik",
    "postalCode": "89142"
  },
  {
    "name": "Aercrete Technology AB",
    "website": null,
    "phone": "036-37 16 00",
    "address": "Tallvägen 23 A",
    "city": "Bankeryd",
    "postalCode": "56435"
  },
  {
    "name": "AFG Engineering AB",
    "website": null,
    "phone": "0223-42021",
    "address": "Industrivägen 11",
    "city": "Fagersta",
    "postalCode": "73730"
  },
  {
    "name": "Alfta Kvalitetslego AB",
    "website": null,
    "phone": "0271-588 60",
    "address": "Västa Ösavägen 24B",
    "city": "Alfta",
    "postalCode": "82240"
  },
  {
    "name": "ALGOLAN Maskin AB",
    "website": null,
    "phone": "0270-14395",
    "address": "Norra Hamngatan 41",
    "city": "Söderhamn",
    "postalCode": "82637"
  },
  {
    "name": "Allan Johansson & co Mekaniska Verkstad AB",
    "website": "ajohan.se",
    "phone": "0322-66 56 70",
    "address": "tomasgårdsvägen 3",
    "city": "Alingsås",
    "postalCode": "44139"
  },
  {
    "name": "ALLKAL AB",
    "website": null,
    "phone": "054-20 38 50",
    "address": "Timmermansgatan 3",
    "city": "Grums",
    "postalCode": "66434"
  },
  {
    "name": "Almas Olof Björkman AB",
    "website": null,
    "phone": "016-353202",
    "address": "Ekensholmsvägen 4",
    "city": "Eskilstuna",
    "postalCode": "63103"
  },
  {
    "name": "Alwerco Svets & Smide AB",
    "website": null,
    "phone": "08-756 56 20",
    "address": "Ritarslingan 10 A",
    "city": "Täby",
    "postalCode": "18766"
  },
  {
    "name": "Amas Svenska AB",
    "website": null,
    "phone": "0171-44 01 40",
    "address": "Kvartsgatan 8",
    "city": "Enköping",
    "postalCode": "74540"
  },
  {
    "name": "AMBES EL AB",
    "website": null,
    "phone": "0435-50330",
    "address": "Östra Spång 551",
    "city": "Örkelljunga",
    "postalCode": "28692"
  },
  {
    "name": "AMIH Entreprenad AB",
    "website": null,
    "phone": "070-788 12 97",
    "address": "BÄRSTAVÄGEN 8",
    "city": "STORA SUNDBY",
    "postalCode": "63534"
  },
  {
    "name": "Amotion AB",
    "website": "amotion.se",
    "phone": "08-606 31 30",
    "address": "Söderbymalmsvägen 6 B",
    "city": "Handen",
    "postalCode": "13645"
  },
  {
    "name": "Anatomic SITT Teknik AB",
    "website": "autoreel.se",
    "phone": null,
    "address": "Brandskydd (134)",
    "city": "Alvesta",
    "postalCode": "34232"
  },
  {
    "name": "Andon Robotics AB",
    "website": null,
    "phone": null,
    "address": "Radiatorvägen 2",
    "city": "Örebro",
    "postalCode": "70227"
  },
  {
    "name": "APS Drift och Underhåll AB",
    "website": null,
    "phone": "031-761 00 30",
    "address": "Aröds Industriväg 62",
    "city": "Hisingsbacka",
    "postalCode": "42243"
  },
  {
    "name": "AQ Elautomatik AB",
    "website": null,
    "phone": "046-16 25 00",
    "address": "Kalkstensvägen 25",
    "city": "Lund",
    "postalCode": "22478"
  },
  {
    "name": "AQ Trafo AB",
    "website": null,
    "phone": "0171-236 00",
    "address": "Gesällgatan 15",
    "city": "Enköping",
    "postalCode": "74539"
  },
  {
    "name": "Aquarent Sverige AB",
    "website": null,
    "phone": "044-10 05 23",
    "address": "Mossvägen 12 C",
    "city": "Kristianstad",
    "postalCode": "29159"
  },
  {
    "name": "Arne Jensen Industriservice AB",
    "website": null,
    "phone": "0250-593759",
    "address": "Kvarnholsvägen 70",
    "city": "Mora",
    "postalCode": "79237"
  },
  {
    "name": "Artic Crane AB",
    "website": null,
    "phone": "0471-100 69",
    "address": "Maskinv. 1",
    "city": "Lindås",
    "postalCode": "36142"
  },
  {
    "name": "Arvika Montage AB",
    "website": null,
    "phone": "0570-711850",
    "address": "Fallebergsvägen 23",
    "city": "Arvika",
    "postalCode": "67133"
  },
  {
    "name": "ASAP Consulting & Trading AB",
    "website": null,
    "phone": "031-776 03 10",
    "address": "Ålegårdsgatan 1",
    "city": "Mölndal",
    "postalCode": "43150"
  },
  {
    "name": "Aspvik Automation AB",
    "website": null,
    "phone": "018-33 60 80",
    "address": "Dalsängsvägen 180",
    "city": "Sandviken",
    "postalCode": "81191"
  },
  {
    "name": "Atlings Maskinfabrik AB",
    "website": null,
    "phone": "0297-557 00",
    "address": "Hamrångevägen 23",
    "city": "Ockelbo",
    "postalCode": "81631"
  },
  {
    "name": "AUTO CNC-bearbetning i Emmaboda AB",
    "website": null,
    "phone": "0471-186 70",
    "address": "Fabriksgatan 5, Södra Industriområdet",
    "city": "Emmaboda",
    "postalCode": "36121"
  },
  {
    "name": "Automizer AB",
    "website": null,
    "phone": "0520-41 10 20",
    "address": "Kardanvägen 30",
    "city": "Trollhättan",
    "postalCode": "46138"
  },
  {
    "name": "Autonomteknik i Kristianstad AB",
    "website": null,
    "phone": "044-216760",
    "address": "Alevägen 1",
    "city": "Kristianstad",
    "postalCode": "29162"
  },
  {
    "name": "Autoreel AB",
    "website": "autoreel.se",
    "phone": "072-50 20 400",
    "address": "Målaskog",
    "city": "Ryssby",
    "postalCode": "34176"
  },
  {
    "name": "AWI Hydraulic Pneumatic AB",
    "website": null,
    "phone": "0150-727 00",
    "address": "Sverige",
    "city": null,
    "postalCode": null
  },
  {
    "name": "BAM/ Bodens Anläggning och Mark AB",
    "website": null,
    "phone": "0921-51717",
    "address": "Rotorvägen 7",
    "city": "Boden",
    "postalCode": "96138"
  },
  {
    "name": "Bandtec i Kalmar AB",
    "website": null,
    "phone": "0480-276 00",
    "address": "Trångsundsvägen 2",
    "city": "Kalmar",
    "postalCode": "39239"
  },
  {
    "name": "Batterielektronik i Värmland AB",
    "website": null,
    "phone": "0554-411 60",
    "address": "Storgatan 16",
    "city": "Kil",
    "postalCode": "66525"
  },
  {
    "name": "Bearbetningscenter i Västernorrland AB",
    "website": null,
    "phone": "0612-138 55",
    "address": "Gränsgatan 60",
    "city": "Kramfors",
    "postalCode": "87232"
  },
  {
    "name": "Be-Ge Plåtindustri AB",
    "website": null,
    "phone": "0491-76 68 80",
    "address": "Södra Fabriksgatan 4",
    "city": "Oskarshamn",
    "postalCode": "57225"
  },
  {
    "name": "Bengt i Slätteberg AB",
    "website": null,
    "phone": "0346-19686",
    "address": "Slätteberg 204",
    "city": "Falkenberg",
    "postalCode": "31195"
  },
  {
    "name": "Bengtsfors Maskin & Industrimontage AB",
    "website": null,
    "phone": "0531-615 00",
    "address": "Industrigatan 10 A",
    "city": "Bengtsfors",
    "postalCode": "66631"
  },
  {
    "name": "Benjaminssons Maskin AB",
    "website": null,
    "phone": "0302-459 00",
    "address": "Gråbo Industriväg 5",
    "city": "Gråbo",
    "postalCode": "44340"
  },
  {
    "name": "Bergtrack AB",
    "website": null,
    "phone": "0503-130 30",
    "address": "Smedstorp 1",
    "city": "Hjo",
    "postalCode": "54492"
  },
  {
    "name": "Best Lås & Säkerhetssystem AB",
    "website": null,
    "phone": null,
    "address": "Timmervägen 4",
    "city": "Falun",
    "postalCode": "79151"
  },
  {
    "name": "BGG Service AB",
    "website": null,
    "phone": "0570-155 40",
    "address": "Kvarntorpsv 5",
    "city": "Arvika",
    "postalCode": "67134"
  },
  {
    "name": "Bingers Mekan AB",
    "website": null,
    "phone": "0498-20 56 60",
    "address": "Skarphällsgatan 18",
    "city": "Visby",
    "postalCode": "62125"
  },
  {
    "name": "BJ Svets & Anläggning AB",
    "website": null,
    "phone": "0152-177 16",
    "address": "Plogstigen 3",
    "city": "Strängnäs",
    "postalCode": "64525"
  },
  {
    "name": "Bjäre Industriteknik AB",
    "website": null,
    "phone": null,
    "address": "Sadelvägen 922",
    "city": "Halmstad",
    "postalCode": "30262"
  },
  {
    "name": "Björkholms El AB",
    "website": null,
    "phone": null,
    "address": "Skjutbanevägen 12",
    "city": "Örebro",
    "postalCode": "70369"
  },
  {
    "name": "Björn Verktyg AB",
    "website": null,
    "phone": "0505-10360",
    "address": "Gesällvägen 4",
    "city": "Karlsborg",
    "postalCode": "54633"
  },
  {
    "name": "Björnell´s Mekaniska AB",
    "website": null,
    "phone": "076-7708680",
    "address": "Bruksvägen 3",
    "city": "Mjölby",
    "postalCode": "59595"
  },
  {
    "name": "Blentarps Svetsmekaniska AB",
    "website": null,
    "phone": "0708-61 95 15",
    "address": "Blentarpsvägen 14",
    "city": "Blentarp",
    "postalCode": "27562"
  },
  {
    "name": "Blomberg & Stensson AB",
    "website": null,
    "phone": "0150-36 38 00",
    "address": "Högmossev 11",
    "city": "Katrineholm",
    "postalCode": "64139"
  },
  {
    "name": "Blästerteknik i Gislaved AB",
    "website": "blasterteknik.se",
    "phone": "0371-809 90",
    "address": "Baldersvägen 31",
    "city": "Gislaved",
    "postalCode": "33235"
  },
  {
    "name": "Bobic Allsvets AB",
    "website": null,
    "phone": "013-133350",
    "address": "Finnögatan 4",
    "city": "Linköping",
    "postalCode": "58278"
  },
  {
    "name": "Bodins i Lekeberg AB",
    "website": null,
    "phone": "070-6964070",
    "address": "Berga Industriområde",
    "city": "Fjugesta",
    "postalCode": "71691"
  },
  {
    "name": "Bolest i Varberg AB",
    "website": "bolest.se",
    "phone": "0340-20 11 00",
    "address": "Kardanvägen 5",
    "city": "Varberg",
    "postalCode": "43232"
  },
  {
    "name": "Borensbergs Industriservice AB",
    "website": null,
    "phone": null,
    "address": "Skänningevägen 29",
    "city": "Borensberg",
    "postalCode": "59031"
  },
  {
    "name": "BR Hermansson Ingenjörs AB",
    "website": null,
    "phone": "0303-910 18",
    "address": "Bultg 16",
    "city": "Kungälv",
    "postalCode": "44240"
  },
  {
    "name": "Broby Modellindustri AB",
    "website": null,
    "phone": null,
    "address": "Verkstadsgatan 14",
    "city": "Broby",
    "postalCode": "28060"
  },
  {
    "name": "Broddson AB",
    "website": null,
    "phone": "0141-21 60 00",
    "address": "Ringtrastvägen 4",
    "city": "Motala",
    "postalCode": "59137"
  },
  {
    "name": "Bror Tonsjö AB",
    "website": "tonsjo.se",
    "phone": "0303-727200",
    "address": "Hedsvägen 3",
    "city": "Kode",
    "postalCode": "44260"
  },
  {
    "name": "Bröderna Carlsson AB",
    "website": null,
    "phone": "0141-22 88 40",
    "address": "Vintergatan 12",
    "city": "Motala",
    "postalCode": "59105"
  },
  {
    "name": "BS Elcontrol AB",
    "website": null,
    "phone": "0303-33 45 60",
    "address": "Hålstensvägen 2",
    "city": "Älvängen",
    "postalCode": "44637"
  },
  {
    "name": "BT Olaussons Mekaniska AB",
    "website": null,
    "phone": "0150-15855",
    "address": "Mossvägen 7",
    "city": "Katrineholm",
    "postalCode": "64149"
  },
  {
    "name": "Bushati Måleri AB",
    "website": null,
    "phone": null,
    "address": "Helmfeldtsgatan 8",
    "city": "Halmstad",
    "postalCode": "30266"
  },
  {
    "name": "Buteo Verkstads AB",
    "website": null,
    "phone": null,
    "address": "Verkstadsgatan 12",
    "city": "Broby",
    "postalCode": "28060"
  },
  {
    "name": "Bygg & industriassistans i Södertälje AB",
    "website": null,
    "phone": null,
    "address": "Åkerivägen 11",
    "city": "Södertälje",
    "postalCode": "15242"
  },
  {
    "name": "Byggsmide i Örnsköldsvik AB",
    "website": "backmanblast.se",
    "phone": null,
    "address": "Brandskydd (134)",
    "city": "Domsjö",
    "postalCode": "89232"
  },
  {
    "name": "Bäckman Blästermaskiner AB",
    "website": "backmanblast.se",
    "phone": "0590-125 45",
    "address": "Industrivägen 19",
    "city": "Filipstad",
    "postalCode": "68233"
  },
  {
    "name": "C.R Pump & Svetservice AB",
    "website": null,
    "phone": "072-556 37 26",
    "address": "KVÄLLSVINDSGATAN 6",
    "city": "KARLSTAD",
    "postalCode": "65221"
  },
  {
    "name": "Calormet AB",
    "website": "nordicfurnaces.com",
    "phone": "021-10 98 00",
    "address": "Regattagatan 13",
    "city": "Västerås",
    "postalCode": "72348"
  },
  {
    "name": "Calotec AB",
    "website": null,
    "phone": "0722-14 44 30",
    "address": "Hästängegatan 9",
    "city": "Vänersborg",
    "postalCode": "46241"
  },
  {
    "name": "Camatec Industriteknik AB",
    "website": null,
    "phone": "054-13 25 00",
    "address": "Box 5134",
    "city": "Karlstad",
    "postalCode": "65005"
  },
  {
    "name": "Carlsson Industriservice AB",
    "website": null,
    "phone": "0587-123 45",
    "address": "Älvstorpsvägen 1-3",
    "city": "Nora",
    "postalCode": "71393"
  },
  {
    "name": "Catrelo AB",
    "website": null,
    "phone": "0709-480030",
    "address": "Tjäderstigen 31",
    "city": "Perstorp",
    "postalCode": "28432"
  },
  {
    "name": "Cedergrens i Klintehamn AB",
    "website": null,
    "phone": "0498-24 17 20",
    "address": "Verkstadsgatan 3",
    "city": "Klintehamn",
    "postalCode": "62377"
  },
  {
    "name": "CELEC AB",
    "website": null,
    "phone": "0346-174 90",
    "address": "Glykolvägen 7",
    "city": "Falkenberg",
    "postalCode": "31133"
  },
  {
    "name": "Chemiclean AB",
    "website": null,
    "phone": null,
    "address": "Vretensborgsvägen 21",
    "city": "Hägersten",
    "postalCode": "12904"
  },
  {
    "name": "Cicon Mekaniska Verkstads AB",
    "website": null,
    "phone": "016-14 45 09",
    "address": "Rinmansgatan 12",
    "city": "Eskilstuna",
    "postalCode": "63346"
  },
  {
    "name": "CIFAB",
    "website": null,
    "phone": "0303-222036",
    "address": "Prästvägen 160",
    "city": "Kareby",
    "postalCode": "44293"
  },
  {
    "name": "City Industriservice i Göteborg AB",
    "website": null,
    "phone": "031-7341810",
    "address": "Gruvgatan 5",
    "city": "Mölndal",
    "postalCode": "43124"
  },
  {
    "name": "CLC Systems AB",
    "website": null,
    "phone": "0171-41 10 30",
    "address": "Torstuna 18",
    "city": "Fjärdhundra",
    "postalCode": "74972"
  },
  {
    "name": "CM Svetsteknik i Bollnäs AB",
    "website": null,
    "phone": "0278-667004",
    "address": "Kilbergsvägen 27 D",
    "city": "Bollnäs",
    "postalCode": "82151"
  },
  {
    "name": "CNC Factory AB",
    "website": "cncfactory.se",
    "phone": "0370-173 60",
    "address": "Västbovägen 42B",
    "city": "Värnamo",
    "postalCode": "33127"
  },
  {
    "name": "CNC-Service Kristinehamn AB",
    "website": null,
    "phone": "0550-17714",
    "address": "Vårby Järsberg",
    "city": "Kristinehamn",
    "postalCode": "68191"
  },
  {
    "name": "Colly Flowtech AB",
    "website": null,
    "phone": "08-703 01 30",
    "address": "Raseborgsgatan 9",
    "city": "Kista",
    "postalCode": "16494"
  },
  {
    "name": "Combi plåt & vent AB",
    "website": null,
    "phone": "0474-552 20",
    "address": "Terminalgatan 9",
    "city": "Åseda",
    "postalCode": "36431"
  },
  {
    "name": "Conroco AB",
    "website": null,
    "phone": "0240-650116",
    "address": "Formvägen 1",
    "city": "Söderbärke",
    "postalCode": "77793"
  },
  {
    "name": "Contra Construction & Trading AB",
    "website": null,
    "phone": "0454-172 05",
    "address": "Vilshultsvägen 15",
    "city": "Kyrkhult",
    "postalCode": "29060"
  },
  {
    "name": "Contractor Maskiner AB",
    "website": null,
    "phone": "018-55 60 80",
    "address": "Funbo-lövsta",
    "city": "Uppsala",
    "postalCode": "75594"
  },
  {
    "name": "Cornelis Mekaniska AB",
    "website": null,
    "phone": "0504-15239",
    "address": "Grönhultsvägen 8",
    "city": "Tibro",
    "postalCode": "54351"
  },
  {
    "name": "Corvara Industri- och skadeservice AB",
    "website": null,
    "phone": null,
    "address": "Importgatan 42",
    "city": "Norrköping",
    "postalCode": "60104"
  },
  {
    "name": "Dala Travers Service AB",
    "website": null,
    "phone": "023-77 03 17",
    "address": "Vikavägen 93",
    "city": "Falun",
    "postalCode": "79195"
  },
  {
    "name": "Dalegårds Allmontering AB",
    "website": null,
    "phone": "0141-235587",
    "address": "Skördevägen 12",
    "city": "Motala",
    "postalCode": "59145"
  },
  {
    "name": "Dalkia AB",
    "website": null,
    "phone": null,
    "address": "Box 8733",
    "city": "Göteborg",
    "postalCode": "40275"
  },
  {
    "name": "Dekon Engineering AB",
    "website": "dekon.se",
    "phone": "0490-162 22",
    "address": "Engelbrektsgatan 31",
    "city": "Linköping",
    "postalCode": "58221"
  },
  {
    "name": "DMG MORI Sweden AB",
    "website": "dmgmori.com",
    "phone": "0771-36 57 24",
    "address": "EA Rosengrens Gata 5",
    "city": "Västra Frölunda",
    "postalCode": "42102"
  },
  {
    "name": "Domino Sweden AB",
    "website": null,
    "phone": "013-35 72 00",
    "address": "Attorpsgatan 12",
    "city": "Linköping",
    "postalCode": "58273"
  },
  {
    "name": "Dripdrop AB",
    "website": null,
    "phone": "08-655 02 94",
    "address": "Pipers Väg 2 C",
    "city": "Solna",
    "postalCode": "17073"
  },
  {
    "name": "Duomek AB",
    "website": "duomek.se",
    "phone": "0157-10310",
    "address": "Öjavägen 6 A",
    "city": "Flen",
    "postalCode": "64232"
  },
  {
    "name": "Däldens Mekaniska Verkstad AB",
    "website": "daldensmek.se",
    "phone": "0502-12000",
    "address": "Von Essens Väg 7",
    "city": "Tidaholm",
    "postalCode": "52233"
  },
  {
    "name": "EBM Montage AB",
    "website": "ebmmontageab.se",
    "phone": "0457-700 00",
    "address": "Kärragårdsvägen 11",
    "city": "Listerby",
    "postalCode": "37294"
  },
  {
    "name": "EcoSign Skyltar i Sverige AB",
    "website": null,
    "phone": "0470-73 97 90",
    "address": "Systratorpsvägen 12B",
    "city": "Växjö",
    "postalCode": "35246"
  },
  {
    "name": "Eges El & Automation AB",
    "website": null,
    "phone": "0140-174 26",
    "address": "Vallgatan 15",
    "city": "Tranås",
    "postalCode": "57333"
  },
  {
    "name": "Ekdahls Slipservice AB",
    "website": null,
    "phone": null,
    "address": "Norra Vallg 1",
    "city": "Åstorp",
    "postalCode": "26531"
  },
  {
    "name": "Eklunds Metall AB",
    "website": null,
    "phone": "0372-940 80",
    "address": "Lida Bolmsö",
    "city": "Bolmsö",
    "postalCode": "34193"
  },
  {
    "name": "Ekma-Luft AB",
    "website": null,
    "phone": "0392-130 00",
    "address": "Fabriksgatan 2",
    "city": "Mullsjö",
    "postalCode": "56533"
  },
  {
    "name": "Ekströms Verkstäder AB",
    "website": null,
    "phone": "08-647 27 20",
    "address": "Stallarholmsvägen 46",
    "city": "Bandhagen",
    "postalCode": "12459"
  },
  {
    "name": "El & PC Installationer AB",
    "website": "elpc.se",
    "phone": null,
    "address": "Södra Gårdens Väg 2",
    "city": "Örebro",
    "postalCode": "70221"
  },
  {
    "name": "El o Maskin City i Helsingborg AB",
    "website": null,
    "phone": "042-21 81 75",
    "address": "Fäktmästaregatan 7",
    "city": "Helsingborg",
    "postalCode": "25229"
  },
  {
    "name": "Electro Heat Sweden AB",
    "website": null,
    "phone": "031-76 43 630",
    "address": null,
    "city": null,
    "postalCode": null
  },
  {
    "name": "Elektronik Mekanik i Västerås AB",
    "website": null,
    "phone": "021-155130",
    "address": "Bastborregatan 7",
    "city": "Västerås",
    "postalCode": "72134"
  },
  {
    "name": "Elektroservice Stig Eskilson AB",
    "website": null,
    "phone": "0381-662260",
    "address": "Kaffekullevägen 4",
    "city": "Eksjö",
    "postalCode": "57522"
  },
  {
    "name": "Elinc Sweden AB",
    "website": null,
    "phone": "0520-41 12 30",
    "address": "Kardanv. 48",
    "city": "Trollhättan",
    "postalCode": "46106"
  },
  {
    "name": "Elinstallationer i Töreboda AB",
    "website": null,
    "phone": "0506-199 70",
    "address": "Kårtorp 1",
    "city": "Töreboda",
    "postalCode": "54532"
  },
  {
    "name": "Emmaboda Industriservice AB",
    "website": null,
    "phone": "0471-101 77",
    "address": "Esplanaden 10 A",
    "city": "Emmaboda",
    "postalCode": "36133"
  },
  {
    "name": "Emp Stålteknik AB",
    "website": null,
    "phone": "073-805 47 21",
    "address": "BRÅNHULT 1161",
    "city": "MARKARYD",
    "postalCode": "28591"
  },
  {
    "name": "Energi miljö och fastighetsteknik Syd AB",
    "website": null,
    "phone": "0735339710",
    "address": "Grönalundsgatan 13 A",
    "city": "Limhamn",
    "postalCode": "21616"
  },
  {
    "name": "Energi-Service Trollhättan AB",
    "website": null,
    "phone": "0520-42 80 80",
    "address": "Batterivägen 8",
    "city": "Trollhättan",
    "postalCode": "46151"
  },
  {
    "name": "Entreprenad & MontageTjänst Lindesberg AB",
    "website": null,
    "phone": "070-546 51 09",
    "address": "Ytterbyn 121",
    "city": "Lindesberg",
    "postalCode": "71194"
  },
  {
    "name": "Erik A. Olssons Mekaniska Verkstad AB",
    "website": null,
    "phone": "044-31 28 00",
    "address": "Släpvagnsv 6",
    "city": "Tollarp",
    "postalCode": "29821"
  },
  {
    "name": "Erikssons Mekaniska Verkstad AB",
    "website": null,
    "phone": null,
    "address": "Plantvägen 20/Nedansjö",
    "city": "Stöde",
    "postalCode": "86013"
  },
  {
    "name": "ESA Maskin AB",
    "website": "esamaskin.se",
    "phone": "070-340 70 36",
    "address": "Bråtebäcksvägen 21",
    "city": "Karlstad",
    "postalCode": "65639"
  },
  {
    "name": "Eslövs Emballage AB",
    "website": null,
    "phone": "0413-55 51 73",
    "address": "Kvarngatan 51",
    "city": "Eslöv",
    "postalCode": "24124"
  },
  {
    "name": "ETAB Industriautomation AB",
    "website": "frewito.com",
    "phone": null,
    "address": "Brandskydd (134)",
    "city": "Eskilstuna",
    "postalCode": "63102"
  },
  {
    "name": "Europress AB",
    "website": null,
    "phone": "08-442 16 70",
    "address": "Järngatan 22",
    "city": "Rosersberg",
    "postalCode": "19572"
  },
  {
    "name": "Eurotech AB",
    "website": null,
    "phone": "08-473 08 80",
    "address": "Hägernäsvägen 25",
    "city": "Täby",
    "postalCode": "18360"
  },
  {
    "name": "Fabs AB",
    "website": null,
    "phone": "0322-61 77 50",
    "address": "Smålandsgatan 1",
    "city": "Alingsås",
    "postalCode": "44181"
  },
  {
    "name": "Famico AB",
    "website": null,
    "phone": "0522-360 50",
    "address": "Skalbanksvägen 8",
    "city": "Uddevalla",
    "postalCode": "45155"
  },
  {
    "name": "Fasadia AB",
    "website": null,
    "phone": "0495-249650",
    "address": "Transportgatan 14",
    "city": "Hultsfred",
    "postalCode": "57722"
  },
  {
    "name": "FEKA Partner AB",
    "website": null,
    "phone": "0620-577 30",
    "address": "Storgatan 136",
    "city": "Sollefteå",
    "postalCode": "88140"
  },
  {
    "name": "Finnveden CNC-Service AB",
    "website": null,
    "phone": "076-800 53 04",
    "address": "Ugglegatan 42",
    "city": "Värnamo",
    "postalCode": "33141"
  },
  {
    "name": "Finnvedens Smide AB",
    "website": null,
    "phone": "0370-10184",
    "address": "Margretelundsvägen 3b",
    "city": "Värnamo",
    "postalCode": "33133"
  },
  {
    "name": "Finspångs Allmekano AB",
    "website": null,
    "phone": "0122-292 55",
    "address": "John Fröbergs Väg 4",
    "city": "Lotorp",
    "postalCode": "61013"
  },
  {
    "name": "Finstansteknik i Ulricehamn AB",
    "website": null,
    "phone": "0321-299 50",
    "address": "Falköpingsvägen",
    "city": "Ulricehamn",
    "postalCode": "52390"
  },
  {
    "name": "FKs Rostfritt & Smide AB",
    "website": null,
    "phone": "013-315480",
    "address": "Norra oskarsgatan 20",
    "city": "Linköping",
    "postalCode": "58273"
  },
  {
    "name": "Flakdoktorn Smide AB",
    "website": null,
    "phone": null,
    "address": "Kanalvägen 59",
    "city": "Sollentuna",
    "postalCode": "19134"
  },
  {
    "name": "Fleet Tec AB",
    "website": null,
    "phone": "036-13 47 00",
    "address": "Granitvägen 4",
    "city": "Jönköping",
    "postalCode": "55303"
  },
  {
    "name": "FLV Frösö Lindareverkstad AB",
    "website": null,
    "phone": "063-515198",
    "address": "Chaufförvägen 7",
    "city": "Östersund",
    "postalCode": "83148"
  },
  {
    "name": "Form & Verktygs AB Lööf",
    "website": null,
    "phone": "0371-22 62 20",
    "address": "Solhemsgatan 38",
    "city": "Gislaved",
    "postalCode": "33234"
  },
  {
    "name": "Formteknik Bredaryd AB",
    "website": null,
    "phone": "0370-80770",
    "address": "Östergårdsvägen 4",
    "city": "Bredaryd",
    "postalCode": "33010"
  },
  {
    "name": "Fredrik Hagstedt totalservice AB",
    "website": null,
    "phone": "0705-228820",
    "address": "Färgvägen 2",
    "city": "Stenkullen",
    "postalCode": "44361"
  },
  {
    "name": "Frewito AB",
    "website": "frewito.com",
    "phone": "08-51512040",
    "address": "Skällstavägen 14",
    "city": "Bro",
    "postalCode": "19791"
  },
  {
    "name": "Frovena Service AB",
    "website": "frovenaservice.se",
    "phone": "0702 38 80 30",
    "address": "EGGVENA ÖSTERGÅRDEN 1",
    "city": "HERRLJUNGA",
    "postalCode": "52491"
  },
  {
    "name": "FS Service AB",
    "website": null,
    "phone": "0370-765 20",
    "address": "Fabriksgatan 33",
    "city": "Skillingaryd",
    "postalCode": "56831"
  },
  {
    "name": "FSM Falkenbergs Silo & Maskinmontering AB",
    "website": null,
    "phone": "0708-269396",
    "address": "Hyacintvägen 1",
    "city": "Falkenberg",
    "postalCode": "31133"
  },
  {
    "name": "Fältservice i Mälardalen AB",
    "website": null,
    "phone": "0703-49 47 28",
    "address": "Skoby 124",
    "city": "Rosersberg",
    "postalCode": "19595"
  },
  {
    "name": "G. Eriksson Mekaniska AB",
    "website": "erikssonmekaniska.se",
    "phone": "08-530 344 00",
    "address": "Hamringevägen 1, första/östra grinden",
    "city": "Tullinge",
    "postalCode": "14641"
  },
  {
    "name": "Garnet Greenline AB",
    "website": null,
    "phone": "0523-14210",
    "address": "Björkemyrsvägen 3",
    "city": "Brastad",
    "postalCode": "45493"
  },
  {
    "name": "GASIQ AB",
    "website": null,
    "phone": "0302-24680",
    "address": "Snickarevägen 1",
    "city": "Alingsås",
    "postalCode": "44157"
  },
  {
    "name": "GMK Mekaniska AB",
    "website": null,
    "phone": "0980-30407",
    "address": "Olof Tålcks väg 5",
    "city": "Kiruna",
    "postalCode": "98138"
  },
  {
    "name": "GMKAB Gummi Metall Konsult AB",
    "website": null,
    "phone": "0980-617 14",
    "address": "Lastvägen 33-37",
    "city": "Kiruna",
    "postalCode": "98138"
  },
  {
    "name": "Godhemsgatans Plåtslageri AB",
    "website": null,
    "phone": "031-263741",
    "address": "von Utfallsgatan",
    "city": "Göteborg",
    "postalCode": "41505"
  },
  {
    "name": "Goldeye AB",
    "website": null,
    "phone": "0920-144 30",
    "address": "Ödlegatan 5",
    "city": "Luleå",
    "postalCode": "97334"
  },
  {
    "name": "GraBe Miljö AB",
    "website": null,
    "phone": "060-61 11 90",
    "address": "Thulegatan 25",
    "city": "Sundsvall",
    "postalCode": "85105"
  },
  {
    "name": "Grantek AB",
    "website": null,
    "phone": "0223-492 40",
    "address": "Henningsv.12",
    "city": "Fagersta",
    "postalCode": "73730"
  },
  {
    "name": "Grindex AB",
    "website": null,
    "phone": "08-606 66 00",
    "address": "Gesellvägen 33",
    "city": "Handen",
    "postalCode": "13644"
  },
  {
    "name": "Grundfos AB",
    "website": null,
    "phone": "0771-322300",
    "address": "Lunnagårdsgatan 6",
    "city": "Mölndal",
    "postalCode": "43190"
  },
  {
    "name": "Gunnar L. Anderssons Industri AB",
    "website": null,
    "phone": "0371-34200",
    "address": "Skruvgatan 3",
    "city": "Smålandsstenar",
    "postalCode": "33333"
  },
  {
    "name": "Gyllanders Mek. Verkstads AB",
    "website": null,
    "phone": "0413-16035",
    "address": "Per Håkanssons Väg 20",
    "city": "Eslöv",
    "postalCode": "24124"
  },
  {
    "name": "Göinge Smides Montage AB",
    "website": "goingesmide.se",
    "phone": null,
    "address": "Sibbhultsvägen, Hjärsås",
    "city": "Knislinge",
    "postalCode": "28990"
  },
  {
    "name": "Göteborgs Mekaniska Werkstad AB",
    "website": "gmw.se",
    "phone": "031-64 01 20",
    "address": "Åskvädersgatan 2",
    "city": "Göteborg",
    "postalCode": "41834"
  },
  {
    "name": "Götene Projekt & Konstruktion AB",
    "website": null,
    "phone": "0511-50535",
    "address": "Rubens E 20",
    "city": "Götene",
    "postalCode": "53391"
  },
  {
    "name": "H. Borins Maskinservice AB",
    "website": null,
    "phone": "0650-301 81",
    "address": "Forsavägen 20",
    "city": "Iggesund",
    "postalCode": "82530"
  },
  {
    "name": "Hallberg-Sekrom FabriksAB",
    "website": null,
    "phone": "08-544 708 00",
    "address": "Stockholmsvägen 104",
    "city": "Täby",
    "postalCode": "18302"
  },
  {
    "name": "Hallins Sales AB",
    "website": "hallins.com",
    "phone": "0144-15300",
    "address": "Fabriksvägen 1",
    "city": "Ödeshög",
    "postalCode": "59933"
  },
  {
    "name": "Hallstaviks Mekaniska Maskinmontage AB",
    "website": null,
    "phone": "0175-230 20",
    "address": "Svarvvägen 1",
    "city": "Hallstavik",
    "postalCode": "76330"
  },
  {
    "name": "Hammarby Verktyg & Sliperi AB",
    "website": null,
    "phone": "08-6425455",
    "address": "Hammarby Fabriksväg 43",
    "city": "Stockholm",
    "postalCode": "12033"
  },
  {
    "name": "HARALD PIHL AB",
    "website": null,
    "phone": "08-731 56 00",
    "address": "Mätslingan 19",
    "city": "Täby",
    "postalCode": "18715"
  },
  {
    "name": "Harry Flood & Söner AB",
    "website": null,
    "phone": null,
    "address": "Törbyvägen 24",
    "city": "Örebro",
    "postalCode": "70006"
  },
  {
    "name": "HDIT AB",
    "website": null,
    "phone": "0248-79 86 00",
    "address": "Storgatan 1",
    "city": "Rättvik",
    "postalCode": "79530"
  },
  {
    "name": "Hedemora CNC AB",
    "website": null,
    "phone": "073-975 70 37",
    "address": "Borganäsvägen 23",
    "city": "Hedemora",
    "postalCode": "77631"
  },
  {
    "name": "Hedesunda Saminköp AB",
    "website": null,
    "phone": "0291-105 80",
    "address": "Stationsvägen 3",
    "city": "Hedesunda",
    "postalCode": "81040"
  },
  {
    "name": "HEKTOR´s Reparationsteknik AB",
    "website": null,
    "phone": null,
    "address": "Ånestadlund Nysätter",
    "city": "Vikingstad",
    "postalCode": "59047"
  },
  {
    "name": "Heléns Rör AB",
    "website": "helens.se",
    "phone": null,
    "address": "Västergårdsvägen 16",
    "city": "Halmstad",
    "postalCode": "30104"
  },
  {
    "name": "Helldéns Svets o Mekaniska AB",
    "website": null,
    "phone": "0247-40940",
    "address": "Södra Industriområdet",
    "city": "Insjön",
    "postalCode": "79341"
  },
  {
    "name": "HENJO Plåtteknik AB",
    "website": "highbay.se",
    "phone": null,
    "address": "Brandskydd (134)",
    "city": "Ljungby",
    "postalCode": "34121"
  },
  {
    "name": "Henrik Björklund Entreprenad & Svets AB",
    "website": null,
    "phone": "0920-22 94 89",
    "address": "Betongvägen 16",
    "city": "Luleå",
    "postalCode": "97632"
  },
  {
    "name": "Highbay Service AB",
    "website": "highbay.se",
    "phone": "054-224 47 90",
    "address": "SOMMARROVÄGEN 1",
    "city": "SÄFFLE",
    "postalCode": "66140"
  },
  {
    "name": "Hillmo Maskinteknik AB",
    "website": null,
    "phone": "0702-67 05 53",
    "address": "Odenskogsvägen 36",
    "city": "Östersund",
    "postalCode": "83148"
  },
  {
    "name": "HJ Mek i Eslöv AB",
    "website": null,
    "phone": "+46 413 16 000",
    "address": "Åkerivägen 6",
    "city": "Eslöv",
    "postalCode": "24100"
  },
  {
    "name": "Hjo-Verktyg AB",
    "website": null,
    "phone": "0503-130 80",
    "address": "Industrigatan 38",
    "city": "Hjo",
    "postalCode": "54450"
  },
  {
    "name": "Horns Industriservice AB",
    "website": null,
    "phone": "0494-101 05",
    "address": "Tegelbruksv. 1",
    "city": "Kisa",
    "postalCode": "59040"
  },
  {
    "name": "HUGMA AB",
    "website": null,
    "phone": "0371-211 00",
    "address": "Ågatan 2 A",
    "city": "Anderstorp",
    "postalCode": "33422"
  },
  {
    "name": "HYBE Maskin AB",
    "website": "hybe.se",
    "phone": null,
    "address": "Blomängsvägen 32",
    "city": "Halmstad",
    "postalCode": "30593"
  },
  {
    "name": "Hydraul Teknik Timrå AB",
    "website": null,
    "phone": "060-51 50 30",
    "address": "Plåtslagarvägen 11",
    "city": "Timrå",
    "postalCode": "86136"
  },
  {
    "name": "Hydraulic Supplier i Norden AB",
    "website": null,
    "phone": "0910-72 55 80",
    "address": "Gymnasievägen 16",
    "city": "Skellefteå",
    "postalCode": "93157"
  },
  {
    "name": "Hydraulikmontage i Luleå AB",
    "website": null,
    "phone": "0920-25 00 30",
    "address": "Betongvägen 28",
    "city": "Luleå",
    "postalCode": "97345"
  },
  {
    "name": "Hygap AB",
    "website": null,
    "phone": null,
    "address": "Pilefeltsgatan 58",
    "city": "Halmstad",
    "postalCode": "30250"
  },
  {
    "name": "Håkan Andersson Mekaniska AB",
    "website": null,
    "phone": "0303-333 970",
    "address": "Göteborgsvägen 128",
    "city": "Älvängen",
    "postalCode": "44622"
  },
  {
    "name": "Håson AB",
    "website": null,
    "phone": "070-7507300",
    "address": "Dragongatan 24",
    "city": "Ystad",
    "postalCode": "27125"
  },
  {
    "name": "HÄGGS PLÅT AB",
    "website": null,
    "phone": "0372-10327",
    "address": "Kånnavägen 44",
    "city": "Ljungby",
    "postalCode": "34134"
  },
  {
    "name": "Härryda Smide AB",
    "website": null,
    "phone": "0301-315 20",
    "address": "Sverige",
    "city": null,
    "postalCode": null
  },
  {
    "name": "Höganäs-Plåtslagaren AB",
    "website": null,
    "phone": "042-34 07 22",
    "address": "Bruksgatan 22",
    "city": "Höganäs",
    "postalCode": "26339"
  },
  {
    "name": "Högtryckshuset i Huddinge AB",
    "website": null,
    "phone": "08-7748595",
    "address": "Box 1022",
    "city": "Huddinge",
    "postalCode": "14121"
  },
  {
    "name": "IAG Industri Automations Gruppen AB",
    "website": null,
    "phone": "060-57 55 00",
    "address": "Per Uddéns väg 7",
    "city": "Timrå",
    "postalCode": "86136"
  },
  {
    "name": "IBAG Scandinavia AB",
    "website": null,
    "phone": "0383-347 30",
    "address": "Ekstigen 15",
    "city": "Ekenässjön",
    "postalCode": "57450"
  },
  {
    "name": "IBC International Handling AB",
    "website": null,
    "phone": "0346-569 10",
    "address": "Hamnvägen 1",
    "city": "Falkenberg",
    "postalCode": "31132"
  },
  {
    "name": "IDCC i Lidköping AB",
    "website": null,
    "phone": "0510-617 26",
    "address": "Sockerbruksgatan 5",
    "city": "Lidköping",
    "postalCode": "53140"
  },
  {
    "name": "ILAB",
    "website": "ilab.nu",
    "phone": "0555-91115",
    "address": "Fabriksgatan 6 B",
    "city": "Segmon",
    "postalCode": "66040"
  },
  {
    "name": "Ilsbo legoteknik AB",
    "website": null,
    "phone": "0650-742210",
    "address": "Bergsjövägen 3",
    "city": "Ilsbo",
    "postalCode": "82071"
  },
  {
    "name": "IMS Maskinteknik AB",
    "website": null,
    "phone": "0171-442090",
    "address": "Tillinge Nykvarn",
    "city": "Enköping",
    "postalCode": "74594"
  },
  {
    "name": "Industri Teknik i Västerbotten AB",
    "website": null,
    "phone": "073-072 28 92",
    "address": "Stugunäs 80",
    "city": "Hörnefors",
    "postalCode": "91020"
  },
  {
    "name": "Industrihydraulik Sweden AB",
    "website": null,
    "phone": "0173-25 28 50",
    "address": "Gammelbygatan 18",
    "city": "Östhammar",
    "postalCode": "74234"
  },
  {
    "name": "Industrimiljö i Sweden AB",
    "website": null,
    "phone": "060-615600",
    "address": "Granmodalsgatan 22",
    "city": "Sundsvall",
    "postalCode": "85238"
  },
  {
    "name": "Industriteknik i Eslöv AB",
    "website": null,
    "phone": "0413-191 65",
    "address": "TRAKTORVÄGEN 8",
    "city": "Eslöv",
    "postalCode": "24138"
  },
  {
    "name": "Ingenjörsfirma Rune Hamp AB",
    "website": null,
    "phone": "08-760 29 25",
    "address": "Gribbyvägen 30",
    "city": "Spånga",
    "postalCode": "16344"
  },
  {
    "name": "Ingenjörsfirma Tommy Leindahl AB",
    "website": null,
    "phone": "070-4187681",
    "address": "Bovallsvägen 1B",
    "city": "Södertälje",
    "postalCode": "15242"
  },
  {
    "name": "Ingenjörsfirman J. Mared AB",
    "website": "mared.se",
    "phone": "036-387800",
    "address": "Klövergatan 6",
    "city": "Huskvarna",
    "postalCode": "56123"
  },
  {
    "name": "Inpex AB",
    "website": null,
    "phone": null,
    "address": "Norrbölevägen 1",
    "city": "Mariehamn, Åland",
    "postalCode": "22100"
  },
  {
    "name": "Instrumentkontroll Lars Petersson AB",
    "website": null,
    "phone": "031-24 05 10",
    "address": "Varholmsgatan 1",
    "city": "Göteborg",
    "postalCode": "41474"
  },
  {
    "name": "J S Smide AB",
    "website": null,
    "phone": "0411-481 40",
    "address": "Spårgatan 2",
    "city": "Skurup",
    "postalCode": "27430"
  },
  {
    "name": "J. Redman Åkeri AB",
    "website": null,
    "phone": "070-6438457",
    "address": "Essviksvägen 1",
    "city": "Kvissleby",
    "postalCode": "86234"
  },
  {
    "name": "J.H. Trumhantering AB",
    "website": null,
    "phone": "070-5562404",
    "address": "Söderby Gårds väg 13",
    "city": "Uttran",
    "postalCode": "14760"
  },
  {
    "name": "J.Hultin Aluminiumservice AB",
    "website": "j.hultin",
    "phone": "054-85 02 28",
    "address": "Gjuterigatan 11",
    "city": "Karlstad",
    "postalCode": "65221"
  },
  {
    "name": "Jemtab Systems AB",
    "website": null,
    "phone": "0642-20200",
    "address": "Snickarvägen 3",
    "city": "Lit",
    "postalCode": "83030"
  },
  {
    "name": "Jens S. Transmissioner AB",
    "website": "jens-s.se",
    "phone": null,
    "address": "KOPPARGATAN 9",
    "city": "Norrköping",
    "postalCode": "60223"
  },
  {
    "name": "JK Rostfria AB",
    "website": null,
    "phone": null,
    "address": "Landskronavägen 29",
    "city": "Helsingborg",
    "postalCode": "25232"
  },
  {
    "name": "Johannedals Mekaniska Verkstad AB",
    "website": null,
    "phone": "060-537641",
    "address": "Johannedalsvägen 67",
    "city": "Sundsbruk",
    "postalCode": "86332"
  },
  {
    "name": "Johansson Maskin AB",
    "website": null,
    "phone": "0935-399 30",
    "address": "Företagsvägen 11",
    "city": "Vännäsby",
    "postalCode": "91135"
  },
  {
    "name": "Johsjö Industri AB",
    "website": "johsjo.se",
    "phone": null,
    "address": "Zinkgatan 2",
    "city": "Norrköping",
    "postalCode": "60104"
  },
  {
    "name": "Jowic Elteknik AB",
    "website": null,
    "phone": "060-52 58 90",
    "address": "Arbetsledarvägen 12",
    "city": "Sundsvall",
    "postalCode": "85009"
  },
  {
    "name": "JS Maskin AB",
    "website": null,
    "phone": "08-556 317 42",
    "address": "Vretensborgsvägen 11",
    "city": "Hägersten",
    "postalCode": "12630"
  },
  {
    "name": "JSM Johanssons Svets och Mekaniska AB",
    "website": null,
    "phone": "0382-10150",
    "address": "Brädgårdsgatan",
    "city": "Sävsjö",
    "postalCode": "57622"
  },
  {
    "name": "JTA Metallkomponent AB",
    "website": null,
    "phone": null,
    "address": "Strömfallsvägen 33",
    "city": "Tyresö",
    "postalCode": "13549"
  },
  {
    "name": "JTM Produkt AB",
    "website": null,
    "phone": "0980-21365",
    "address": "Marknadsvägen 200",
    "city": "Jukkasjärvi",
    "postalCode": "98191"
  },
  {
    "name": "JXL Service AB",
    "website": null,
    "phone": "0736-10 56 43",
    "address": "VÄSTERBYKIL 109",
    "city": "VÄSTERFÄRNEBO",
    "postalCode": "73362"
  },
  {
    "name": "Kaefer Isoleringsteknik AB",
    "website": null,
    "phone": "031-44 23 56",
    "address": "Laxfiskevägen 24",
    "city": "Partille",
    "postalCode": "43338"
  },
  {
    "name": "Karlskoga Verktygsteknik AB",
    "website": null,
    "phone": "0586-584 10",
    "address": "Hangarvägen 13",
    "city": "Karlskoga",
    "postalCode": "69135"
  },
  {
    "name": "Karlsson & Stahre Industriservice AB",
    "website": null,
    "phone": "0708-24 80 80",
    "address": "Von Essens väg 11",
    "city": "Tidaholm",
    "postalCode": "52221"
  },
  {
    "name": "Karlstads Lindarverkstad AB",
    "website": null,
    "phone": "054-690680",
    "address": "Gjuterigatan 6",
    "city": "Karlstad",
    "postalCode": "65221"
  },
  {
    "name": "Kenneth Westblom Lastmaskiner AB",
    "website": null,
    "phone": null,
    "address": "Katrineborgsgatan 11",
    "city": "Gävle",
    "postalCode": "80309"
  },
  {
    "name": "KERO Pump AB",
    "website": "kpkpm.se",
    "phone": null,
    "address": "Brandskydd (134)",
    "city": "Södertälje",
    "postalCode": "15242"
  },
  {
    "name": "Keva Smide och Mekaniska AB",
    "website": null,
    "phone": "0451-16102",
    "address": "Svärtingstorp",
    "city": "Finja",
    "postalCode": "28153"
  },
  {
    "name": "Kimbo Hydraulikservice AB",
    "website": null,
    "phone": "0371-364 60",
    "address": "Boarpsvägen 2",
    "city": "Skeppshult",
    "postalCode": "33393"
  },
  {
    "name": "Kisa Svets & Allservice AB",
    "website": null,
    "phone": "013-14 09 15",
    "address": "Ulrikagatan 13",
    "city": "Kisa",
    "postalCode": "59036"
  },
  {
    "name": "Klarvik AB",
    "website": null,
    "phone": "0474-55770",
    "address": "Klarviksvägen 9",
    "city": "Klavreström",
    "postalCode": "36072"
  },
  {
    "name": "Klimatkonsult Peter Modin AB",
    "website": null,
    "phone": "08-564 728 80",
    "address": "Sundbyvägen 42",
    "city": "Spånga",
    "postalCode": "16345"
  },
  {
    "name": "KMG Maskinservice AB",
    "website": null,
    "phone": null,
    "address": "Box 2005",
    "city": "Solna",
    "postalCode": "16902"
  },
  {
    "name": "Knislinge Mekaniska Verkstad AB",
    "website": null,
    "phone": "044-20 24 00",
    "address": "Hedentorpsvägen 16",
    "city": "Kristianstad",
    "postalCode": "29105"
  },
  {
    "name": "Kompressorteknik Sweden AB",
    "website": null,
    "phone": null,
    "address": "Butängsgatan 10F",
    "city": "Norrköping",
    "postalCode": "60223"
  },
  {
    "name": "KPK Plåt och Maskin AB",
    "website": "kpkpm.se",
    "phone": "0480-42 90 50",
    "address": "Södra vägen 22",
    "city": "Kalmar",
    "postalCode": "39245"
  },
  {
    "name": "Kramers Mekaniska Verkstad AB",
    "website": "kramers.se",
    "phone": "0506-132 00",
    "address": "Fredsberg 14",
    "city": "Töreboda",
    "postalCode": "54590"
  },
  {
    "name": "Krylbo Elektra AB",
    "website": null,
    "phone": "0226-170000",
    "address": "Ringvägen 13",
    "city": "Krylbo",
    "postalCode": "77500"
  },
  {
    "name": "Kumerius Mekanik AB",
    "website": null,
    "phone": "070-7683836",
    "address": "Norrgården",
    "city": "Brottby",
    "postalCode": "18670"
  },
  {
    "name": "Kungsörs Mekaniska Verkstad AB",
    "website": null,
    "phone": "0227-61 65 00",
    "address": "Malmbergavägen 21",
    "city": "Kungsör",
    "postalCode": "73632"
  },
  {
    "name": "Kvibille Smides AB",
    "website": null,
    "phone": null,
    "address": "Göteborgsvägen 6",
    "city": "Kvibille",
    "postalCode": "31034"
  },
  {
    "name": "Kylare & hydraulmekanik AB",
    "website": null,
    "phone": null,
    "address": "Bagarevägen 3",
    "city": "Örebro",
    "postalCode": "70375"
  },
  {
    "name": "Lagers Maskin & Consulting AB",
    "website": null,
    "phone": "0920-102 06",
    "address": "Industrivägen 6",
    "city": "Luleå",
    "postalCode": "97254"
  },
  {
    "name": "Landsbro Mekaniska AB",
    "website": null,
    "phone": "0383-603 36",
    "address": "Industrigatan 1",
    "city": "Landsbro",
    "postalCode": "57012"
  },
  {
    "name": "Laser Nova AB",
    "website": null,
    "phone": "063-18 08 80",
    "address": "Odenskogsvägen 1",
    "city": "Östersund",
    "postalCode": "83148"
  },
  {
    "name": "Laxweld AB",
    "website": "laxweld.se",
    "phone": "0584-41 11 39",
    "address": "Lassånavägen 5",
    "city": "Laxå",
    "postalCode": "69532"
  },
  {
    "name": "LB Ohlsson Mekaniska AB",
    "website": null,
    "phone": "0171-91750",
    "address": "Åke wassings väg",
    "city": "Fjärdhundra",
    "postalCode": "74083"
  },
  {
    "name": "LDC Sales & Consulting AB",
    "website": null,
    "phone": "0248-174 40",
    "address": "Nittsjö",
    "city": "Vikarbyn",
    "postalCode": "79570"
  },
  {
    "name": "LEAX Group AB",
    "website": "leax.com",
    "phone": "0221-34600",
    "address": "-",
    "city": "Köping",
    "postalCode": "73136"
  },
  {
    "name": "Leif Åhl Verkstad AB",
    "website": null,
    "phone": "0510-53 00 28",
    "address": "Saleby Erik-Larsgården 11",
    "city": "Lidköping",
    "postalCode": "53193"
  },
  {
    "name": "Lemont AB",
    "website": null,
    "phone": "0240-15037",
    "address": "Jägarnäsvägen 18",
    "city": "Ludvika",
    "postalCode": "77142"
  },
  {
    "name": "LGL Maskin i Gnarp AB",
    "website": null,
    "phone": "0652-20067",
    "address": "Röstbacken",
    "city": "Gnarp",
    "postalCode": "82077"
  },
  {
    "name": "LH Produkter Mälardalen AB",
    "website": null,
    "phone": null,
    "address": "Viby 10",
    "city": "Eskilstuna",
    "postalCode": "63506"
  },
  {
    "name": "Lideco i Dalstorp AB",
    "website": null,
    "phone": "0321-53 03 50",
    "address": "Verkstadsvägen 4",
    "city": "Dalstorp",
    "postalCode": "51463"
  },
  {
    "name": "Lidköpings Carpart AB",
    "website": null,
    "phone": null,
    "address": "Plastgatan 12C",
    "city": "Lidköping",
    "postalCode": "53155"
  },
  {
    "name": "Liljas Smide AB",
    "website": null,
    "phone": "0141-40258",
    "address": "Tjällmovägen 5",
    "city": "Borensberg",
    "postalCode": "59032"
  },
  {
    "name": "Lino Industriteknik AB",
    "website": null,
    "phone": "0290-319 96",
    "address": "Hammarbyvägen 8",
    "city": "Storvik",
    "postalCode": "81221"
  },
  {
    "name": "Ljungby Industriteknik AB",
    "website": null,
    "phone": "070-269 27 23",
    "address": "Industrigatan",
    "city": "Ljungby",
    "postalCode": "34133"
  },
  {
    "name": "Ljungkvist Industriservice AB",
    "website": null,
    "phone": null,
    "address": "Nymövägen 216",
    "city": "Fjälkinge",
    "postalCode": "29034"
  },
  {
    "name": "Ljungsarps Mekaniska AB",
    "website": "ljungsarps.se",
    "phone": "0321 34 02 30",
    "address": "Genhöve",
    "city": "Ljungsarp",
    "postalCode": "51455"
  },
  {
    "name": "Ljungströms Svets och Smide AB",
    "website": null,
    "phone": "0510-206 90",
    "address": "Krangatan 8",
    "city": "Lidköping",
    "postalCode": "53140"
  },
  {
    "name": "Ljusdals Svetsteknik AB",
    "website": null,
    "phone": "0651-152 52",
    "address": "Åkerslundsvägen 32",
    "city": "Ljusdal",
    "postalCode": "82731"
  },
  {
    "name": "Loevaas Rör & Smide AB",
    "website": null,
    "phone": "0571-20050",
    "address": "Hålgatan 5",
    "city": "Charlottenberg",
    "postalCode": "67332"
  },
  {
    "name": "Logscom AB",
    "website": "np2.logscom.com",
    "phone": "094110041",
    "address": "Blåviksvägen 11",
    "city": "Åsele",
    "postalCode": "91931"
  },
  {
    "name": "Low2High Vacuum AB",
    "website": null,
    "phone": "031-68 84 70",
    "address": "Datavägen 57 B",
    "city": "Askim",
    "postalCode": "43632"
  },
  {
    "name": "Lucksta Energy AB",
    "website": "lucksta.se",
    "phone": "070-55 77 197",
    "address": "Lindvägen 17",
    "city": "Matfors",
    "postalCode": "86492"
  },
  {
    "name": "Lundby Container Service LCS AB",
    "website": null,
    "phone": "031-7274500",
    "address": "Synnerödsvägen 15",
    "city": "Göteborg",
    "postalCode": "41878"
  },
  {
    "name": "Lundquist Golv & Industri AB",
    "website": null,
    "phone": null,
    "address": "Länsmansvägen 1",
    "city": "Umeå",
    "postalCode": "90420"
  },
  {
    "name": "LW Plåtslageri AB",
    "website": null,
    "phone": "08-120 059 00",
    "address": "Strömfallsvägen 6",
    "city": "Tyresö",
    "postalCode": "13549"
  },
  {
    "name": "Lyftteknik syd AB",
    "website": "ltsab.com",
    "phone": "0725-04 01 71",
    "address": "Värmevägen 2",
    "city": "Klippan",
    "postalCode": "26439"
  },
  {
    "name": "LÅ-Konsult AB",
    "website": null,
    "phone": "0220-109 05",
    "address": "Ågatan 1",
    "city": "Hallstahammar",
    "postalCode": "73440"
  },
  {
    "name": "Långåkers Elservice AB",
    "website": null,
    "phone": "018-375128",
    "address": "Gävlevägen 306",
    "city": "Björklinge",
    "postalCode": "74372"
  },
  {
    "name": "Läcköverktyg AB",
    "website": null,
    "phone": "0510-10720",
    "address": "Änghagsgatan 13",
    "city": "Lidköping",
    "postalCode": "53199"
  },
  {
    "name": "Lönn El AB",
    "website": null,
    "phone": "0550-82727",
    "address": "2:a Industrigatan 8",
    "city": "Kristinehamn",
    "postalCode": "68122"
  },
  {
    "name": "Lönsboda Verktyg AB",
    "website": null,
    "phone": "0479-20251",
    "address": "Gjutaregatan 4",
    "city": "Lönsboda",
    "postalCode": "28070"
  },
  {
    "name": "Magnus Gustavsson Mekaniska AB",
    "website": null,
    "phone": "0515-72 03 00",
    "address": "Skogatorp Gudhem",
    "city": "Falköping",
    "postalCode": "52194"
  },
  {
    "name": "Magnus Hallbergs Mekaniska AB",
    "website": null,
    "phone": "0304-311 29",
    "address": "Industrivägen 16",
    "city": "Henån",
    "postalCode": "47331"
  },
  {
    "name": "Maintpartner AB",
    "website": null,
    "phone": "010-480 70 00",
    "address": "Ostmästargränd 6",
    "city": "Årsta",
    "postalCode": "12040"
  },
  {
    "name": "Malmberg & Stålbrand AB",
    "website": null,
    "phone": "08-471 71 56",
    "address": "Riddersviksvägen 107",
    "city": "Hässelby",
    "postalCode": "16572"
  },
  {
    "name": "Malmö Byggnadsplåtslageri AB",
    "website": null,
    "phone": "040-434243",
    "address": "Pl 122 Sege",
    "city": "Arlöv",
    "postalCode": "23291"
  },
  {
    "name": "Malmö Elskåp AB",
    "website": null,
    "phone": "040-15 47 97",
    "address": "Ringugnsgatan 12",
    "city": "Limhamn",
    "postalCode": "21616"
  },
  {
    "name": "Malmö Ljus & Kraft AB",
    "website": null,
    "phone": "040-14 33 40",
    "address": "Sporregatan 12",
    "city": "Malmö",
    "postalCode": "21375"
  },
  {
    "name": "Maltab Tryckluftservice AB",
    "website": "maltabtryckluftservice.se",
    "phone": null,
    "address": "Brandskydd (134)",
    "city": "Växjö",
    "postalCode": "35264"
  },
  {
    "name": "Markem-Imaje AB",
    "website": null,
    "phone": "08-534 707 80",
    "address": "Månskärsvägen 9",
    "city": "Kungens Kurva",
    "postalCode": "14175"
  },
  {
    "name": "Martinssons Smide AB",
    "website": null,
    "phone": "0380 122 21",
    "address": "Hantverksgatan 5 C",
    "city": "Nässjö",
    "postalCode": "57134"
  },
  {
    "name": "Maskin & Industriteknik i Nordmaling AB",
    "website": null,
    "phone": "0930-305 25",
    "address": "Strandvägen 50",
    "city": "Rundvik",
    "postalCode": "91441"
  },
  {
    "name": "Maskin & Metallåtervinning i Sverige AB",
    "website": null,
    "phone": null,
    "address": "Tredje Tvärgatan 5",
    "city": "Gävle",
    "postalCode": "80284"
  },
  {
    "name": "Maskincenter i Falköping AB",
    "website": null,
    "phone": "0515-12526",
    "address": "Verkstadsgatan 6",
    "city": "Falköping",
    "postalCode": "52121"
  },
  {
    "name": "Maskinhuset i Trosa AB",
    "website": null,
    "phone": "0156-130 75",
    "address": "Industrigatan 13",
    "city": "Trosa",
    "postalCode": "61921"
  },
  {
    "name": "Maskinservice i Tranemo AB",
    "website": null,
    "phone": "0325-77676",
    "address": "Moavägen 2",
    "city": "Tranemo",
    "postalCode": "51432"
  },
  {
    "name": "Mastec AB",
    "website": null,
    "phone": null,
    "address": "Datorgatan 4",
    "city": "Huskvarna",
    "postalCode": "56133"
  },
  {
    "name": "Masterventilation i Kristianstad AB",
    "website": null,
    "phone": "044-229200",
    "address": "Skepparslövsv. 256",
    "city": "Kristianstad",
    "postalCode": "29109"
  },
  {
    "name": "Max Service & Underhåll AB",
    "website": null,
    "phone": null,
    "address": "Bromåla 4082",
    "city": "Häradsbäck",
    "postalCode": "34392"
  },
  {
    "name": "mcd AB",
    "website": null,
    "phone": "0155-22 27 90",
    "address": "Östra Storgatan 30",
    "city": "Nyköping",
    "postalCode": "61134"
  },
  {
    "name": "Mec-Com Klippan AB",
    "website": null,
    "phone": "0435-44 34 30",
    "address": "Åbytorpsvägen",
    "city": "Klippan",
    "postalCode": "26494"
  },
  {
    "name": "Mec-Con AB",
    "website": "mec-con.se",
    "phone": "0479-155 30",
    "address": "Verkstadsgatan 3",
    "city": "Osby",
    "postalCode": "28321"
  },
  {
    "name": "Mekanotjänst i Örnsköldsvik AB",
    "website": null,
    "phone": "010-483 88 00",
    "address": "Björnavägen 41",
    "city": "Örnsköldsvik",
    "postalCode": "89141"
  },
  {
    "name": "Mekia AB",
    "website": null,
    "phone": "031-96 22 91",
    "address": "Nya Hamnen",
    "city": "Fotö",
    "postalCode": "43092"
  },
  {
    "name": "Mekosmos AB",
    "website": null,
    "phone": "031-876525",
    "address": "Gamla Riksvägen 18",
    "city": "Kållered",
    "postalCode": "42832"
  },
  {
    "name": "Merell SVETS & MONTAGE AB",
    "website": null,
    "phone": "0733-32 16 81",
    "address": "Kålfallsgatan 25",
    "city": "Vikingstad",
    "postalCode": "59047"
  },
  {
    "name": "Metector AB",
    "website": null,
    "phone": "0433-16515",
    "address": "Hannabadsvägen 16",
    "city": "Markaryd",
    "postalCode": "28532"
  },
  {
    "name": "Metrik Produktionsverktyg AB",
    "website": null,
    "phone": "08-7716070",
    "address": "Fräsarvägen 3",
    "city": "Skogås",
    "postalCode": "14250"
  },
  {
    "name": "Mevira AB",
    "website": null,
    "phone": "0495-304 10",
    "address": "Fabriksgatan 4",
    "city": "Virserum",
    "postalCode": "57771"
  },
  {
    "name": "MFS TECHNOLOGY AB",
    "website": null,
    "phone": "0370-895 80",
    "address": "Fänestad",
    "city": "Forsheda",
    "postalCode": "33171"
  },
  {
    "name": "MFT Maskin & Fordonsteknik AB",
    "website": null,
    "phone": "070-6330332",
    "address": "Gunnarsvägen 20",
    "city": "Ludvika",
    "postalCode": "77190"
  },
  {
    "name": "MG Industrisvets AB",
    "website": null,
    "phone": "0220-174 50",
    "address": "Cementvägen 7",
    "city": "Hallstahammar",
    "postalCode": "73432"
  },
  {
    "name": "MI Svets & Industriservice AB",
    "website": null,
    "phone": "073-096 75 17",
    "address": "Ovako Industriområde",
    "city": "Smedjebacken",
    "postalCode": "77733"
  },
  {
    "name": "Mickelssons Mekaniska Verkstad AB",
    "website": null,
    "phone": "0295-202 80",
    "address": "Karl Kihlboms väg 13",
    "city": "Österbybruk",
    "postalCode": "74822"
  },
  {
    "name": "Midroc Electro AB",
    "website": null,
    "phone": "010-470 75 00",
    "address": "Box 501",
    "city": "Sandviken",
    "postalCode": "81125"
  },
  {
    "name": "Midroc Rodoverken AB",
    "website": "rodoverken.se",
    "phone": "010-4707900",
    "address": "Sverige",
    "city": null,
    "postalCode": null
  },
  {
    "name": "Mikaelsson Kapmaskinservice AB",
    "website": "kapmaskinservice.se",
    "phone": "070-853 06 88",
    "address": "Alvägen 22",
    "city": "Tumba",
    "postalCode": "14733"
  },
  {
    "name": "Miljöpalatset AB",
    "website": null,
    "phone": "08-646 20 30",
    "address": "Karusellplan 8",
    "city": "Hägersten",
    "postalCode": "12631"
  },
  {
    "name": "Miljöventilation i Mellannorrland AB",
    "website": null,
    "phone": "060-50 12 00",
    "address": "Linköpingsvägen 5",
    "city": "Sundsvall",
    "postalCode": "85731"
  },
  {
    "name": "MIREMO AB",
    "website": null,
    "phone": "070-2554402",
    "address": "Skövdevägen 9",
    "city": "Hjo",
    "postalCode": "54432"
  },
  {
    "name": "Mittel Fjärrvärme AB",
    "website": null,
    "phone": null,
    "address": "Industrivägen 22",
    "city": "Umeå",
    "postalCode": "90130"
  },
  {
    "name": "Miva Montage AB",
    "website": null,
    "phone": null,
    "address": "Rörvägen 36",
    "city": "Jordbro",
    "postalCode": "13650"
  },
  {
    "name": "Mocano i Sverige AB",
    "website": null,
    "phone": null,
    "address": "Krickvägen 30 G",
    "city": "Gävle",
    "postalCode": "80309"
  },
  {
    "name": "Montagetjänst Bodin & Co. AB",
    "website": null,
    "phone": "054-60 25 00",
    "address": "Industrileden 4",
    "city": "Forshaga",
    "postalCode": "66721"
  },
  {
    "name": "Mortec AB",
    "website": null,
    "phone": "0910-566 66",
    "address": "Förrådsgränd 1",
    "city": "Bureå",
    "postalCode": "93015"
  },
  {
    "name": "Motor & Bilelektra O. Jacobsson AB",
    "website": null,
    "phone": "046-73 50 55",
    "address": "Nordanvägen 5",
    "city": "Kävlinge",
    "postalCode": "24422"
  },
  {
    "name": "MT Alltjänst Transport AB",
    "website": null,
    "phone": null,
    "address": "Plåtslagaregatan 14",
    "city": "Åstorp",
    "postalCode": "26533"
  },
  {
    "name": "MTI AB",
    "website": null,
    "phone": "0490-102 82",
    "address": "Videgrensgatan 6",
    "city": "Västervik",
    "postalCode": "59332"
  },
  {
    "name": "Myckle Transport & Påbyggnad AB",
    "website": null,
    "phone": "0910-554 76",
    "address": "Mycklevägen 171",
    "city": "Skellefteå",
    "postalCode": "93198"
  },
  {
    "name": "Mykå Verktyg & Mekanik AB",
    "website": null,
    "phone": "054-56 77 20",
    "address": "Zakrisdalsvägen 34 B",
    "city": "Karlstad",
    "postalCode": "65115"
  },
  {
    "name": "Mylift Sweden AB",
    "website": null,
    "phone": "031-788 20 00",
    "address": "Analysvägen 7",
    "city": "Mölnlycke",
    "postalCode": "43533"
  },
  {
    "name": "Mytec Ytbehandling AB",
    "website": null,
    "phone": "0340-10255",
    "address": "Vagnvägen 3A",
    "city": "Varberg",
    "postalCode": "43232"
  },
  {
    "name": "Mätmeko i Norrköping AB",
    "website": null,
    "phone": null,
    "address": "Exportgatan 19",
    "city": "Norrköping",
    "postalCode": "60006"
  },
  {
    "name": "NBM Hydraulic AB",
    "website": null,
    "phone": null,
    "address": "Mediavägen 17",
    "city": "Solna",
    "postalCode": "17173"
  },
  {
    "name": "Netmilling AB",
    "website": null,
    "phone": "0418-13470",
    "address": "Förrådsgatan 3",
    "city": "Landskrona",
    "postalCode": "26135"
  },
  {
    "name": "Newtec Industriservice AB",
    "website": null,
    "phone": "031-525060",
    "address": "Teatergatan 19",
    "city": "Göteborg",
    "postalCode": "41135"
  },
  {
    "name": "Newton Design Smide AB",
    "website": null,
    "phone": "0708181245",
    "address": "Gamla Tågarpsvägen 182",
    "city": "Mörarp",
    "postalCode": "25356"
  },
  {
    "name": "Nibab Nordh i Bollnäs AB",
    "website": "nibab.eu",
    "phone": "070-281 23 23",
    "address": "Björkbäcksgatan 8",
    "city": "Bollnäs",
    "postalCode": "82135"
  },
  {
    "name": "Niklas Anderssons Industriservice AB",
    "website": null,
    "phone": "0515-80849",
    "address": "Nordmannagatan 3",
    "city": "Falköping",
    "postalCode": "52136"
  },
  {
    "name": "Nikolaussons Plåtslageri AB",
    "website": null,
    "phone": "0472-26 02 02",
    "address": "Södra Fabriksgatan 5",
    "city": "Lammhult",
    "postalCode": "36030"
  },
  {
    "name": "Nilsson Larsson Industri & Robotservice AB",
    "website": "nilaab.se",
    "phone": null,
    "address": "Kullavägen 70",
    "city": "Umeå",
    "postalCode": "90362"
  },
  {
    "name": "NKS-Kemipumpar AB",
    "website": null,
    "phone": "0300-701 05",
    "address": "Sverige",
    "city": null,
    "postalCode": null
  },
  {
    "name": "Noa Lyftteknik AB",
    "website": null,
    "phone": "018-430 05 05",
    "address": "Box 934",
    "city": "Uppsala",
    "postalCode": "75109"
  },
  {
    "name": "Nomo Kullager AB",
    "website": "nomo.com",
    "phone": "08-630 28 00",
    "address": "Gribbylundsvägen 2",
    "city": "Täby",
    "postalCode": "18762"
  },
  {
    "name": "Sponsrad länk Ravina AB",
    "website": "ravina.se",
    "phone": null,
    "address": "Brandskydd (134)",
    "city": "FALUN",
    "postalCode": "79192"
  },
  {
    "name": "Sponsrad länk Junic AB",
    "website": "junic.se",
    "phone": "0371-830 50",
    "address": "Baldersvägen 31",
    "city": "Gislaved",
    "postalCode": "33235"
  },
  {
    "name": "Sponsrad länk APG Industriservice AB",
    "website": null,
    "phone": "0733765053",
    "address": "Bruksgatan 4",
    "city": "Ekeby",
    "postalCode": "26775"
  },
  {
    "name": "Sponsrad länk Jernbro Industrial Services AB",
    "website": "jernbro.com",
    "phone": "010-483 00 00",
    "address": "Mölndalsvägen 42",
    "city": "Göteborg",
    "postalCode": "41263"
  },
  {
    "name": "2-Con Sverige AB",
    "website": "2con.se",
    "phone": "0171-46 71 81",
    "address": "Tegelbruksvägen 10",
    "city": "Bålsta",
    "postalCode": "74630"
  },
  {
    "name": "A Rubertsson Allkal AB",
    "website": "rubertssonallkal.se",
    "phone": "0501-393000",
    "address": "Förrådsgatan 22",
    "city": "Mariestad",
    "postalCode": "54235"
  },
  {
    "name": "AB Bröderna Hedbergs Mekaniska",
    "website": "hedbergsmek.se",
    "phone": "054-860130",
    "address": "Skattkärr",
    "city": "Karlstad",
    "postalCode": "65594"
  },
  {
    "name": "AB Eica-Bolaget",
    "website": "eica.se",
    "phone": null,
    "address": "Trönningevägen 3",
    "city": "Halmstad",
    "postalCode": "30010"
  },
  {
    "name": "AB Höglandets Kompressorservice",
    "website": "hkservice.se",
    "phone": "0380-188 60",
    "address": "Bockängsgatan 5",
    "city": "Nässjö",
    "postalCode": "57138"
  },
  {
    "name": "ABUS Kransystem AB",
    "website": "abus-kransystem.se",
    "phone": "054-55 56 50",
    "address": "Strågatan 5",
    "city": "Karlstad",
    "postalCode": "65343"
  },
  {
    "name": "Aesseal Sweden AB",
    "website": "aesseal.se",
    "phone": "08-556 028 70",
    "address": "Varuvägen 32",
    "city": "Älvsjö",
    "postalCode": "12530"
  },
  {
    "name": "AH Automation AB",
    "website": "ah-automation.se",
    "phone": "0523-795 00",
    "address": "Klippsjövägen 6, Kungshamn",
    "city": "Smögen",
    "postalCode": "45625"
  },
  {
    "name": "Albo System Sweden AB",
    "website": "albo.se",
    "phone": "0300-56 62 60",
    "address": "Tryckarevägen 8",
    "city": "Kungsbacka",
    "postalCode": "43437"
  },
  {
    "name": "Alingsås Bandtransport & Miljöservice AB",
    "website": "xbm-ab.se",
    "phone": null,
    "address": "Vävlagargatan 4 m & 4l",
    "city": "Brämhult",
    "postalCode": "50730"
  },
  {
    "name": "Amada Scandinavia AB",
    "website": "amada.eu",
    "phone": "0322-20 99 00",
    "address": "Borgens Gata 16-18",
    "city": "Alingsås",
    "postalCode": "44139"
  },
  {
    "name": "Andreas Risne Maskinservice AB, AR Maskinservice",
    "website": "armaskinservice.se",
    "phone": "0300-302 96",
    "address": "Gottskärsvägen 150",
    "city": "Onsala",
    "postalCode": "43994"
  },
  {
    "name": "Anjo Mekanik AB",
    "website": "anjomekanik.se",
    "phone": "0910-211600",
    "address": "Hyvelgatan 1",
    "city": "Skellefteå",
    "postalCode": "93136"
  },
  {
    "name": "Aros Swede Service AB",
    "website": "arosswede.se",
    "phone": "0706-22 14 60",
    "address": "Kaprifolgatan 103",
    "city": "Västerås",
    "postalCode": "72245"
  },
  {
    "name": "Aröds Mekaniska Verkstad AB",
    "website": "arodsmek.se",
    "phone": "031-23 35 31",
    "address": "Aröds Industriväg 11",
    "city": "Göteborg",
    "postalCode": "41705"
  },
  {
    "name": "Askalon AB",
    "website": "askalon.se",
    "phone": "054-57 92 00",
    "address": "Nolgårdsvägen 11",
    "city": "Hammarö",
    "postalCode": "66341"
  },
  {
    "name": "Atlas Copco Compressor AB",
    "website": "atlascopco.com",
    "phone": "08-743 90 00",
    "address": "Sickla Industriväg 19",
    "city": "Nacka",
    "postalCode": "13154"
  },
  {
    "name": "Avesta Verkstäder AB",
    "website": "avab.info",
    "phone": "0226-508 00",
    "address": "Materialvägen 1",
    "city": "Avesta",
    "postalCode": "77462"
  },
  {
    "name": "Axelssons Industri & Maskinservice AB - Lengpac - Leng",
    "website": "eng.lengpac.se",
    "phone": null,
    "address": "Östra Svinhult 17",
    "city": "Jönköping",
    "postalCode": "55593"
  },
  {
    "name": "B. Sandhs Mekaniska Verkstad AB",
    "website": "smvab.eu",
    "phone": "031-23 44 80",
    "address": "Hildebrandsgatan 7",
    "city": "Göteborg",
    "postalCode": "41705"
  },
  {
    "name": "Bengtsson Steelworks AB",
    "website": "bengtssonsteelworks.se",
    "phone": "070-976 19 38",
    "address": "Värnamovägen 37",
    "city": "LAMMHULT",
    "postalCode": "36344"
  },
  {
    "name": "Bengtssons Maskin AB",
    "website": "bengtssons-maskin.se",
    "phone": "040-680 73 00",
    "address": "Företagsvägen 14",
    "city": null,
    "postalCode": null
  },
  {
    "name": "BERGU – Bertram Process Engineering AB",
    "website": "bergu.se",
    "phone": "042-127970",
    "address": "Oceanen 184",
    "city": "Höganäs",
    "postalCode": "26391"
  },
  {
    "name": "Betab i Skellefteå AB",
    "website": "betab.se",
    "phone": "0702644689",
    "address": "Näsuddsvägen 14",
    "city": "Skelleftehamn",
    "postalCode": "93232"
  },
  {
    "name": "Bevi AB",
    "website": "bevi.se",
    "phone": "0499-271 00",
    "address": "Bevivägen 1",
    "city": "Blomstermåla",
    "postalCode": "38430"
  },
  {
    "name": "BEVI AB - Norra Sverige",
    "website": "bevi.se",
    "phone": null,
    "address": "Kontaktvägen 8",
    "city": "Umeå",
    "postalCode": "90133"
  },
  {
    "name": "BGC-Plåt i Horndal AB",
    "website": "bgc-plat.se",
    "phone": "0226-402 15",
    "address": "Södra Industriområdet",
    "city": "Horndal",
    "postalCode": "77468"
  },
  {
    "name": "Biab Truckservice AB",
    "website": "biabtruckservice.se",
    "phone": "031-49 51 90",
    "address": "Industrivägen 4a",
    "city": "Härryda",
    "postalCode": "43892"
  },
  {
    "name": "Bjärnums Stålprodukter AB",
    "website": "stalprodukter.se",
    "phone": "0451-77 58 50",
    "address": "Sågverksgatan 6",
    "city": "Bjärnum",
    "postalCode": "28261"
  },
  {
    "name": "BmuTek AB",
    "website": "bmutek.se",
    "phone": "0730-91 42 89",
    "address": "Bangårdsgatan 57",
    "city": "Värnamo",
    "postalCode": "33135"
  },
  {
    "name": "Boas Industriservice AB",
    "website": "boas.se",
    "phone": "08-55061680",
    "address": "Oxelgrensvägen 34",
    "city": "Södertälje",
    "postalCode": "15142"
  },
  {
    "name": "Bobbys Mek O Svets AB",
    "website": "bmos.se",
    "phone": "070-945 30 03",
    "address": "Rössmåla 22",
    "city": "Urshult",
    "postalCode": "36295"
  },
  {
    "name": "BoMek Verkstads AB i Göteborg",
    "website": "bomek.se",
    "phone": "031-507300",
    "address": "Kalkbruksgatan 7",
    "city": "Göteborg",
    "postalCode": "41707"
  },
  {
    "name": "Borlänge Motorrenovering AB",
    "website": null,
    "phone": "0243-22 46 00",
    "address": "Herrgårdsgatan 14",
    "city": "Borlänge",
    "postalCode": "78172"
  },
  {
    "name": "Botab AB",
    "website": "botab.se",
    "phone": "0152-211 20",
    "address": "Finningevägen 75",
    "city": "Strängnäs",
    "postalCode": "64542"
  },
  {
    "name": "BS Verkstäder AB",
    "website": "bsverkstader.se",
    "phone": null,
    "address": "Spårvägen 1",
    "city": "Falköping",
    "postalCode": "52194"
  },
  {
    "name": "Burseryds Mekaniska AB",
    "website": "meket.com",
    "phone": "0371-366 30",
    "address": "Storgatan 53",
    "city": "Burseryd",
    "postalCode": "33377"
  },
  {
    "name": "CARLHAG AB",
    "website": "carlhag.se",
    "phone": "054-55 57 70",
    "address": "Strågatan 5",
    "city": "Karlstad",
    "postalCode": "65343"
  },
  {
    "name": "CARLSTAD MACHINETOOLS AB",
    "website": "cmabs.se",
    "phone": null,
    "address": "Zakrisdalsvägen 26",
    "city": "Karlstad",
    "postalCode": "65342"
  },
  {
    "name": "CENTAB Sverige AB",
    "website": "centab.se",
    "phone": "0510-253 00",
    "address": "Stockvägen 4",
    "city": "Lidköping",
    "postalCode": "53154"
  },
  {
    "name": "CERTEX Svenska AB",
    "website": "certex.se",
    "phone": "08-758 00 10",
    "address": "Pentavägen 3",
    "city": "Täby",
    "postalCode": "18730"
  },
  {
    "name": "CNC-Tekno Scandinavia AB",
    "website": "cnc-tekno.com",
    "phone": "0243-244 144",
    "address": "Morbyvägen 36",
    "city": "Gustafs",
    "postalCode": "78350"
  },
  {
    "name": "CONRIT AB",
    "website": "conrit.se",
    "phone": "021-470 54 50",
    "address": "Stolpgatan 3",
    "city": "Västerås",
    "postalCode": "72136"
  },
  {
    "name": "Constructor Sverige AB",
    "website": "constructor.se",
    "phone": "031-771 96 00",
    "address": "Bergsjödalen 60",
    "city": "Göteborg",
    "postalCode": "41664"
  },
  {
    "name": "Cranemech AB",
    "website": "wedolifting.se",
    "phone": "0431-43 24 20",
    "address": "Metallgatan 4A",
    "city": "Ängelholm",
    "postalCode": "26272"
  },
  {
    "name": "Crescocito AB",
    "website": "crescocito.com",
    "phone": "0510-48 87 70",
    "address": "Strandgatan 28",
    "city": "Lidköping",
    "postalCode": "53130"
  },
  {
    "name": "CS OptimalaSystem AB",
    "website": "csos.se",
    "phone": null,
    "address": "FRIDHEMSVÄGEN 3",
    "city": "Norrköping",
    "postalCode": "60103"
  },
  {
    "name": "Dala Industri och Värmeservice AB",
    "website": "dalaindustri.se",
    "phone": "070-567 90 07",
    "address": "Lönnemossa 83",
    "city": "Falun",
    "postalCode": "79147"
  },
  {
    "name": "Damaskus Maskinskydd AB",
    "website": "damaskus.se",
    "phone": "08-556 505 20",
    "address": "Anläggarvägen 14",
    "city": "Handen",
    "postalCode": "13644"
  },
  {
    "name": "David Brown Santasalo Sweden AB",
    "website": "dbsantasalo.com",
    "phone": "0709244057",
    "address": "Norra Långebergsgatan 4",
    "city": "Västra Frölunda",
    "postalCode": "42132"
  },
  {
    "name": "Dematek AB - Trygga Lyft sedan 1919",
    "website": "dematek.se",
    "phone": "010-202 35 00",
    "address": "Gamla Södertäljev 125",
    "city": "Huddinge",
    "postalCode": "14171"
  },
  {
    "name": "Dendro Lift AB",
    "website": "dendrolift.com",
    "phone": "026-45 73 450",
    "address": "Box 3055",
    "city": "Uppsala",
    "postalCode": "75003"
  },
  {
    "name": "Dibo Produktionspartner AB",
    "website": "dibo.se",
    "phone": "070-6829920",
    "address": "Ljungvägen 3",
    "city": "Katrineholm",
    "postalCode": "64139"
  },
  {
    "name": "Duroc Laser Coating AB",
    "website": "duroclasercoating.com",
    "phone": "0920-432220",
    "address": "Fabriksvägen 16",
    "city": "Luleå",
    "postalCode": "97254"
  },
  {
    "name": "DynaMate AB",
    "website": "dynamate.se",
    "phone": "08 522 933 00",
    "address": "Tallvägen 2",
    "city": "Södertälje",
    "postalCode": "15138"
  }
]